schoolid_cps,schoolname_cps,fullname_cps,schoolname2_cps,isbe_name_cps,street_number_cps,street_direction_cps,street_name_cps,city_cps,state_cps,zip_cps,cps_unit_cps,oracleid_cps,school_category_cps,community_area_number_cps,community_area_cps,geographicarea_cps,geographic_area_number_cps,cook_county_district_cps,census_block_cps,latitude_cps,longitude_cps,ncessch_num_cps,ncessch_cps,census_tract_cps
400096,Rowe,Rowe Elementary School,Rowe,Rowe Elementary,1424,N,Cleaver St,Chicago,IL,60642,8077.0,66571,ES,24.0,West Town,Near North,10.0,1.0,170312416001010,41.907797772,-87.6640357412999,,_,17031241600
610107,Otis,James Otis Elementary School,Otis,Otis Elem School,525,N,Armour St,Chicago,IL,60642,5220.0,24791,ES,24.0,West Town,Near North,10.0,8.0,170312433002018,41.9785009929,-87.8120172661,170993001012,_170993001012,17031243300
400163,Kipp Bloom Chtr Campus,KIPP Charter Bloom,Kipp Bloom Chtr Campus,,5515,S,Lowe Ave,Chicago,IL,60621,9627.0,,MS,68.0,Englewood,Englewood,4.0,2.0,170318347003007,41.8824467602999,-87.6277730491,,_,17031834700
609780,Ames,Ames Middle School,Ames,Ames Middle School,1920,N,Hamlin Ave,Chicago,IL,60647,2090.0,41111,MS,22.0,Logan Square,Logan,9.0,8.0,170312229001004,41.8338264794999,-87.6506520970999,170993002618,_170993002618,17031222900
610234,Yates,Richard Yates Elementary School,Yates,Yates Elem School,1839,N,Richmond St,Chicago,IL,60647,6510.0,25911,ES,22.0,Logan Square,Logan,9.0,8.0,170312225001012,42.0075054013,-87.7783138193999,170993001176,_170993001176,17031222500
609827,Burnside,Burnside Elementary Scholastic Academy,Burnside,Burnside Elem Scholastic Academy,650,E,91st Pl,Chicago,IL,60619,2520.0,29021,ES,44.0,Chatham,Chatham,12.0,4.0,170314409001018,41.7144023589,-87.5670939688999,170993000635,_170993000635,17031440900
609740,Wells HS,Wells Community Academy High School,Wells HS,Wells Community Academy HS,936,N,Ashland Ave,Chicago,IL,60622,1640.0,51071,HS,24.0,West Town,Near North,10.0,1.0,170312421003000,41.9182675643,-87.6460460882999,170993001192,_170993001192,17031242100
,Lozano Leadership Academy - Mastery Campus,Instituto Charter Rudy Lozano - RLLAM,Lozano Leadership Academy - Mastery Campus,,2520,S,Western Ave,Chicago,IL,60608,9628.0,,HS,31.0,Lower West Side,Pilsen - Little Village,16.0,2.0,170318413002016,41.7526966442,-87.5508909663,,_,17031841300
610199,Colemon,Johnnie Colemon Elementary Academy,Colemon,Colemon  J Elem Academy,1441,W,119th St,Chicago,IL,60643,6170.0,26751,ES,53.0,West Pullman,Far South Side,22.0,5.0,170315304002004,41.8923771766,-87.6737219217999,170993004016,_170993004016,17031530400
610340,Chgo Acad HS,Chicago Academy High School,Chgo Acad HS,Chicago Academy High School,3400,N,Austin Ave,Chicago,IL,60634,7770.0,46481,HS,17.0,Dunning,Reed-Dunning,24.0,12.0,170311711001012,41.8862374964,-87.7154238419,170993005061,_170993005061,17031171100
610304,Phoenix Military HS,Phoenix Military Academy High School,Phoenix Military HS,Phoenix Military Academy HS,145,S,Campbell Ave,Chicago,IL,60612,7310.0,55011,HS,28.0,Near West Side,Near West,23.0,1.0,170312808001010,41.7653075455,-87.6413336827999,170993004715,_170993004715,17031280800
400119,Legal Prep Chtr - Academy,Legal Prep Charter Academy,Legal Prep Chtr - Academy,Legal Prep Academy Charter HS,,,,Chicago,IL,60624,9036.0,66641,HS,26.0,West Garfield Park,Garfield - West Humboldt,20.0,1.0,170312603001027,41.8818929926,-87.7338528673,,_,17031260300
609993,Lara,Agustin Lara Elementary Academy,Lara,Lara Elem Academy,4619,S,Wolcott Ave,Chicago,IL,60609,3980.0,23791,ES,61.0,New City,McKinley Park,17.0,7.0,170316103003025,41.8668750427999,-87.6285782988999,170993001612,_170993001612,17031610300
610221,Webster,Daniel Webster Elementary School,Webster,Webster Elem School,4055,W,Arthington St,Chicago,IL,60624,6380.0,25791,ES,26.0,West Garfield Park,Garfield - West Humboldt,20.0,2.0,170312610002028,41.6881589258999,-87.5360151861,170993001148,_170993001148,17031261000
609958,Gunsaulus,Frank W Gunsaulus Elementary Scholastic Academy,Gunsaulus,Gunsaulus Elem Scholastic Academy,4420,S,Sacramento Ave,Chicago,IL,60632,3690.0,29121,ES,58.0,Brighton Park,McKinley Park,17.0,7.0,170315805022008,41.7389207188,-87.6449886067999,170993000745,_170993000745,17031580502
610153,Ryder,William H Ryder Math & Science Specialty ES,Ryder,Ryder Elem Math & Sci Spec School,8716,S,Wallace St,Chicago,IL,60620,5670.0,25191,ES,71.0,Auburn Gresham,Auburn Gresham,5.0,4.0,170317115002009,41.8071423342,-87.6660736056,170993001065,_170993001065,17031711500
610120,Peck,Ferdinand Peck Elementary School,Peck,Peck Elem School,3826,W,58th St,Chicago,IL,60629,5340.0,24871,ES,62.0,West Elsdon,McKinley Park,17.0,7.0,170316204003004,41.7685557097,-87.5829177340999,170993001025,_170993001025,17031620400
609942,Goethe,Johann W von Goethe Elementary School,Goethe,Goethe Elem School,2236,N,Rockwell St,Chicago,IL,60647,3560.0,23341,ES,22.0,Logan Square,Logan,9.0,8.0,170312214001005,41.7253316277,-87.6237560589,170993000794,_170993000794,17031221400
609772,Addams,Jane Addams Elementary School,Addams,Addams Elem School,10810,S,Avenue H,Chicago,IL,60617,2020.0,22021,ES,52.0,East Side,Far East Side,2.0,4.0,170315205001002,41.7935651919,-87.6414185840999,170993000884,_170993000884,17031520500
609745,Southside HS,Southside Occupational Academy High School,Southside HS,Southside Occupational Acad Hs,7342,S,Hoyne Ave,Chicago,IL,60636,1700.0,49031,HS,67.0,West Englewood,Englewood,4.0,3.0,170316720004008,41.7805269301,-87.7179770874,170993005305,_170993005305,17031672000
400087,Yng Women - Chtr Campus,Young Women's Leadership Charter High School,Yng Women - Chtr Campus,Young Womens Leadership Chartr HS,2641,S,Calumet Ave,Chicago,IL,60616,2490.0,66171,HS,35.0,Douglas,Bronzeville,15.0,3.0,170318392001001,41.8445432736,-87.6187604881999,170993003981,_170993003981,17031839200
609760,Carver Military,George Washington Carver Military Academy HS,Carver Military,Carver Military Academy HS,13100,S,Doty Ave,Chicago,IL,60627,1850.0,46381,HS,54.0,Riverdale,Far South Side,22.0,4.0,170315401022003,41.8030814219,-87.7220649188,170993000671,_170993000671,17031540102
610129,Pickard,Josiah Pickard Elementary School,Pickard,Pickard Elem School,2301,W,21st Pl,Chicago,IL,60608,5430.0,24961,ES,31.0,Lower West Side,Pilsen - Little Village,16.0,7.0,170318412002034,41.981557604,-87.7125458043999,170993001034,_170993001034,17031841200
610038,Lincoln,Abraham Lincoln Elementary School,Lincoln,Lincoln Elem School,615,W,Kemper Pl,Chicago,IL,60614,4480.0,24191,ES,7.0,Lincoln Park,Lincoln Park,29.0,10.0,170310712001008,41.9068255735,-87.7545866804999,170993000918,_170993000918,17031071200
610090,Murray,Phillip Murray Elementary Language Academy,Murray,Murray Elem Language Academy,5335,S,Kenwood Ave,Chicago,IL,60615,5030.0,29221,ES,41.0,Hyde Park,Hyde Park,14.0,3.0,170314107001008,41.9209102466,-87.7218514096,170993000984,_170993000984,17031410700
609874,Dirksen,Everett McKinley Dirksen Elementary School,Dirksen,Dirksen Elem School,8601,W,Foster Ave,Chicago,IL,60656,2950.0,22871,ES,76.0,Ohare,Reed-Dunning,24.0,9.0,170317608034002,41.8560561577,-87.6579809592,170993001174,_170993001174,17031760803
610155,Sauganash,Sauganash Elementary School,Sauganash,Sauganash Elem School,6040,N,Kilpatrick Ave,Chicago,IL,60646,5690.0,25211,ES,12.0,Forest Glen,Sauganash,28.0,10.0,170311203004006,41.7519451212999,-87.6181030892,170993001067,_170993001067,17031120300
609735,Tilden HS,Edward Tilden Career Community Academy HS,Tilden HS,Tilden Career Communty Academy HS,4747,S,Union Ave,Chicago,IL,60609,1590.0,53121,HS,61.0,New City,McKinley Park,17.0,11.0,170318438001007,42.0026869267,-87.6692289262,170993001161,_170993001161,17031843800
400159,Christopher House Chtr School,Christopher Charter House ES,Christopher House Chtr School,,5235,W,Belden Ave,Chicago,IL,60639,9616.0,,HS,19.0,Belmont Cragin,Belmont Cragin,26.0,8.0,170311912001013,41.9222085955,-87.757522053,,_,17031191200
609927,Foster Park,Foster Park Elementary School,Foster Park,Foster Park Elem School,8530,S,Wood St,Chicago,IL,60620,3430.0,23261,ES,71.0,Auburn Gresham,Auburn Gresham,5.0,3.0,170317112003007,41.8711794585999,-87.7008560608,170993001186,_170993001186,17031711200
609991,Herzl,Theodore Herzl Elementary School,Herzl,Herzl Elem School,3711,W,Douglas Blvd,Chicago,IL,60623,3970.0,23771,ES,29.0,North Lawndale,North Lawndale,19.0,2.0,170318387004002,41.9589894447,-87.715595617,170993000847,_170993000847,17031838700
609805,Joplin,Scott Joplin Elementary School,Joplin,Joplin Elem School,7931,S,Honore St,Chicago,IL,60620,2330.0,22281,ES,71.0,Auburn Gresham,Auburn Gresham,5.0,3.0,170317105003000,41.950753083,-87.6649670813,170993001156,_170993001156,17031710500
610524,Alcott HS,Alcott High School for the Humanities,Alcott HS,Alcott Humanities High School,2957,N,Hoyne Ave,Chicago,IL,60618,8035.0,22041,HS,5.0,North Center,Lincoln Park,29.0,8.0,170310514002003,41.7712216704,-87.6664932336999,170993006072,_170993006072,17031051400
610569,Ombudsman 1 HS,Ombudsman #1,Ombudsman 1 HS,,,,,Chicago,IL,60629,9634.0,,HS,66.0,Chicago Lawn,Chicago Lawn,8.0,7.0,170316604002015,41.8664504126999,-87.7066031327999,,_,17031660400
400108,Cics - Hawkins,Chicago Intl Charter - Larry Hawkins,Cics - Hawkins,Chicago International Charter,801,E,133rd Pl,Chicago,IL,60827,8110.0,66077,HS,54.0,Riverdale,Far South Side,22.0,5.0,170315401013007,41.6531668985999,-87.6018856013999,170993003505,_170993003505,17031540101
609956,Grimes,Robert L Grimes Elementary School,Grimes,Grimes Elem School,5450,W,64th Pl,Chicago,IL,60638,3680.0,23461,ES,64.0,Clearing,MDW,7.0,11.0,170316407004016,41.8707696035,-87.7186664556,170993000812,_170993000812,17031640700
609724,Mather HS,Stephen T Mather High School,Mather HS,Mather High School,5835,N,Lincoln Ave,Chicago,IL,60659,1480.0,46241,HS,2.0,West Ridge,Ravenswood,30.0,10.0,170310207011000,41.8709663946999,-87.6998962076999,170993000977,_170993000977,17031020701
610051,Northwest,Northwest Middle School,Northwest,Northwest Middle School,5252,W,Palmer St,Chicago,IL,60639,4600.0,41121,MS,19.0,Belmont Cragin,Belmont Cragin,26.0,8.0,170311912001013,41.7595476520999,-87.5907490421,170993003567,_170993003567,17031191200
400129,Yccs Chtr - Houston,YCCS-Charles Hamilton Houston Alternative HS,Yccs Chtr - Houston,Youth Connections Charter HS,4701,S,King Dr,Chicago,IL,60615,9046.0,66613,HS,38.0,Grand Boulevard,Bronzeville,15.0,3.0,170313812002018,41.8093305545,-87.6165139708,170993003473,_170993003473,17031381200
610256,Robinson,Jackie Robinson Elementary School,Robinson,Robinson Elem School,4225,S,Lake Park Ave,Chicago,IL,60653,6780.0,26061,ES,36.0,Oakland,Bronzeville,15.0,3.0,170318364001018,41.8798972542999,-87.6803158788,170993000694,_170993000694,17031836400
610518,Voise HS,VOISE Academy High School,Voise HS,VOISE Academy High School,231,N,Pine Ave,Chicago,IL,60644,1145.0,46621,HS,25.0,Austin,Austin,25.0,1.0,170312519003008,41.8281457905999,-87.6327202981999,170993005984,_170993005984,17031251900
609983,Hedges,James Hedges Elementary School,Hedges,Hedges Elem School,4747,S,Winchester Ave,Chicago,IL,60609,3900.0,23681,ES,61.0,New City,McKinley Park,17.0,7.0,170316114003005,41.8395953763999,-87.6403040601999,170993000837,_170993000837,17031611400
610319,Evergreen,Evergreen Academy Middle School,Evergreen,Evergreen Academy Elem School,3537,S,Paulina St,Chicago,IL,60609,7490.0,26461,MS,59.0,Mckinley Park,McKinley Park,17.0,11.0,170315907002018,41.7260800211,-87.5821808893999,170993005489,_170993005489,17031590700
400085,Uno Chtr - Major Hector P.Garcia,UNO Charter School - Major Hector P.Garcia MD Campus,Uno Chtr - Major Hector P.Garcia,UNO Network Charter Schools,4248,W,47th St,Chicago,IL,60632,3343.0,66394,HS,57.0,Archer Heights,McKinley Park,17.0,11.0,170315702001016,41.8078400695999,-87.7303591385,170993003555,_170993003555,17031570200
609951,Ariel,Ariel Elementary Community Academy,Ariel,Ariel Elem Community Academy,1119,E,46th St,Chicago,IL,60653,3640.0,23421,ES,39.0,Kenwood,Bronzeville,15.0,3.0,170313902001006,41.9487642821,-87.757078851,170993001607,_170993001607,17031390200
610269,Mccutcheon,John T McCutcheon Elementary School,Mccutcheon,Mccutcheon Elem School,4865,N,Sheridan Rd,Chicago,IL,60640,6910.0,26201,ES,3.0,Uptown,Ravenswood,30.0,10.0,170310313004002,41.7798999846,-87.6172508357999,170993000956,_170993000956,17031031300
610063,Mccormick,Cyrus H McCormick Elementary School,Mccormick,Mccormick Elem School,2712,S,Sawyer Ave,Chicago,IL,60623,4720.0,24431,ES,30.0,South Lawndale,Pilsen - Little Village,16.0,7.0,170318408001016,41.8742722042999,-87.6609838427,170993000955,_170993000955,17031840800
610317,Brighton Park,Brighton Park Elementary School,Brighton Park,Brighton Park Elem School,3825,S,Washtenaw Ave,Chicago,IL,60632,7470.0,26451,ES,58.0,Brighton Park,McKinley Park,17.0,7.0,170315801002010,41.6722819706999,-87.6505377414,170993005486,_170993005486,17031580100
400073,Shabazz Chtr - Dusable,Betty Shabazz Intl Charter - DuSable Leadership,Shabazz Chtr - Dusable,Shabazz International Chrtr Schls,4934,S,Wabash Ave,Chicago,IL,60615,4140.0,66311,HS,38.0,Grand Boulevard,Bronzeville,15.0,3.0,170313818001010,41.8045587817,-87.6244105627,170993003539,_170993003539,17031381800
610182,Solomon,Hannah G Solomon Elementary School,Solomon,Solomon Elem School,6206,N,Hamlin Ave,Chicago,IL,60659,5980.0,25431,ES,13.0,North Park,Albany Irving,27.0,10.0,170311301001024,41.9588686516,-87.7819377817999,170993001100,_170993001100,17031130100
609863,Columbus,Christopher Columbus Elementary School,Columbus,Columbus Elem School,1003,N,Leavitt St,Chicago,IL,60622,2850.0,22791,ES,24.0,West Town,Near North,10.0,12.0,170312423001029,41.6929985709999,-87.6808959585,170993000669,_170993000669,17031242300
610334,Raby HS,Al Raby High School,Raby HS,Raby High School,3545,W,Fulton Blvd,Chicago,IL,60624,7690.0,46471,HS,27.0,East Garfield Park,Garfield - West Humboldt,20.0,1.0,170318368001018,41.9339427617999,-87.7080400419,170993005075,_170993005075,17031836800
610126,Pershing,John J Pershing Elementary Humanities Magnet,Pershing,Pershing Elem Humanities Magnet,3200,S,Calumet Ave,Chicago,IL,60616,5400.0,29251,ES,35.0,Douglas,Bronzeville,15.0,3.0,170318395001007,41.7285346238,-87.5962199891999,170993001032,_170993001032,17031839500
609694,Hancock HS,John Hancock College Preparatory High School,Hancock HS,Hancock College Preparatory HS,4034,W,56th St,Chicago,IL,60629,1200.0,46021,HS,62.0,West Elsdon,McKinley Park,17.0,7.0,170316203001002,41.7457867051,-87.6354462756,170993001980,_170993001980,17031620300
400046,Learn Chtr - Butler,LEARN Charter ES - Romano Butler Campus,Learn Chtr - Butler,Learn Elem Charter School,1132,S,Homan Ave,Chicago,IL,60624,6770.0,66211,ES,29.0,North Lawndale,North Lawndale,19.0,2.0,170318430001027,41.8672735103999,-87.7106427835,170993004270,_170993004270,17031843000
610173,Sherwood,Jesse Sherwood Elementary School,Sherwood,Sherwood Elem School,245,W,57th St,Chicago,IL,60621,5900.0,25351,ES,68.0,Englewood,Englewood,4.0,2.0,170318346004027,41.7317174209999,-87.5527513156,170993001087,_170993001087,17031834600
610003,Cuffe,Paul Cuffe Math-Science Technology Academy ES,Cuffe,Cuffe Math-Sci Tech Elem Academy,8324,S,Racine Ave,Chicago,IL,60620,4090.0,23881,ES,71.0,Auburn Gresham,Auburn Gresham,5.0,4.0,170317111001000,41.8936129063,-87.7593616693,170993001183,_170993001183,17031711100
609887,Dixon,Arthur Dixon Elementary School,Dixon,Dixon Elem School,8306,S,Saint Lawrence Ave,Chicago,IL,60619,3040.0,22971,ES,44.0,Chatham,Chatham,12.0,4.0,170314402021017,41.9425523928,-87.8130947818,170993000710,_170993000710,17031440202
610086,Mount Vernon,Mount Vernon Elementary School,Mount Vernon,Mount Vernon Elem School,10540,S,Morgan St,Chicago,IL,60643,4980.0,24601,ES,73.0,Washington Heights,Far South Side,22.0,5.0,170317307002032,41.9701523222,-87.7896307864999,170993000978,_170993000978,17031730700
610352,Durkin Park,Durkin Park Elementary School,Durkin Park,Durkin Park Elem School,8445,S,Kolin Ave,Chicago,IL,60652,7870.0,26831,ES,70.0,Ashburn,Ashburn,6.0,11.0,170317003022006,41.7774830727,-87.6810603942,170993005690,_170993005690,17031700302
609803,Blaine,James G Blaine Elementary School,Blaine,Blaine Elem School,1420,W,Grace St,Chicago,IL,60613,2300.0,22261,ES,6.0,Lake View,Lincoln Park,29.0,10.0,170310604001012,41.9495303969,-87.6859814939,170993000610,_170993000610,17031060400
609793,Nicholson Tech Acad,Nicholson Technology Academy,Nicholson Tech Acad,Nicholson Technology Acad Elem Sch,6006,S,Peoria St,Chicago,IL,60621,2200.0,22181,ES,68.0,Englewood,Englewood,4.0,2.0,170318348001011,41.7742190124,-87.6535318037,170993000597,_170993000597,17031834800
610544,Azuela,Mariano Azuela Elementary School,Azuela,Azuela Elementary School,4707,W,Marquette Rd,Chicago,IL,60629,8660.0,22921,ES,65.0,West Lawn,Chicago Lawn,8.0,11.0,170316505003014,42.0029587617,-87.7058804165999,,_,17031650500
609741,Hubbard HS,Gurdon S Hubbard High School,Hubbard HS,Hubbard High School,6200,S,Hamlin Ave,Chicago,IL,60629,1670.0,46341,HS,65.0,West Lawn,Chicago Lawn,8.0,7.0,170316501003011,41.6881643780999,-87.5375700910999,170993000889,_170993000889,17031650100
610010,Jahn,Friedrich Ludwig Jahn Elementary School,Jahn,Jahn Elem School,3149,N,Wolcott Ave,Chicago,IL,60657,4170.0,23921,ES,5.0,North Center,Lincoln Park,29.0,12.0,170310513001002,41.766812719,-87.7195415268,170993000869,_170993000869,17031051300
609746,Kenwood HS,Kenwood Academy High School,Kenwood HS,Kenwood Academy High School,5015,S,Blackstone Ave,Chicago,IL,60615,1710.0,46361,HS,39.0,Kenwood,Hyde Park,14.0,3.0,170313907002006,41.9829450848,-87.7223855851,170993000925,_170993000925,17031390700
610192,Stowe,Harriet Beecher Stowe Elementary School,Stowe,Stowe Elem School,3444,W,Wabansia Ave,Chicago,IL,60647,6080.0,25521,ES,23.0,Humboldt Park,Humboldt Park,21.0,8.0,170312302001008,41.6964954761999,-87.6400102081999,170993001109,_170993001109,17031230200
610354,North River,North River Elementary School,North River,North River Elem School,4416,N,Troy St,Chicago,IL,60625,7890.0,26841,ES,14.0,Albany Park,Albany Irving,27.0,8.0,170311408004013,41.7388432822,-87.7299919212999,170993005692,_170993005692,17031140800
609798,Belding,Hiram H Belding Elementary School,Belding,Belding Elem School,4257,N,Tripp Ave,Chicago,IL,60641,2260.0,22221,ES,16.0,Irving Park,Albany Irving,27.0,12.0,170311603003003,41.9723932563999,-87.7576018010999,170993000604,_170993000604,17031160300
610563,Back Of The Yards Ib HS,Back of the Yards IB HS,Back Of The Yards Ib HS,,2111,W,"47th St Chicago, IL 6060",Chicago,IL,60609,9623.0,46551,HS,61.0,New City,McKinley Park,17.0,7.0,170316115002000,41.8065188452,-87.6897806710999,,_,17031611500
400128,Yccs Chtr - Cca Academy,YCCS-CCA Academy HS,Yccs Chtr - Cca Academy,Youth Connections Charter HS,1231,S,Pulaski Rd,Chicago,IL,60623,9045.0,66612,HS,29.0,North Lawndale,North Lawndale,19.0,2.0,170318387003008,41.8651973419,-87.7250663892999,,_,17031838700
610282,Mcnair,Ronald E McNair Elementary School,Mcnair,Mcnair Elem School,4820,W,Walton St,Chicago,IL,60651,7040.0,26301,ES,25.0,Austin,Austin,25.0,1.0,170312510001027,41.7606731545999,-87.6067543902999,170993001191,_170993001191,17031251000
609810,Bridge,Norman A Bridge Elementary School,Bridge,Bridge Elem School,3800,N,New England Ave,Chicago,IL,60634,2380.0,22321,ES,17.0,Dunning,Reed-Dunning,24.0,9.0,170311703003005,41.6866593004,-87.6336687353999,170993000618,_170993000618,17031170300
610268,Ashe,Arthur R Ashe Elementary School,Ashe,Ashe Elem School,8505,S,Ingleside Ave,Chicago,IL,60619,6900.0,26191,ES,44.0,Chatham,Chatham,12.0,4.0,170314401021011,41.8892867399,-87.7050619661,170993001071,_170993001071,17031440102
610196,Swift,George B Swift Elementary Specialty School,Swift,Swift Elem Specialty School,5900,N,Winthrop Ave,Chicago,IL,60660,6130.0,25571,ES,77.0,Edgewater,Ravenswood,30.0,10.0,170310306012001,41.8708026871999,-87.7335110498,170993001119,_170993001119,17031030601
610188,Dunne Tech Acad,Dunne Technology Academy,Dunne Tech Acad,Dunne Technology Acad Elem Sch,10845,S,Union Ave,Chicago,IL,60628,6050.0,25491,ES,49.0,Roseland,Far South Side,22.0,5.0,170314911004016,41.8481615496,-87.6990540931,170993000734,_170993000734,17031491100
610052,Mann,Horace Mann Elementary School,Mann,Mann Elem School,8050,S,Chappel Ave,Chicago,IL,60617,4610.0,24331,ES,46.0,South Chicago,South Shore,11.0,4.0,170314605006006,41.9082475200999,-87.6397897875,170993000937,_170993000937,17031460500
610143,Reavis,William C Reavis Math & Science Specialty ES,Reavis,Reavis Elem Math & Sci Spec Schl,834,E,50th St,Chicago,IL,60615,5580.0,25091,ES,39.0,Kenwood,Hyde Park,14.0,3.0,170313904002010,41.9607463297,-87.6708856627,170993001052,_170993001052,17031390400
400091,Chicago Tech Academy,Chicago Technology Academy High School,Chicago Tech Academy,Chicago Technology Academy HS,1301,W,14th St,Chicago,IL,60608,8022.0,63091,HS,28.0,Near West Side,Near West,23.0,2.0,170318429003010,41.8633288357,-87.6590960191,170993006076,_170993006076,17031842900
610206,Twain,Mark Twain Elementary School,Twain,Twain Elem School,5134,S,Lotus Ave,Chicago,IL,60638,6240.0,25661,ES,56.0,Garfield Ridge,MDW,7.0,11.0,170315607002010,41.8841016073999,-87.7306030976999,170993001130,_170993001130,17031560700
610213,Wadsworth,James Wadsworth Elementary School,Wadsworth,Wadsworth Elem School,6650,S,Ellis Ave,Chicago,IL,60637,6300.0,25711,ES,42.0,Woodlawn,Woodlawn,13.0,3.0,170314208002015,41.9716342039,-87.7245684532999,170993001144,_170993001144,17031420800
400034,Cics - Northtown,Chicago Intl Charter - Northtown,Cics - Northtown,Chicago International Charter,3900,W,Peterson Ave,Chicago,IL,60659,7740.0,66241,HS,13.0,North Park,Albany Irving,27.0,10.0,170311301002003,41.9902175739999,-87.7265036635999,170993003505,_170993003505,17031130100
400165,Learn Chtr - Middle,LEARN Charter - Middle School Campus,Learn Chtr - Middle,,3021,W,Caroll Ave,Chicago,IL,60612,9629.0,,MS,27.0,East Garfield Park,Garfield - West Humboldt,20.0,1.0,170318371001003,41.7935651919,-87.6414185840999,,_,17031837100
610040,Lloyd,Henry D Lloyd Elementary School,Lloyd,Lloyd Elem School,2103,N,Lamon Ave,Chicago,IL,60639,4500.0,24221,ES,19.0,Belmont Cragin,Belmont Cragin,26.0,8.0,170311911001014,41.9245522509,-87.6444981344999,170993000926,_170993000926,17031191100
609904,Ellington,Edward K Ellington Elementary School,Ellington,Ellington Elem School,243,N,Parkside Ave,Chicago,IL,60644,3220.0,23101,ES,25.0,Austin,Austin,25.0,1.0,170312520001008,41.6694433863,-87.6343421115,170993000748,_170993000748,17031252000
610176,Shoop,John D Shoop Math-Science Technical Academy ES,Shoop,Shoop Math-Sci Tech Elem Academy,11140,S,Bishop St,Chicago,IL,60643,5930.0,25381,ES,75.0,Morgan Park,Far South Side,22.0,4.0,170317506004001,41.8159099725,-87.6896105583,170993001095,_170993001095,17031750600
610115,Park Manor,Park Manor Elementary School,Park Manor,Park Manor Elem School,7037,S,Rhodes Ave,Chicago,IL,60637,5290.0,24841,ES,69.0,Greater Grand Crossing,Chatham,12.0,3.0,170316905001023,41.9732888376999,-87.7392497114999,170993001021,_170993001021,17031690500
610239,Daley,Richard J Daley Elementary Academy,Daley,Daley Elem Academy,5024,S,Wolcott Ave,Chicago,IL,60609,6560.0,25951,ES,61.0,New City,McKinley Park,17.0,7.0,170316114002002,41.8091621881999,-87.6271378500999,170993004913,_170993004913,17031611400
610339,Stagg,Amos Alonzo Stagg Elementary School,Stagg,Stagg Elem School,7424,S,Morgan St,Chicago,IL,60621,7760.0,26521,ES,68.0,Englewood,Englewood,4.0,3.0,170316814003012,41.8577273715999,-87.6752098518,170993001102,_170993001102,17031681400
610227,Whitney,Eli Whitney Elementary School,Whitney,Whitney Elem School,2815,S,Komensky Ave,Chicago,IL,60623,6440.0,25841,ES,30.0,South Lawndale,Pilsen - Little Village,16.0,7.0,170313018032001,41.6839064134999,-87.6554204212,170993001157,_170993001157,17031301803
609897,Earle,Charles W Earle Elementary School,Earle,Earle Elem School,2040,W,62nd St,Chicago,IL,60636,3130.0,23031,ES,67.0,West Englewood,Englewood,4.0,2.0,170316705001048,41.7255983283999,-87.6301308543999,170993000738,_170993000738,17031670500
609782,Audubon,John J Audubon Elementary School,Audubon,Audubon Elem School,3500,N,Hoyne Ave,Chicago,IL,60618,2110.0,22091,ES,5.0,North Center,Lincoln Park,29.0,12.0,170310508001011,41.9160453773,-87.7217055907999,170993000581,_170993000581,17031050800
610098,Nobel,Alfred Nobel Elementary School,Nobel,Nobel Elem School,4127,W,Hirsch St,Chicago,IL,60651,5110.0,24691,ES,23.0,Humboldt Park,Garfield - West Humboldt,20.0,1.0,170312306003017,41.7977149353,-87.6891021991,170993000996,_170993000996,17031230600
609804,Boone,Daniel Boone Elementary School,Boone,Boone Elem School,6710,N,Washtenaw Ave,Chicago,IL,60645,2320.0,22271,ES,2.0,West Ridge,Ravenswood,30.0,13.0,170310206011000,41.7104344974,-87.6174270740999,170993000612,_170993000612,17031020601
400020,Catalyst Chtr - Howland,Catalyst Charter ES - Howland,Catalyst Chtr - Howland,Catalyst Elem Charter School,1616,S,Spaulding Ave,Chicago,IL,60623,4370.0,66431,ES,29.0,North Lawndale,North Lawndale,19.0,2.0,170318415002021,41.8585191307,-87.7079522422999,170993099982,_170993099982,17031841500
400084,Uno Chtr - Tamayo,UNO Charter - Rufino Tamayo,Uno Chtr - Tamayo,Uno Network Elem Charter School,5135,S,California Ave,Chicago,IL,60632,3340.0,66391,ES,63.0,Gage Park,McKinley Park,17.0,7.0,170316305004004,41.7999296461999,-87.6938983027999,170993003555,_170993003555,17031630500
400043,Hope Contr ES,Hope Institute Learning Academy,Hope Contr ES,Hope Inst Learning Acad ES,1628,W,Washington,Chicago,IL,60612,8067.0,63031,ES,28.0,Near West Side,Near West,23.0,1.0,170312804001036,41.8833345924999,-87.6680761087,,_,17031280400
610095,Newberry,Walter L Newberry Math & Science Academy ES,Newberry,Newberry Elem Math & Science Acad,700,W,Willow St,Chicago,IL,60614,5080.0,29231,ES,7.0,Lincoln Park,Lincoln Park,29.0,10.0,170310718001005,41.7384060372,-87.6209700858999,170993000991,_170993000991,17031071800
610027,Kipling,Rudyard Kipling Elementary School,Kipling,Kipling Elem School,9351,S,Lowe Ave,Chicago,IL,60620,4350.0,24081,ES,73.0,Washington Heights,Auburn Gresham,5.0,4.0,170317301002002,41.8484872493,-87.7160541026999,170993000892,_170993000892,17031730100
609873,Crown,Crown Community Academy of Fine Arts Center ES,Crown,Crown Elem Comm Acd Fine Arts Ctr,2128,S,Saint Louis Ave,Chicago,IL,60623,2940.0,31041,ES,29.0,North Lawndale,North Lawndale,19.0,2.0,170318414001005,41.6881633985999,-87.6856760346999,170993000678,_170993000678,17031841400
609935,Gallistel,Matthew Gallistel Elementary Language Academy,Gallistel,Gallistel Elem Language Academy,10347,S,Ewing Ave,Chicago,IL,60617,3490.0,29091,ES,52.0,East Side,Far East Side,2.0,4.0,170315204004004,41.9176169982999,-87.7168549296,170993000783,_170993000783,17031520400
610005,"Hughes, C",Charles Evans Hughes Elementary School,"Hughes, C",Hughes  C Elem School,4247,W,15th St,Chicago,IL,60623,4110.0,23901,ES,29.0,North Lawndale,North Lawndale,19.0,2.0,170312909003017,41.7424520757,-87.6535968114999,170993000865,_170993000865,17031290900
610102,Oglesby,Richard J Oglesby Elementary School,Oglesby,Oglesby Elem School,7646,S,Green St,Chicago,IL,60620,5170.0,24741,ES,71.0,Auburn Gresham,Auburn Gresham,5.0,3.0,170317102001010,41.9069064975999,-87.7324798199,170993001004,_170993001004,17031710200
610381,Bronzeville HS,Bronzeville Scholastic Academy High School,Bronzeville HS,Bronzeville Scholastic HS,4934,S,Wabash Ave,Chicago,IL,60615,7270.0,55191,HS,38.0,Grand Boulevard,Bronzeville,15.0,3.0,170313818001010,41.7341529087999,-87.6467675163,170993005792,_170993005792,17031381800
610016,Kellogg,Kate S Kellogg Elementary School,Kellogg,Kellogg Elem School,9241,S,Leavitt St,Chicago,IL,60620,4240.0,23971,ES,71.0,Auburn Gresham,Beverly,3.0,3.0,170317005021001,41.725271,-87.677275,170993000882,_170993000882,17031700502
609835,Cameron,Daniel R Cameron Elementary School,Cameron,Cameron Elem School,1234,N,Monticello Ave,Chicago,IL,60651,2610.0,22531,ES,23.0,Humboldt Park,Humboldt Park,21.0,8.0,170312307002011,41.7392267608,-87.5806923922999,170993000646,_170993000646,17031230700
609969,Harte,Bret Harte Elementary School,Harte,Harte Elem School,1556,E,56th St,Chicago,IL,60637,3780.0,23561,ES,41.0,Hyde Park,Hyde Park,14.0,3.0,170314110003003,41.8492154541999,-87.6856311485999,170993000826,_170993000826,17031411000
609790,Barton,Clara Barton Elementary School,Barton,Barton Elem School,7650,S,Wolcott Ave,Chicago,IL,60620,2170.0,22151,ES,71.0,Auburn Gresham,Auburn Gresham,5.0,3.0,170317104005017,41.7051391774,-87.6580392631999,170993000589,_170993000589,17031710400
609924,Fort Dearborn,Fort Dearborn Elementary School,Fort Dearborn,Fort Dearborn Elem School,9025,S,Throop St,Chicago,IL,60620,3400.0,23241,ES,73.0,Washington Heights,Auburn Gresham,5.0,4.0,170317302012009,41.847923463,-87.6966300867999,170993000774,_170993000774,17031730201
400064,Perspectives Chtr - Joslin,Perspectives Charter - Rodney D Joslin,Perspectives Chtr - Joslin,Perspectives Charter High School,1930,S,Archer Ave,Chicago,IL,60616,1960.0,66051,HS,33.0,Near South Side,Loop,1.0,2.0,170313302002037,41.8559760517999,-87.6285109891999,170993003450,_170993003450,17031330200
610229,Pritzker,A.N. Pritzker School,Pritzker,Pritzker Elem School,2009,W,Schiller St,Chicago,IL,60622,6460.0,25871,ES,24.0,West Town,Near North,10.0,1.0,170312414004000,41.8400798349999,-87.7255823309999,170993001154,_170993001154,17031241400
609883,Deneen,Charles S Deneen Elementary School,Deneen,Deneen Elem School,7240,S,Wabash Ave,Chicago,IL,60619,3010.0,22931,ES,69.0,Greater Grand Crossing,Chatham,12.0,3.0,170316910004007,41.7450503159999,-87.7173526310999,170993000691,_170993000691,17031691000
609894,Drake,John B Drake Elementary School,Drake,Drake Elem School,2710,S,Dearborn St,Chicago,IL,60616,3100.0,23011,ES,35.0,Douglas,Bronzeville,15.0,3.0,170313504001003,41.8311466143,-87.6129585266999,170993000728,_170993000728,17031350400
400078,Univ Of Chgo Chtr - Woodson,University of Chicago Charter - Carter G Woodson,Univ Of Chgo Chtr - Woodson,Univ of Chicago Elem Charter Schl,4444,S,Evans Ave,Chicago,IL,60653,3062.0,66113,MS,38.0,Grand Boulevard,Bronzeville,15.0,3.0,170318360003014,41.8136148354999,-87.6083625322,170993003542,_170993003542,17031836000
400059,Nth Lawndale Chtr - Collins,North Lawndale College Prep Charter - Collins,Nth Lawndale Chtr - Collins,North Lawndale Charter HS,1313,S,Sacramento Dr,Chicago,IL,60623,1106.0,66092,HS,29.0,North Lawndale,North Lawndale,19.0,2.0,170318431001005,41.8641432816,-87.7020776091,170993003474,_170993003474,17031843100
610019,Kershaw,Joshua D Kershaw Elementary School,Kershaw,Kershaw Elem School,6450,S,Lowe Ave,Chicago,IL,60621,4270.0,23991,ES,68.0,Englewood,Englewood,4.0,2.0,170316809001008,41.8479132801,-87.6973148116999,170993000883,_170993000883,17031680900
609723,Marshall HS,John Marshall Metropolitan High School,Marshall HS,Marshall Metropolitan High School,3250,W,Adams St,Chicago,IL,60624,1470.0,47041,HS,27.0,East Garfield Park,Garfield - West Humboldt,20.0,1.0,170312713001004,41.9466720153999,-87.6910127403999,170993000972,_170993000972,17031271300
610218,Warren,Joseph Warren Elementary School,Warren,Warren Elem School,9239,S,Jeffery Ave,Chicago,IL,60617,6350.0,25761,ES,48.0,Calumet Heights,South Shore,11.0,4.0,170314804004004,41.8548351526,-87.6481228713,170993001166,_170993001166,17031480400
609918,Field,Eugene Field Elementary School,Field,Field Elem School,7019,N,Ashland Ave,Chicago,IL,60626,3350.0,23211,ES,1.0,Rogers Park,Ravenswood,30.0,13.0,170310106004004,41.9797896794,-87.7660348842999,170993000771,_170993000771,17031010600
400134,Yccs Chtr - Addams,YCCS-Jane Addams Alternative HS,Yccs Chtr - Addams,Youth Connections Charter HS,1814,S,Union Ave,Chicago,IL,60616,9051.0,66618,HS,31.0,Lower West Side,Pilsen - Little Village,16.0,7.0,170313102002009,41.8572081061,-87.6448512710999,170993003473,_170993003473,17031310200
609963,Hamilton,Alexander Hamilton Elementary School,Hamilton,Hamilton Elem School,1650,W,Cornelia Ave,Chicago,IL,60657,3730.0,23501,ES,6.0,Lake View,Lincoln Park,29.0,12.0,170318319002014,41.7801925142999,-87.7765420608999,170993000822,_170993000822,17031831900
400068,Plato Contr,Plato Learning Academy Elementary School,Plato Contr,Plato Learning Acad Elem School,5545,W,Harrison St,Chicago,IL,60644,2045.0,63021,ES,25.0,Austin,Austin,25.0,1.0,170318314002003,41.872787867,-87.7633375334,170993005980,_170993005980,17031831400
400093,Chgo Talent Chtr HS,Chicago Talent Development HS,Chgo Talent Chtr HS,Chicago Talent Dev High School,2245,W,Jackson Blvd,Chicago,IL,60612,8053.0,63111,HS,28.0,Near West Side,Near West,23.0,2.0,170318380001026,41.8775287339,-87.6832489541999,170993006075,_170993006075,17031838000
609947,Graham,Alexander Graham Elementary School,Graham,Graham  A Elem School,4436,S,Union Ave,Chicago,IL,60609,3600.0,23391,ES,61.0,New City,Bridgeport - Chinatown,18.0,11.0,170318426004008,41.6624809618,-87.5532701145999,170993000800,_170993000800,17031842600
400027,Cics - Irving Park,Chicago Intl Charter - Irving Park,Cics - Irving Park,Chicago International Charter,3820,N,Spaulding Ave,Chicago,IL,60618,4913.0,66074,ES,16.0,Irving Park,Albany Irving,27.0,8.0,170311608005019,41.9508918586,-87.7104556764,170993003505,_170993003505,17031160800
610305,Leland,George Leland Elementary School,Leland,Leland Elem School,512,S,Lavergne Ave,Chicago,IL,60644,7320.0,26391,ES,25.0,Austin,Austin,25.0,1.0,170312522013012,41.7488956623,-87.6347512637999,170993000730,_170993000730,17031252201
610279,Tanner,Henry O Tanner Elementary School,Tanner,Tanner Elem School,7350,S,Evans Ave,Chicago,IL,60619,6970.0,26281,ES,69.0,Greater Grand Crossing,Chatham,12.0,3.0,170316909002002,41.8618368493999,-87.7031020633999,170993001044,_170993001044,17031690900
609839,Carroll,Carroll-Rosenwald Specialty Elementary School,Carroll,Carroll Elem School,2929,W,83rd St,Chicago,IL,60652,2650.0,22571,ES,70.0,Ashburn,Ashburn,6.0,3.0,170317005022000,41.9480078441999,-87.8292589577,170993000652,_170993000652,17031700502
609738,Lincoln Park HS,Lincoln Park High School,Lincoln Park HS,Lincoln Park High School,2001,N,Orchard St,Chicago,IL,60614,1620.0,46321,HS,7.0,Lincoln Park,Lincoln Park,29.0,10.0,170310712002007,41.8021046709,-87.6119314691,170993001185,_170993001185,17031071200
610106,Piccolo,Brian Piccolo Elementary Specialty School,Piccolo,Piccolo Elem Specialty School,1040,N,Keeler Ave,Chicago,IL,60651,5210.0,24781,ES,23.0,Humboldt Park,Garfield - West Humboldt,20.0,1.0,170318421006008,41.9937629086999,-87.7931081141999,170993001011,_170993001011,17031842100
400080,Uno Chtr - Pfc Omar E.Torres,UNO Charter School - PFC Omar E.Torres Campus,Uno Chtr - Pfc Omar E.Torres,Uno Network Elem Charter School,4248,W,47th St,Chicago,IL,60632,3345.0,66396,ES,57.0,Archer Heights,McKinley Park,17.0,11.0,170315702001016,41.8078400695999,-87.7303591385,170993003555,_170993003555,17031570200
609870,Corkery,Daniel J Corkery Elementary School,Corkery,Corkery Elem School,2510,S,Kildare Ave,Chicago,IL,60623,2910.0,22851,ES,30.0,South Lawndale,Pilsen - Little Village,16.0,7.0,170313018012003,41.8560037542999,-87.6672264774,170993000677,_170993000677,17031301801
610075,Montefiore,Moses Montefiore Special Elementary School,Montefiore,Montefiore Special Elem School,1310,S,Ashland Ave,Chicago,IL,60608,4860.0,30041,ES,28.0,Near West Side,Near West,23.0,2.0,170318429004065,41.8921096003999,-87.6831854338999,170993001088,_170993001088,17031842900
609712,Hirsch HS,Emil G Hirsch Metropolitan High School,Hirsch HS,Hirsch Metropolitan High School,7740,S,Ingleside Ave,Chicago,IL,60619,1380.0,47031,HS,69.0,Greater Grand Crossing,South Shore,11.0,3.0,170316915003000,41.7183727975,-87.6205868145,170993000879,_170993000879,17031691500
609812,"Brown, W",William H Brown Elementary School,"Brown, W",Brown  W Elem School,54,N,Hermitage Ave,Chicago,IL,60612,2400.0,22351,ES,28.0,Near West Side,Near West,23.0,1.0,170318381002001,41.9491153741999,-87.7986321844999,170993000621,_170993000621,17031838100
610300,Westcott,Oliver S Westcott Elementary School,Westcott,Westcott Elem School,409,W,80th St,Chicago,IL,60620,7260.0,26381,ES,44.0,Chatham,Auburn Gresham,5.0,3.0,170318424003022,41.7471851188999,-87.6280769913,170993001151,_170993001151,17031842400
609928,Fuller,Melville W Fuller Elementary School,Fuller,Fuller Elem School,4214,S,Saint Lawrence Ave,Chicago,IL,60653,3440.0,23271,ES,38.0,Grand Boulevard,Bronzeville,15.0,3.0,170313801001027,41.9066274258,-87.6355135817999,170993000778,_170993000778,17031380100
610384,Infinity HS,Infinity Math Science and Technology High School,Infinity HS,Infinity Math  Science & Tech HS,3120,S,Kostner Ave,Chicago,IL,60623,7680.0,55151,HS,30.0,South Lawndale,Pilsen - Little Village,16.0,7.0,170318305001006,41.8045587817,-87.6244105627,170993005795,_170993005795,17031830500
610105,Oriole Park,Oriole Park Elementary School,Oriole Park,Oriole Park Elem School,5424,N,Oketo Ave,Chicago,IL,60656,5200.0,24771,ES,10.0,Norwood Park,Sauganash,28.0,9.0,170311005003000,41.7686028940999,-87.5727693081,170993001010,_170993001010,17031100500
609795,"Clark, G",George Rogers Clark Elementary School,"Clark, G",Clark  G R Elem School,1045,S,Monitor Ave,Chicago,IL,60644,2230.0,22191,ES,25.0,Austin,Austin,25.0,1.0,170318314002044,41.7849435752999,-87.6474162115,170993005076,_170993005076,17031831400
610074,Monroe,James Monroe Elementary School,Monroe,Monroe Elem School,3651,W,Schubert Ave,Chicago,IL,60647,4850.0,24531,ES,22.0,Logan Square,Logan,9.0,8.0,170312207024006,41.9678474245,-87.6762514904999,170993000968,_170993000968,17031220702
610021,Casals,Pablo Casals Elementary School,Casals,Casals Elem School,3501,W,Potomac Ave,Chicago,IL,60651,4290.0,24011,ES,23.0,Humboldt Park,Humboldt Park,21.0,8.0,170312308001015,41.80430753,-87.5904675076999,170993005303,_170993005303,17031230800
609856,Clay,Henry Clay Elementary School,Clay,Clay Elem School,13231,S,Burley Ave,Chicago,IL,60633,2790.0,22731,ES,55.0,Hegewisch,Far East Side,2.0,4.0,170315501004002,41.8966852495999,-87.6889362884,170993000661,_170993000661,17031550100
400139,Yccs Chtr - Sullivan,YCCS-Sullivan House Alternative HS,Yccs Chtr - Sullivan,Youth Connections Charter HS,8164,S,South Chicago Ave,Chicago,IL,60617,9056.0,66623,HS,45.0,Avalon Park,Chatham,12.0,4.0,170314503001027,41.7463063442,-87.5784662625,170993003473,_170993003473,17031450300
610231,National Teachers,National Teachers Elementary Academy,National Teachers,National Teachers Elem Academy,55,W,Cermak Rd,Chicago,IL,60616,6480.0,32031,ES,33.0,Near South Side,Bridgeport - Chinatown,18.0,2.0,170318410001019,41.9070804401999,-87.6777617715,170993004722,_170993004722,17031841000
400023,Cics - Avalon /so Shore,Chicago Intl Charter - Avalon / South Shore,Cics - Avalon /so Shore,Chicago International Charter,1501,E,83rd Pl,Chicago,IL,60619,6580.0,66371,ES,45.0,Avalon Park,Chatham,12.0,4.0,170318343003006,41.7432068598999,-87.5879281634999,170993003505,_170993003505,17031834300
610032,Green,Wendell E Green Elementary School,Green,Green  W Elem School,1150,W,96th St,Chicago,IL,60643,4410.0,24131,ES,73.0,Washington Heights,Auburn Gresham,5.0,4.0,170317304004003,41.9088853380999,-87.6651299935,170993001209,_170993001209,17031730400
400051,Noble Street Chtr - Noble,Noble Street Charter - Noble Street College Prep,Noble Street Chtr - Noble,Noble Street Charter High School,1010,N,Noble St,Chicago,IL,60642,1930.0,66141,HS,24.0,West Town,Near North,10.0,1.0,170312420001004,41.9001910321999,-87.6625910573,170993003479,_170993003479,17031242000
609773,Agassiz,Louis A Agassiz Elementary School,Agassiz,Agassiz Elem School,2851,N,Seminary Ave,Chicago,IL,60657,2030.0,22031,ES,6.0,Lake View,Lincoln Park,29.0,10.0,170310629002002,41.8496748576,-87.6253515103,170993000763,_170993000763,17031062900
609975,Hay,John Hay Elementary Community Academy,Hay,Hay Elem Community Academy,1018,N,Laramie Ave,Chicago,IL,60651,3840.0,31111,ES,25.0,Austin,Austin,25.0,1.0,170312512004019,41.8413945263,-87.7342766391,170993001193,_170993001193,17031251200
610146,Revere,Paul Revere Elementary School,Revere,Revere Elem School,1010,E,72nd St,Chicago,IL,60619,5610.0,25121,ES,69.0,Greater Grand Crossing,South Shore,11.0,3.0,170318418002029,41.9410665521999,-87.7195400127999,170993001056,_170993001056,17031841800
610178,Schmid,Theophilus Schmid Elementary School,Schmid,Schmid Elem School,9755,S,Greenwood Ave,Chicago,IL,60628,5950.0,25391,ES,50.0,Pullman,Chatham,12.0,4.0,170315001002005,41.6909195444,-87.6586324517,170993001077,_170993001077,17031500100
610015,Jungman,Joseph Jungman Elementary School,Jungman,Jungman Elem School,1746,S,Miller St,Chicago,IL,60608,4230.0,23961,ES,31.0,Lower West Side,Pilsen - Little Village,16.0,7.0,170313104001002,41.9020539967999,-87.6410922745999,170993000881,_170993000881,17031310400
610353,Calmeca,Calmeca Academy of Fine Arts and Dual Language,Calmeca,Calmeca Acad Elem School,3456,W,38th St,Chicago,IL,60632,7880.0,26821,ES,58.0,Brighton Park,McKinley Park,17.0,7.0,170315803001005,41.7296918101,-87.5766795780999,170993005691,_170993005691,17031580300
610055,Faraday,Michael Faraday Elementary School,Faraday,Faraday Elem School,3250,W,Monroe St,Chicago,IL,60624,4640.0,24371,ES,27.0,East Garfield Park,Garfield - West Humboldt,20.0,1.0,170312713001000,41.7738817425999,-87.6969931513999,170993000762,_170993000762,17031271300
609678,Jones HS,William Jones College Preparatory High School,Jones HS,Jones College Prep High School,700,S,State St,Chicago,IL,60605,1060.0,47021,HS,32.0,Loop,Loop,1.0,2.0,170318390004004,41.7371464977,-87.5732667996999,170993000990,_170993000990,17031839000
609713,Hyde Park HS,Hyde Park Academy High School,Hyde Park HS,Hyde Park Academy High School,6220,S,Stony Island Ave,Chicago,IL,60637,1390.0,46171,HS,42.0,Woodlawn,Woodlawn,13.0,3.0,170314201001023,41.7751246565999,-87.6690526443999,170993000893,_170993000893,17031420100
400009,Global Citizenship Chtr,Academy for Global Citizenship Elementary School,Global Citizenship Chtr,Global Citizenship Elem Sch,4647,W,47th St,Chicago,IL,60632,2025.0,63011,ES,56.0,Garfield Ridge,McKinley Park,17.0,11.0,170315604001001,41.8076059453999,-87.7400981239999,170993006035,_170993006035,17031560400
610104,Onahan,William J Onahan Elementary School,Onahan,Onahan Elem School,6634,W,Raven St,Chicago,IL,60631,5190.0,24761,ES,10.0,Norwood Park,Sauganash,28.0,9.0,170311002002011,41.7546705687,-87.6454328546,170993001009,_170993001009,17031100200
609848,Aldridge,Ira F Aldridge Elementary School,Aldridge,Aldridge Elem School,630,E,131st St,Chicago,IL,60827,2710.0,22641,ES,54.0,Riverdale,Far South Side,22.0,5.0,170315401022010,41.7898283982,-87.6224160902,170993001168,_170993001168,17031540102
609944,Grissom,Virgil Grissom Elementary School,Grissom,Grissom Elem School,12810,S,Escanaba Ave,Chicago,IL,60633,3580.0,23361,ES,55.0,Hegewisch,Far East Side,2.0,4.0,170315502001025,41.9228315041999,-87.6928629573999,170993000808,_170993000808,17031550200
610091,"Brown, R",Ronald Brown Elementary Community Academy,"Brown, R",Brown  R Elem Community Acad,12607,S,Union Ave,Chicago,IL,60628,5040.0,24631,ES,53.0,West Pullman,Far South Side,22.0,5.0,170315305033019,41.9501051908,-87.7168324768999,170993000981,_170993000981,17031530503
610059,Mayer,Oscar F Mayer Elementary School,Mayer,Mayer Elem School,2250,N,Clifton Ave,Chicago,IL,60614,4680.0,24401,ES,7.0,Lincoln Park,Lincoln Park,29.0,10.0,170310710001013,41.8569071431,-87.7304697444999,170993000950,_170993000950,17031071000
400024,Cics - Basil,Chicago Intl Charter - Basil,Cics - Basil,Chicago International Charter,1816,W,Garfield Blvd,Chicago,IL,60609,7130.0,66231,ES,61.0,New City,Englewood,4.0,11.0,170316117001012,41.7940154237999,-87.6702422406,170993003505,_170993003505,17031611700
610147,Rogers,Philip Rogers Elementary School,Rogers,Rogers Elem School,7345,N,Washtenaw Ave,Chicago,IL,60645,5630.0,25141,ES,2.0,West Ridge,Ravenswood,30.0,13.0,170310202002007,41.9430182808999,-87.7690193657,170993001059,_170993001059,17031020200
609749,Northside Prep HS,Northside College Preparatory High School,Northside Prep HS,Northside College Preparatory Hs,5501,N,Kedzie Ave,Chicago,IL,60625,1740.0,46061,HS,13.0,North Park,Albany Irving,27.0,12.0,170318318005000,41.8037718312,-87.5904575634999,170993003481,_170993003481,17031831800
609985,Hefferan,Helen M Hefferan Elementary School,Hefferan,Hefferan Elem School,4409,W,Wilcox St,Chicago,IL,60624,3910.0,23711,ES,26.0,West Garfield Park,Garfield - West Humboldt,20.0,1.0,170312605001007,41.8081756233,-87.7456893882,170993000840,_170993000840,17031260500
610165,Schubert,Franz Peter Schubert Elementary School,Schubert,Schubert Elem School,2727,N,Long Ave,Chicago,IL,60639,5800.0,25291,ES,19.0,Belmont Cragin,Belmont Cragin,26.0,12.0,170311907012007,41.9417050407,-87.7321794864,170993001079,_170993001079,17031190701
400141,Yccs Chtr - Truman,YCCS-Truman Middle College HS,Yccs Chtr - Truman,Youth Connections Charter HS,1145,W,Wilson Ave,Chicago,IL,60640,9058.0,66625,HS,3.0,Uptown,Ravenswood,30.0,10.0,170318307004006,41.9653222409,-87.6592405985,170993003473,_170993003473,17031830700
610534,Skinner North,Skinner North,Skinner North,Skinner North Elem Sch,640,W,Scott St,Chicago,IL,60610,8024.0,22591,ES,8.0,Near North Side,Lincoln Park,29.0,2.0,170318422001043,41.7934518964,-87.7113690306999,,_,17031842200
609842,Carson,Rachel Carson Elementary School,Carson,Carson Elem School,5516,S,Maplewood Ave,Chicago,IL,60629,2660.0,22601,ES,63.0,Gage Park,McKinley Park,17.0,7.0,170318351001005,41.7833408827,-87.5907952823999,170993005546,_170993005546,17031835100
609909,Everett,Edward Everett Elementary School,Everett,Everett Elem School,3419,S,Bell Ave,Chicago,IL,60608,3260.0,23141,ES,59.0,Mckinley Park,McKinley Park,17.0,11.0,170318403003016,41.8757184103,-87.7157916041,170993000755,_170993000755,17031840300
610290,Mays,Benjamin E Mays Elementary Academy,Mays,Mays Elem Academy,6656,S,Normal Blvd,Chicago,IL,60621,7150.0,26321,ES,68.0,Englewood,Englewood,4.0,2.0,170316809003015,42.0077300036,-87.6731692638999,170993000651,_170993000651,17031680900
610503,Frazier Prospective,Frazier Prospective IB Magnet ES,Frazier Prospective,Frazier Intl Magnet Elem School,4027,W,Grenshaw St,Chicago,IL,60624,5850.0,29411,ES,29.0,North Lawndale,North Lawndale,19.0,2.0,170318430002027,41.8852126906,-87.7632855866999,170993099989,_170993099989,17031843000
610046,Lyon,Mary Lyon Elementary School,Lyon,Lyon Elem School,2941,N,McVicker Ave,Chicago,IL,60634,4560.0,24281,ES,19.0,Belmont Cragin,Belmont Cragin,26.0,8.0,170311904012000,41.9127454659,-87.7839193927,170993000934,_170993000934,17031190401
400072,Shabazz Chtr - Shabazz,Betty Shabazz Intl Charter,Shabazz Chtr - Shabazz,Shabazz International Chrtr Schls,7823,S,Ellis Ave,Chicago,IL,60619,4520.0,66121,ES,69.0,Greater Grand Crossing,South Shore,11.0,3.0,170316915002025,41.7524580405,-87.6002911950999,170993003539,_170993003539,17031691500
609753,Chgo Agr HS,Chicago High School for Agricultural Sciences,Chgo Agr HS,Chicago HS for Agricult Sciences,3857,W,111th St,Chicago,IL,60655,1790.0,47091,HS,74.0,Mount Greenwood,Beverly,3.0,11.0,170317404003008,41.8643649233,-87.6687589328,170993005147,_170993005147,17031740400
610033,Lasalle,LaSalle Elementary Language Academy,Lasalle,Lasalle Elem Language Academy,1734,N,Orleans St,Chicago,IL,60614,4420.0,29161,ES,7.0,Lincoln Park,Lincoln Park,29.0,10.0,170310715004008,41.7979744380999,-87.6024809819,170993000905,_170993000905,17031071500
610011,Jamieson,Minnie Mars Jamieson Elementary School,Jamieson,Jamieson Elem School,5650,N,Mozart St,Chicago,IL,60659,4180.0,23931,ES,2.0,West Ridge,Ravenswood,30.0,10.0,170310207012009,41.8712553710999,-87.6533288451999,170993000870,_170993000870,17031020701
609711,Harper HS,William Rainey Harper High School,Harper HS,Harper High School,6520,S,Wood St,Chicago,IL,60636,1360.0,46151,HS,67.0,West Englewood,Englewood,4.0,2.0,170316713001026,41.7910134089,-87.6889172814999,170993000852,_170993000852,17031671300
610298,Lenart,Lenart Elementary Regional Gifted Center,Lenart,Lenart Elem Regional Gifted Ctr,8101,S,LaSalle St,Chicago,IL,60620,7240.0,29361,ES,44.0,Chatham,Auburn Gresham,5.0,4.0,170318424001029,41.6810320403,-87.6469574422,170993005269,_170993005269,17031842400
609789,Barry,John Barry Elementary School,Barry,Barry Elem School,2828,N,Kilbourn Ave,Chicago,IL,60641,2160.0,22141,ES,20.0,Hermosa,Logan,9.0,8.0,170312001003028,41.74824651,-87.5916904494,170993000586,_170993000586,17031200100
609799,Bell,Alexander Graham Bell Elementary School,Bell,Bell Elem School,3730,N,Oakley Ave,Chicago,IL,60618,2270.0,22231,ES,5.0,North Center,Lincoln Park,29.0,12.0,170310505005002,41.8853484787,-87.7058553743,170993000605,_170993000605,17031050500
400089,Uno Chtr - Marquez,UNO Charter School - Officer Donald J. Marquez,Uno Chtr - Marquez,Uno Network Elem Charter School,2916,W,47th St,Chicago,IL,60632,3346.0,66397,ES,58.0,Brighton Park,McKinley Park,17.0,7.0,170318428005007,41.8082813882,-87.6973933334,170993003555,_170993003555,17031842800
609876,"Davis, N",Nathan S Davis Elementary School,"Davis, N",Davis  N Elem School,3014,W,39th Pl,Chicago,IL,60632,2970.0,22891,ES,58.0,Brighton Park,McKinley Park,17.0,7.0,170315805011000,41.9737422185,-87.8410417412,170993000687,_170993000687,17031580501
610548,Stem ES,STEM Magnet Academy,Stem ES,STEM Magnet Academy Elem,1522,W,Fillmore St,Chicago,IL,60607,8678.0,22711,ES,28.0,Near West Side,Near West,23.0,2.0,170312831001003,41.7711065099,-87.7399209599,,_,17031283100
609902,Metcalfe,Ralph H Metcalfe Elementary Community Academy,Metcalfe,Metcalfe Elem Community Academy,12339,S,Normal Ave,Chicago,IL,60628,3190.0,31061,ES,53.0,West Pullman,Far South Side,22.0,5.0,170315305032000,41.6853909609,-87.6216520739999,170993000675,_170993000675,17031530503
400162,Intrinsic Schools,Intrinsic Charter HS,Intrinsic Schools,,17,N,State St,Chicago,IL,60602,9619.0,,HS,32.0,Loop,Loop,1.0,2.0,170313201001017,41.6793190033,-87.6179312741,,_,17031320100
609828,Burr,Jonathan Burr Elementary School,Burr,Burr Elem School,1621,W,Wabansia Ave,Chicago,IL,60622,2530.0,22471,ES,24.0,West Town,Near North,10.0,12.0,170312402001017,41.8454504739,-87.7148903217999,170993000636,_170993000636,17031240200
400052,Noble Street Chtr - Comer,Noble Street Charter - Gary Comer College Prep,Noble Street Chtr - Comer,Noble Street Charter High School,7131,S,South Chicago Avenue,Chicago,IL,60619,1935.0,66146,HS,69.0,Greater Grand Crossing,South Shore,11.0,3.0,170318418002035,41.7652544242999,-87.6045981285,170993003479,_170993003479,17031841800
609901,Edgebrook,Edgebrook Elementary School,Edgebrook,Edgebrook Elem School,6525,N,Hiawatha Ave,Chicago,IL,60646,3170.0,23071,ES,12.0,Forest Glen,Sauganash,28.0,10.0,170311202002000,42.0043805074,-87.8111681482999,170993000743,_170993000743,17031120200
610089,Murphy,John B Murphy Elementary School,Murphy,Murphy Elem School,3539,W,Grace St,Chicago,IL,60618,5020.0,24621,ES,16.0,Irving Park,Albany Irving,27.0,8.0,170311608004008,41.776583707,-87.7906051502999,170993000983,_170993000983,17031160800
610110,"Wells, I",Ida B Wells Preparatory Elementary Academy,"Wells, I",Wells Preparatory Elem Academy,249,E,37th St,Chicago,IL,60653,5250.0,24811,ES,35.0,Douglas,Bronzeville,15.0,3.0,170318396002009,41.7741643482,-87.6750599476,170993001614,_170993001614,17031839600
400054,Noble Street Chtr - Pritzker,Noble Street Charter - Pritzker College Prep,Noble Street Chtr - Pritzker,Noble Street Charter High School,4131,W,Cortland Ave,Chicago,IL,60639,1931.0,66142,HS,20.0,Hermosa,Logan,9.0,8.0,170318312003014,41.9152415488999,-87.7301268312999,170993003479,_170993003479,17031831200
609961,Heroes,Ninos Heroes Elementary Academic Center,Heroes,Ninos Heroes Elem Academic Ctr,8344,S,Commercial Ave,Chicago,IL,60617,3720.0,31101,ES,46.0,South Chicago,South Shore,11.0,4.0,170314603023000,41.8499857524999,-87.6338070176999,170993001128,_170993001128,17031460302
400018,Austin Bus & Entrp HS,Austin Business and Entrepreneurship Academy HS,Austin Bus & Entrp HS,Austin Bus & Entrepreneurship HS,231,N,Pine Ave,Chicago,IL,60644,7020.0,66411,HS,25.0,Austin,Austin,25.0,1.0,170312519003008,41.8852126906,-87.7632855866999,170993099980,_170993099980,17031251900
609861,Clissold,Henry R Clissold Elementary School,Clissold,Clissold Elem School,2350,W,110th Pl,Chicago,IL,60643,2820.0,22761,ES,75.0,Morgan Park,Beverly,3.0,11.0,170317502004005,41.9520695634999,-87.7064426106,170993000665,_170993000665,17031750200
610252,Dett,Robert Nathaniel Dett Elementary School,Dett,Dett Elem School,2131,W,Monroe St,Chicago,IL,60612,6740.0,26031,ES,28.0,Near West Side,Near West,23.0,1.0,170318380001012,41.9013896984,-87.6337299209999,170993000695,_170993000695,17031838000
610246,Beasley,Edward Beasley Elementary Magnet Academic Center,Beasley,Beasley Elem Magnet Academic Ctr,5255,S,State St,Chicago,IL,60609,6660.0,29321,ES,40.0,Washington Park,Bronzeville,15.0,2.0,170318361001008,41.8729124425999,-87.7533255674999,170993000668,_170993000668,17031836100
400021,Catalyst Chtr - Circle Rock,Catalyst Elementary School - Circle Rock,Catalyst Chtr - Circle Rock,Catalyst Circle Rock Elem School,5608,W,Washington Blvd,Chicago,IL,60644,4371.0,66432,ES,25.0,Austin,Austin,25.0,1.0,170312520002000,41.8822947832,-87.7653213759,170993005935,_170993005935,17031252000
610386,Peace & Education HS,Peace & Education Coalition High School,Peace & Education HS,Peace And Education Coalition HS,4946,S,Paulina St,Chicago,IL,60609,1123.0,67021,HS,61.0,New City,McKinley Park,17.0,7.0,170316113003011,41.8360356836,-87.7341216358999,170993002596,_170993002596,17031611300
610128,Garvey,Marcus Moziah Garvey Elementary School,Garvey,Garvey  M Elem School,10309,S,Morgan St,Chicago,IL,60643,5420.0,24951,ES,73.0,Washington Heights,Far South Side,22.0,5.0,170317307002000,41.8365273014999,-87.6183009625,170993000712,_170993000712,17031730700
610405,Suder,Suder Montessori Magnet ES,Suder,Suder Montessori Elem Magnet Schl,2022,W,Washington Blvd,Chicago,IL,60612,6340.0,26881,ES,28.0,Near West Side,Near West,23.0,1.0,170318378002014,41.7643796381,-87.7064440066999,170993005801,_170993005801,17031837800
610131,Plamondon,Ambrose Plamondon Elementary School,Plamondon,Plamondon Elem School,2642,W,15th Pl,Chicago,IL,60608,5450.0,24981,ES,29.0,North Lawndale,North Lawndale,19.0,2.0,170318433001043,41.8529278365,-87.6832907521999,170993001037,_170993001037,17031843300
609808,Haley,Alex Haley Elementary Academy,Haley,Haley Elem Academy,11411,S,Eggleston Ave,Chicago,IL,60628,2360.0,22301,ES,49.0,Roseland,Far South Side,22.0,5.0,170314912001022,41.7543655977,-87.5571053283999,170993000615,_170993000615,17031491200
400094,Epic Chtr HS,EPIC Academy High School,Epic Chtr HS,EPIC Academy High School,8255,S,Houston Ave,Chicago,IL,60617,8058.0,63081,HS,46.0,South Chicago,South Shore,11.0,4.0,170314601004005,41.7448481837,-87.5502589914,170993006088,_170993006088,17031460100
610541,Lorca,Federico Garcia Lorca Elementary School,Lorca,Garcia Lorca Elementary School,3231,N,Springfield Ave,Chicago,IL,60618,8330.0,22341,ES,21.0,Avondale,Logan,9.0,8.0,170318311004027,41.9050816855,-87.6448406240999,,_,17031831100
609818,Burbank,Luther Burbank Elementary School,Burbank,Burbank Elem School,2035,N,Mobile Ave,Chicago,IL,60639,2450.0,22401,ES,19.0,Belmont Cragin,Belmont Cragin,26.0,8.0,170311913012018,41.7608470308,-87.5761115040999,170993000627,_170993000627,17031191301
610219,"Washington, G",George Washington Elementary School,"Washington, G",Washington  G Elem School,3611,E,114th St,Chicago,IL,60617,6360.0,25771,ES,52.0,East Side,Far East Side,2.0,4.0,170315206001061,41.8439794256999,-87.6353924773,170993001145,_170993001145,17031520600
400057,Noble Street Chtr - Uic,Noble Street Charter - UIC College Prep,Noble Street Chtr - Uic,Noble Street Charter High School,1231,S,Damen Ave,Chicago,IL,60608,1936.0,66147,HS,28.0,Near West Side,Near West,23.0,2.0,170318429004028,41.8658167123999,-87.6761476289999,170993003479,_170993003479,17031842900
609852,Chappell,Eliza Chappell Elementary School,Chappell,Chappell Elem School,2135,W,Foster Ave,Chicago,IL,60625,2750.0,22681,ES,4.0,Lincoln Square,Ravenswood,30.0,12.0,170310404022002,41.952782075,-87.6509792475,170993000658,_170993000658,17031040402
610030,Kozminski,Charles Kozminski Elementary Community Academy,Kozminski,Kozminski Elem Community Academy,936,E,54th St,Chicago,IL,60615,4390.0,31151,ES,41.0,Hyde Park,Hyde Park,14.0,3.0,170314105001000,41.7236263954999,-87.6395573453999,170993000903,_170993000903,17031410500
400130,Yccs Chtr - Youth Development,YCCS-Community Youth Development Institute HS,Yccs Chtr - Youth Development,Youth Connections Charter HS,7836,S,Union Ave,Chicago,IL,60620,9047.0,66614,HS,71.0,Auburn Gresham,Auburn Gresham,5.0,3.0,170317101001017,41.7513776106,-87.6416945471,170993003473,_170993003473,17031710100
610065,Till,Emmett Louis Till Math and Science Academy,Till,Till Elem Math & Science Academy,6543,S,Champlain Ave,Chicago,IL,60637,4740.0,24441,ES,42.0,Woodlawn,Woodlawn,13.0,3.0,170314207002004,41.8299923302,-87.6411392589999,170993001165,_170993001165,17031420700
610017,Saucedo,Maria Saucedo Elementary Scholastic Academy,Saucedo,Saucedo Elem Scholastic Academy,2850,W,24th Blvd,Chicago,IL,60623,4250.0,29151,ES,30.0,South Lawndale,Pilsen - Little Village,16.0,7.0,170318407002011,41.8580653653,-87.6522648960999,170993004917,_170993004917,17031840700
610112,Parker,Francis W Parker Elementary Community Academy,Parker,Parker Elem Community Academy,6800,S,Stewart Ave,Chicago,IL,60621,5270.0,31181,ES,68.0,Englewood,Englewood,4.0,3.0,170316812003013,41.8273827043,-87.6197802794,170993001019,_170993001019,17031681200
400070,Prologue HS,Prologue Early College High School,Prologue HS,Prologue Early College CONTR HS,1135,N,Cleaver Rd,Chicago,IL,60622,1135.0,66491,HS,24.0,West Town,Near North,10.0,1.0,170312420003000,41.9028970912,-87.6637407343,170993005932,_170993005932,17031242000
610543,Solorio HS,Eric Solorio Academy High School,Solorio HS,Zaragoza High School,5400,S,St Louis Ave,Chicago,IL,60632,8550.0,46101,HS,63.0,Gage Park,McKinley Park,17.0,7.0,170316303002008,41.940043132,-87.7248117416,,_,17031630300
609950,Ortiz De Dominguez,Josefa Ortiz De Dominguez Elementary School,Ortiz De Dominguez,Ortiz De Dominguez Elem School,3000,S,Lawndale Ave,Chicago,IL,60623,3630.0,23411,ES,30.0,South Lawndale,Pilsen - Little Village,16.0,7.0,170313017021006,41.8133044604999,-87.6433075667,170993001610,_170993001610,17031301702
610026,Kinzie,John H Kinzie Elementary School,Kinzie,Kinzie Elem School,5625,S,Mobile Ave,Chicago,IL,60638,4330.0,24071,ES,56.0,Garfield Ridge,MDW,7.0,11.0,170315611006005,42.0036409951,-87.6681856826999,170993000890,_170993000890,17031561100
609768,Hope HS,Hope College Preparatory High School,Hope HS,Hope College Prep High School,5515,S,Lowe Ave,Chicago,IL,60621,1940.0,49091,HS,68.0,Englewood,Englewood,4.0,2.0,170318347003007,41.8526670963,-87.6636957483,170993004266,_170993004266,17031834700
609709,Gage Park HS,Gage Park High School,Gage Park HS,Gage Park High School,5630,S,Rockwell St,Chicago,IL,60629,1340.0,46141,HS,63.0,Gage Park,McKinley Park,17.0,7.0,170318351002004,41.7697134173999,-87.6371893711999,170993000809,_170993000809,17031835100
610342,Sabin,Albert R Sabin Elementary Magnet School,Sabin,Sabin Elem Magnet School,2216,W,Hirsch St,Chicago,IL,60622,7790.0,29371,ES,24.0,West Town,Humboldt Park,21.0,12.0,170312412001006,41.7589252626,-87.6491800499999,170993004916,_170993004916,17031241200
609921,Telpochcalli,Telpochcalli Elementary School,Telpochcalli,Telpochcalli Elem School,2832,W,24th Blvd,Chicago,IL,60623,3380.0,23231,ES,30.0,South Lawndale,Pilsen - Little Village,16.0,7.0,170318407002011,41.7851833424,-87.6085962384999,170993001613,_170993001613,17031840700
609715,Kelly HS,Thomas Kelly High School,Kelly HS,Kelly High School,4136,S,California Ave,Chicago,IL,60632,1400.0,46181,HS,58.0,Brighton Park,McKinley Park,17.0,7.0,170315805012008,41.7537488720999,-87.6016906389999,170993000920,_170993000920,17031580501
400131,Yccs Chtr - Campos,YCCS-Dr. Pedro Albizu Campos Puerto Rican HS,Yccs Chtr - Campos,Youth Connections Charter HS,2739,W,Division St,Chicago,IL,60622,9601.0,66615,HS,24.0,West Town,Humboldt Park,21.0,8.0,170312426002001,41.9028771377999,-87.6960063547,170993003473,_170993003473,17031242600
609900,Curtis,George W Curtis Elementary School,Curtis,Curtis Elem School,32,E,115th St,Chicago,IL,60628,3160.0,23061,ES,49.0,Roseland,Far South Side,22.0,5.0,170314914002028,41.7743930167,-87.7079518381,170993000650,_170993000650,17031491400
610209,Volta,Alessandro Volta Elementary School,Volta,Volta Elem School,4950,N,Avers Ave,Chicago,IL,60625,6270.0,25681,ES,14.0,Albany Park,Albany Irving,27.0,12.0,170311403021002,41.7208232142999,-87.6655229337,170993001138,_170993001138,17031140302
610082,Mount Greenwood,Mount Greenwood Elementary School,Mount Greenwood,Mount Greenwood Elem School,10841,S,Homan Ave,Chicago,IL,60655,4940.0,24591,ES,74.0,Mount Greenwood,Beverly,3.0,11.0,170317403002009,41.9490307347999,-87.6515741720999,170993000974,_170993000974,17031740300
609695,Amundsen HS,Roald Amundsen High School,Amundsen HS,Amundsen High School,5110,N,Damen Ave,Chicago,IL,60625,1210.0,46031,HS,4.0,Lincoln Square,Ravenswood,30.0,12.0,170310404022002,41.8900046421,-87.7073328694999,170993000587,_170993000587,17031040402
610316,Earhart,Amelia Earhart Options for Knowledge ES,Earhart,Earhart Elem Opt for Knowl School,1710,E,93rd St,Chicago,IL,60617,7450.0,26441,ES,48.0,Calumet Heights,South Shore,11.0,4.0,170314804004019,41.9052932887,-87.68579293,170993000859,_170993000859,17031480400
610067,Mckay,Francis M McKay Elementary School,Mckay,Mckay Elem School,6901,S,Fairfield Ave,Chicago,IL,60629,4760.0,24451,ES,66.0,Chicago Lawn,Chicago Lawn,8.0,2.0,170316609003022,41.7754233487,-87.6093938647999,170993000958,_170993000958,17031660900
610566,Bridgescape Academy Of North Lawndale,Magic Johnson Bridgescape Academy North Lawndale,Bridgescape Academy Of North Lawndale,,,,,Chicago,IL,60624,9631.0,,HS,29.0,North Lawndale,North Lawndale,19.0,2.0,170318430001029,41.8084399753999,-87.6775423668999,,_,17031843000
609834,Little Village,Little Village Elementary School,Little Village,Little Village Elem School,2620,S,Lawndale Ave,Chicago,IL,60623,2590.0,22521,ES,30.0,South Lawndale,Pilsen - Little Village,16.0,7.0,170313017011004,41.795030382,-87.7915811457999,170993001608,_170993001608,17031301701
610313,Diego,Jose De Diego Elementary Community Academy,Diego,De Diego Elem Community Academy,1313,N,Claremont Ave,Chicago,IL,60622,7420.0,31261,ES,24.0,West Town,Humboldt Park,21.0,12.0,170312412002011,41.8835687675,-87.6694399965,170993000643,_170993000643,17031241200
400112,Uno Chtr - 51st - Homan,UNO 51st and Homan Charter Elementary School,Uno Chtr - 51st - Homan,UNO Network Charter School,5050,S,Homan Ave,Chicago,IL,60632,8671.0,66399,ES,63.0,Gage Park,McKinley Park,17.0,7.0,170316303002004,41.801043391,-87.7087601321999,,_,17031630300
610170,Columbia Explorers,Columbia Explorers Elementary Academy,Columbia Explorers,Columbia Explorers Elem Academy,4520,S,Kedzie Ave,Chicago,IL,60632,5860.0,20071,ES,58.0,Brighton Park,McKinley Park,17.0,7.0,170315804002003,41.9304025456,-87.7612272034999,170993004277,_170993004277,17031580400
400102,Urban Prep Chtr - West,Urban Prep Academy for Young Men - West,Urban Prep Chtr - West,Urban Prep Chtr Acad West Campus HS,1326,W,14th Pl,Chicago,IL,60608,8096.0,63071,HS,28.0,Near West Side,Near West,23.0,2.0,170318429003010,41.8625125845999,-87.6601057206,170993006094,_170993006094,17031842900
400045,Nkrumah Contr,Kwame Nkrumah Academy Elementary School,Nkrumah Contr,Nkrumah Academy Charter School,,,,Chicago,IL,St,2055.0,63041,ES,71.0,Auburn Gresham,Far South Side,22.0,4.0,170317110002014,41.698021,87.631063,170993006034,_170993006034,17031711000
610139,Pullman,George M Pullman Elementary School,Pullman,Pullman Elem School,11311,S,Forrestville Ave,Chicago,IL,60628,5530.0,25041,ES,50.0,Pullman,Far South Side,22.0,4.0,170315003002011,41.9656197799999,-87.7723774098,170993001046,_170993001046,17031500300
400113,Chicago Quest North,Chicago Intl Charter - Chicago Quest North,Chicago Quest North,Chicago International Charter,1443,N,Ogden Ave,Chicago,IL,60610,8672.0,66651,HS,8.0,Near North Side,Lincoln Park,29.0,2.0,170318422001040,41.9078097084,-87.6455939143999,,_,17031842200
400146,Kipp Create,KIPP Charter Create,Kipp Create,KIPP Charter Create School,4837,W,Erie St,Chicago,IL,60644,9605.0,66031,ES,25.0,Austin,Austin,25.0,1.0,170312517001041,41.8922020003999,-87.7472156802,,_,17031251700
609872,Perez,Manuel Perez Elementary School,Perez,Perez Elem School,1241,W,19th St,Chicago,IL,60608,2930.0,22861,ES,31.0,Lower West Side,Pilsen - Little Village,16.0,7.0,170313106003002,41.845603033,-87.7311561742999,170993005410,_170993005410,17031310600
609807,Hampton,Lionel Hampton Fine & Performing Arts ES,Hampton,Hampton Elem Fine & Perf Arts Sch,3434,W,77th St,Chicago,IL,60652,2350.0,32021,ES,70.0,Ashburn,Ashburn,6.0,11.0,170317001001011,41.7493387502,-87.6694022909999,170993003995,_170993003995,17031700100
610135,Portage Park,Portage Park Elementary School,Portage Park,Portage Park Elem School,5330,W,Berteau Ave,Chicago,IL,60641,5490.0,25011,ES,15.0,Portage Park,Albany Irving,27.0,12.0,170311503003009,41.7026305459,-87.6063825628999,170993001039,_170993001039,17031150300
400026,Cics - Loomis,Chicago Intl Charter - Loomis Primary,Cics - Loomis,Chicago International Charter,9535,S,Loomis St,Chicago,IL,60643,4914.0,66075,ES,73.0,Washington Heights,Auburn Gresham,5.0,4.0,170317304002001,41.7202458541,-87.6575976791999,170993003505,_170993003505,17031730400
400041,Galapagos Chtr Campus,Galapagos Elementary Charter School,Galapagos Chtr Campus,Galapagos Elem Charter School,3814,W,Iowa St,Chicago,IL,60651,5840.0,66341,ES,23.0,Humboldt Park,Garfield - West Humboldt,20.0,1.0,170312312003002,41.8972855852999,-87.7219585897999,170993005798,_170993005798,17031231200
400151,Learn Chtr - 7,Learn Charter 7 ES,Learn Chtr - 7,,3021,W,Caroll Ave,Chicago,IL,60612,9608.0,,ES,27.0,East Garfield Park,Garfield - West Humboldt,20.0,1.0,170318371001003,41.8875163594999,-87.702165851,,_,17031837100
610573,Camelot - Safe School Program HS,Camelot Safe Academy High School,Camelot - Safe School Program HS,,,,,Chicago,IL,"Ave. Chicago, IL 60649",9638.0,,HS,46.0,South Chicago,South Shore,11.0,4.0,170314601001007,42.0171710911999,-87.8066449739999,,_,17031460100
610530,Southshore,South Shore Fine Arts Academy,Southshore,South Shore Fine Arts Elem Sch,1415,E,70th St,Chicago,IL,60637,2015.0,22251,ES,43.0,South Shore,South Shore,11.0,3.0,170314303003009,41.9357940433,-87.6805987585999,,_,17031430300
610523,Edison Park,Edison Park Elementary School,Edison Park,Edison Park Elem School,6220,N,Olcott Ave,Chicago,IL,60631,2085.0,28081,ES,10.0,Norwood Park,Sauganash,28.0,9.0,170311003005026,41.9029149767,-87.6736593053999,170993099991,_170993099991,17031100300
610172,Sherman,William T Sherman Elementary School,Sherman,Sherman Elem School,1000,W,52nd St,Chicago,IL,60609,5890.0,25341,ES,61.0,New City,Englewood,4.0,2.0,170316120002000,41.8110694495,-87.7041619277,170993001085,_170993001085,17031612000
400061,Perspectives Chtr - Leadership Academy,Perspectives Charter Leadership Academy HS,Perspectives Chtr - Leadership Academy,Perspectives Charter High School,8131,S,May St,Chicago,IL,60620,1961.0,66052,HS,71.0,Auburn Gresham,Auburn Gresham,5.0,4.0,170317108006008,41.7459346286999,-87.6523281373,170993003450,_170993003450,17031710800
609977,Woodlawn,Woodlawn Community Elementary School,Woodlawn,Woodlawn Elem Community School,6657,S,Kimbark Ave,Chicago,IL,60637,3860.0,23631,ES,42.0,Woodlawn,Woodlawn,13.0,3.0,170318344002014,41.8991718943999,-87.7557765292,170993001615,_170993001615,17031834400
610159,Scammon,Jonathan Y Scammon Elementary School,Scammon,Scammon Elem School,4201,W,Henderson St,Chicago,IL,60641,5730.0,25241,ES,16.0,Irving Park,Albany Irving,27.0,12.0,170311613003002,41.7974987802,-87.7049691168,170993001073,_170993001073,17031161300
610315,White,Edward White Elementary Career Academy,White,White Elem Career Academy,1136,W,122nd St,Chicago,IL,60643,7440.0,26431,ES,53.0,West Pullman,Far South Side,22.0,5.0,170315304001014,41.7331597507999,-87.5895902041999,170993000801,_170993000801,17031530400
610281,Powell,Adam Clayton Powell Paideia Community Academy ES,Powell,Powell Elem Paideia Comm Academy,7511,S,South Shore Dr,Chicago,IL,60649,7010.0,26291,ES,43.0,South Shore,South Shore,11.0,4.0,170314314002001,41.8143577578999,-87.6166546200999,170993001213,_170993001213,17031431400
400077,Univ Of Chgo Chtr - Woodlawn,University of Chicago Charter - Woodlawn,Univ Of Chgo Chtr - Woodlawn,Univ of Chicago Elem Charter Schl,6420,S,University Ave,Chicago,IL,60637,3061.0,66112,HS,42.0,Woodlawn,Woodlawn,13.0,3.0,170318344001008,41.7781185053,-87.5980804463,170993003542,_170993003542,17031834400
609978,Smith,Wendell Smith Elementary School,Smith,Smith  W Elem School,744,E,103rd St,Chicago,IL,60628,3870.0,23641,ES,50.0,Pullman,Far South Side,22.0,4.0,170315001004030,41.9945134479999,-87.6685032710999,170993000928,_170993000928,17031500100
609967,Finkl,William F Finkl Elementary School,Finkl,Finkl Elem School,2332,S,Western Ave,Chicago,IL,60608,3760.0,23541,ES,31.0,Lower West Side,Pilsen - Little Village,16.0,2.0,170318413002002,41.8072410102999,-87.6612113302,170993001351,_170993001351,17031841300
609851,Chalmers,Thomas Chalmers Specialty Elementary School,Chalmers,Chalmers Elem Specialty School,2745,W,Roosevelt Rd,Chicago,IL,60608,2740.0,22671,ES,29.0,North Lawndale,North Lawndale,19.0,2.0,170318433001005,41.6873478587,-87.7031788941999,170993000657,_170993000657,17031843300
610133,"Ward, L",Laura S Ward Elementary School,"Ward, L",Ward  L Elem School,646,N,Lawndale Ave,Chicago,IL,60624,5470.0,24991,ES,23.0,Humboldt Park,Garfield - West Humboldt,20.0,1.0,170312315006022,41.8602314637,-87.6925249792,170993001212,_170993001212,17031231500
610171,Mireles,Arnold Mireles Elementary Academy,Mireles,Mireles Elem Academy,9000,S,Exchange Ave,Chicago,IL,60617,5880.0,25331,ES,46.0,South Chicago,South Shore,11.0,4.0,170318339002018,41.8103337502,-87.6687353374999,170993001084,_170993001084,17031833900
400125,Yccs Chtr - Aspira Pantoja,"YCCS-ASPIRA,Antonia Pantoja Alternative HS",Yccs Chtr - Aspira Pantoja,Youth Connections Charter HS,3121,N,Pulaski Rd,Chicago,IL,60641,9042.0,66108,HS,21.0,Avondale,Logan,9.0,8.0,170312105012024,41.9379166697,-87.7270766439,170993003473,_170993003473,17031210501
610308,Rudolph,Wilma Rudolph Elementary Learning Center,Rudolph,Rudolph Elem Learning Center,110,N,Paulina St,Chicago,IL,60612,7350.0,30121,ES,28.0,Near West Side,Near West,23.0,1.0,170312804001034,41.8788478048999,-87.6887239489,170993004382,_170993004382,17031280400
400123,Yccs Chtr - Community Service,YCCS-Academy of Scholastic Achievement HS,Yccs Chtr - Community Service,Youth Connections Charter HS,4651,W,Madison St,Chicago,IL,60644,9040.0,66106,HS,25.0,Austin,Austin,25.0,1.0,170312522021001,41.8804746267,-87.7425394305,170993003473,_170993003473,17031252202
,Disney Ii HS,Disney II Magnet High School,Disney Ii HS,,3900,N,Lawndale Ave,Chicago,IL,60618,9626.0,26921,HS,16.0,Irving Park,Albany Irving,27.0,8.0,170311609001005,41.7526966442,-87.5508909663,,_,17031160900
610287,Ashburn,Ashburn Community Elementary School,Ashburn,Ashburn Community Elem School,8300,S,Saint Louis Ave,Chicago,IL,60652,7100.0,32081,ES,70.0,Ashburn,Ashburn,6.0,3.0,170317004011065,41.8977916289999,-87.7467304026999,170993004718,_170993004718,17031700401
400031,Cics - Wrightwood,Chicago Intl Charter - Wrightwood,Cics - Wrightwood,Chicago International Charter,8130,S,California Ave,Chicago,IL,60652,3180.0,66381,ES,70.0,Ashburn,Ashburn,6.0,3.0,170317005013036,41.7453659878,-87.6925777632,170993003505,_170993003505,17031700501
610195,Sutherland,Elizabeth H Sutherland Elementary School,Sutherland,Sutherland Elem School,10015,S,Leavitt St,Chicago,IL,60643,6120.0,25561,ES,72.0,Beverly,Beverly,3.0,11.0,170317203003014,41.743828102,-87.5429642458999,170993001118,_170993001118,17031720300
610350,Black,Robert A Black Magnet Elementary School,Black,Black Magnet Elem School,9101,S,Euclid Ave,Chicago,IL,60619,7860.0,29381,ES,48.0,Calumet Heights,South Shore,11.0,4.0,170314804005007,41.8144992256999,-87.6083820914,170993000609,_170993000609,17031480400
609722,Manley HS,Manley Career Academy High School,Manley HS,Manley Career Academy High School,2935,W,Polk St,Chicago,IL,60612,1460.0,53111,HS,27.0,East Garfield Park,Garfield - West Humboldt,20.0,2.0,170312718001015,41.9547635348,-87.6689894456,170993001125,_170993001125,17031271800
610142,Ray,William H Ray Elementary School,Ray,Ray Elem School,5631,S,Kimbark Ave,Chicago,IL,60637,5560.0,25071,ES,41.0,Hyde Park,Hyde Park,14.0,3.0,170314112001005,41.6888189008,-87.6094675728,170993001047,_170993001047,17031411200
400114,Uno Chtr - St Marks,UNO Charter Elementary School St Marks,Uno Chtr - St Marks,UNO Network Charter School,2510,W,Cortez St,Chicago,IL,60622,8093.0,66601,ES,24.0,West Town,Humboldt Park,21.0,8.0,170312425001013,41.9003161969,-87.6898950622999,,_,17031242500
609759,Clemente HS,Roberto Clemente Community Academy High School,Clemente HS,Clemente Community Academy HS,1147,N,Western Ave,Chicago,IL,60622,1840.0,51091,HS,24.0,West Town,Humboldt Park,21.0,12.0,170312424001001,41.8786020833,-87.6642700568,170993001086,_170993001086,17031242400
609833,Caldwell,Charles P Caldwell Academy of Math & Science ES,Caldwell,Caldwell Elem Acad of Math & Sci,8546,S,Cregier,Chicago,IL,60617,2580.0,22511,ES,45.0,Avalon Park,Chatham,12.0,4.0,170314503004009,41.8976633373,-87.7655689422,170993000641,_170993000641,17031450300
400030,Cics - West Belden,Chicago Intl Charter - West Belden,Cics - West Belden,Chicago International Charter,2245,N,McVicker Ave,Chicago,IL,60639,7120.0,66221,ES,19.0,Belmont Cragin,Belmont Cragin,26.0,8.0,170311913011018,41.9216867612,-87.7767852699,170993003505,_170993003505,17031191301
400111,Learn Chtr - Hunter Perkins,LEARN Charter School - Hunter Perkins,Learn Chtr - Hunter Perkins,Learn Elem Charter School,1700,W,83rd St,Chicago,IL,60620,8677.0,66564,ES,71.0,Auburn Gresham,Auburn Gresham,5.0,4.0,170317112001012,41.7430943318999,-87.6657204355,,_,17031711200
609945,Goudy,William C Goudy Elementary School,Goudy,Goudy Elem School,5120,N,Winthrop Ave,Chicago,IL,60640,3590.0,23371,ES,3.0,Uptown,Ravenswood,30.0,10.0,170310312003001,41.6706183116,-87.6225090757999,170993000797,_170993000797,17031031200
609754,Chgo Military Acad HS,Chicago Military Academy High School,Chgo Military Acad HS,Chicago Military Academy HS,3519,S,Giles Ave,Chicago,IL,60653,1800.0,7007,HS,35.0,Douglas,Bronzeville,15.0,3.0,170318396002000,41.8136749837999,-87.6039105379,170993003487,_170993003487,17031839600
609952,Greene,Nathanael Greene Elementary School,Greene,Greene  N Elem School,3525,S,Honore,Chicago,IL,60609,3650.0,23431,ES,59.0,Mckinley Park,McKinley Park,17.0,7.0,170315906001000,41.8387910078999,-87.7171536303,170993000806,_170993000806,17031590600
610513,Air Force HS,Air Force Academy High School,Air Force HS,Air Force Acad High School,3630,S,Wells St,Chicago,IL,60609,1055.0,45231,HS,34.0,Armour Square,Bridgeport - Chinatown,18.0,2.0,170313406001012,41.8277744098,-87.6775785338,170993006055,_170993006055,17031340600
609976,Hayt,Stephen K Hayt Elementary School,Hayt,Hayt Elem School,1518,W,Granville Ave,Chicago,IL,60660,3850.0,23621,ES,77.0,Edgewater,Ravenswood,30.0,10.0,170310302004021,41.9422748936,-87.657745624,170993000834,_170993000834,17031030200
610542,West Ridge,West Ridge Elementary School,West Ridge,West Ridge Elementary School,6700,N,Whipple St,Chicago,IL,60645,8440.0,22381,ES,2.0,West Ridge,Ravenswood,30.0,13.0,170310203012002,41.9349313248999,-87.7700905181,,_,17031020301
610325,Logandale,Logandale Middle School,Logandale,Logandale Middle School,3212,W,George St,Chicago,IL,60618,7560.0,41091,ES,21.0,Avondale,Logan,9.0,8.0,170312106021000,41.9519884365999,-87.7202837620999,170993000048,_170993000048,17031210602
609910,Falconer,Laughlin Falconer Elementary School,Falconer,Falconer Elem School,3020,N,Lamon Ave,Chicago,IL,60641,3270.0,23151,ES,19.0,Belmont Cragin,Belmont Cragin,26.0,12.0,170311902002012,41.689444885,-87.6691444201999,170993000759,_170993000759,17031190200
609682,Richards HS,Ellen H Richards Career Academy High School,Richards HS,Richards Career Academy HS,5009,S,Laflin St,Chicago,IL,60609,1110.0,53051,HS,61.0,New City,McKinley Park,17.0,7.0,170316112002020,41.9200600619,-87.7610115834,170993000718,_170993000718,17031611200
609762,Julian HS,Percy L Julian High School,Julian HS,Julian High School,10330,S,Elizabeth St,Chicago,IL,60643,1870.0,46401,HS,73.0,Washington Heights,Beverly,3.0,4.0,170317307002017,41.6562905593999,-87.5905838017,170993000895,_170993000895,17031730700
610175,Shoesmith,Beulah Shoesmith Elementary School,Shoesmith,Shoesmith Elem School,1330,E,50th St,Chicago,IL,60615,5920.0,25371,ES,39.0,Kenwood,Hyde Park,14.0,3.0,170313906002003,41.7908276853,-87.6322793350999,170993001094,_170993001094,17031390600
400135,Yccs Chtr - Latino Youth,YCCS-Latino Youth Alternative HS,Yccs Chtr - Latino Youth,Youth Connections Charter HS,2001,S,California Ave,Chicago,IL,60608,9052.0,66619,HS,30.0,South Lawndale,Pilsen - Little Village,16.0,7.0,170318407003002,41.8546639310999,-87.6954667066,170993003473,_170993003473,17031840700
400116,Montessori Chtr - Englewood,The Montessori School of Englewood Charter,Montessori Chtr - Englewood,Montessori of Englewood Elem Chrt,6550,S,Seeley Ave,Chicago,IL,60636,9033.0,66591,ES,67.0,West Englewood,Englewood,4.0,2.0,170316714001021,41.7741643482,-87.6750599476,,_,17031671400
610357,Spry HS,Spry Community Links High School,Spry HS,Spry Community Links High School,2400,S,Marshall Blvd,Chicago,IL,60623,7930.0,46461,HS,30.0,South Lawndale,Pilsen - Little Village,16.0,7.0,170313011001004,41.9617218110999,-87.7071139757999,170993005677,_170993005677,17031301100
609729,Schurz HS,Carl Schurz High School,Schurz HS,Schurz High School,3601,N,Milwaukee Ave,Chicago,IL,60641,1530.0,46281,HS,16.0,Irving Park,Albany Irving,27.0,12.0,170311611002015,41.8238525306,-87.6197957432,170993001111,_170993001111,17031161100
609895,Turner-drew,Turner-Drew Elementary Language Academy,Turner-drew,Turner-Drew Elem Language Academy,9300,S,Princeton Ave,Chicago,IL,60620,3110.0,29041,ES,49.0,Roseland,Auburn Gresham,5.0,4.0,170318340001025,41.7809552267,-87.7875677723999,170993000628,_170993000628,17031834000
400142,Yccs Chtr - Virtual,YCCS-Virtual HS,Yccs Chtr - Virtual,Youth Connections Charter HS,1900,W,Van Buren St,Chicago,IL,60612,9059.0,66626,HS,28.0,Near West Side,Near West,23.0,2.0,170318381002034,41.8762892935,-87.6741375554999,170993003473,_170993003473,17031838100
610121,Irving,Washington Irving Elementary School,Irving,Irving Elem School,749,S,Oakley Blvd,Chicago,IL,60612,5350.0,24881,ES,28.0,Near West Side,Near West,23.0,2.0,170318382001008,41.7868947927999,-87.7327031138,170993000867,_170993000867,17031838200
610093,Neil,Jane A Neil Elementary School,Neil,Neil Elem School,8555,S,Michigan Ave,Chicago,IL,60619,5060.0,24651,ES,44.0,Chatham,Chatham,12.0,4.0,170314403003010,41.6648727374999,-87.6389943132,170993000987,_170993000987,17031440300
610366,Wacker,Charles H Wacker Elementary School,Wacker,Wacker Elem School,9746,S,Morgan St,Chicago,IL,60643,8030.0,26621,ES,73.0,Washington Heights,Auburn Gresham,5.0,4.0,170317304003008,41.9568240306,-87.6460475368999,170993001141,_170993001141,17031730400
400053,Noble Street Chtr - Golder,Noble Street Charter - Golder College Prep,Noble Street Chtr - Golder,Noble Street Charter High School,1454,W,Superior St,Chicago,IL,60642,1934.0,66145,HS,24.0,West Town,Near North,10.0,8.0,170312433001004,41.8952547585,-87.6644822348,170993003479,_170993003479,17031243300
609728,Roosevelt HS,Theodore Roosevelt High School,Roosevelt HS,Roosevelt High School,3436,W,Wilson Ave,Chicago,IL,60625,1520.0,46271,HS,14.0,Albany Park,Albany Irving,27.0,8.0,170311407023000,41.6927350913,-87.6163519043,170993001093,_170993001093,17031140702
400156,Noble Street Chtr - Pullman College Prep,Noble Street Charter  Crimson HS,Noble Street Chtr - Pullman College Prep,,821,E,103rd St,Chicago,IL,60628,9613.0,,HS,50.0,Pullman,Far South Side,22.0,4.0,170315002001003,41.7074460748,-87.6030643545,,_,17031500200
609884,Dever,William E Dever Elementary School,Dever,Dever Elem School,3436,N,Osceola Ave,Chicago,IL,60634,3020.0,22941,ES,17.0,Dunning,Reed-Dunning,24.0,9.0,170311708002011,42.009288152,-87.7045818029999,170993000698,_170993000698,17031170800
610083,Beard,Daniel C Beard Elementary School,Beard,Beard Elem School,6445,W,Strong St,Chicago,IL,60656,4950.0,30051,ES,10.0,Norwood Park,Sauganash,28.0,9.0,170311007001015,41.8444275991,-87.6413402081,170993004965,_170993004965,17031100700
609796,Beaubien,Jean Baptiste Beaubien Elementary School,Beaubien,Beaubien Elem School,5025,N,Laramie Ave,Chicago,IL,60630,2240.0,22201,ES,11.0,Jefferson Park,Sauganash,28.0,9.0,170311105022001,41.9711409283999,-87.7097007456,170993000601,_170993000601,17031110502
610036,Lewis,Leslie Lewis Elementary School,Lewis,Lewis Elem School,1431,N,Leamington Ave,Chicago,IL,60651,4450.0,24151,ES,25.0,Austin,Austin,25.0,1.0,170312508001018,41.913900173,-87.6375281346,170993000911,_170993000911,17031250800
609761,Corliss HS,George H Corliss High School,Corliss HS,Corliss High School,821,E,103rd St,Chicago,IL,60628,1860.0,46391,HS,50.0,Pullman,Far South Side,22.0,4.0,170315002001003,41.9026253079999,-87.6869428735,170993001072,_170993001072,17031500200
609974,Hawthorne,Hawthorne Elementary Scholastic Academy,Hawthorne,Hawthorne Elem Scholastic Academy,3319,N,Clifton Ave,Chicago,IL,60657,3830.0,29131,ES,6.0,Lake View,Lincoln Park,29.0,10.0,170310622002010,41.9640291808999,-87.7230912726,170993000832,_170993000832,17031062200
610238,Bond,Carrie Jacobs Bond Elementary School,Bond,Bond Elem School,7050,S,May St,Chicago,IL,60621,6550.0,25941,ES,68.0,Englewood,Englewood,4.0,2.0,170316811005015,41.906791341,-87.7671061240999,170993000611,_170993000611,17031681100
609879,Dawes,Charles Gates Dawes Elementary School,Dawes,Dawes Elem School,3810,W,81st Pl,Chicago,IL,60652,2980.0,22901,ES,70.0,Ashburn,Ashburn,6.0,11.0,170317004012026,41.9232952786,-87.7054124004999,170993000689,_170993000689,17031700401
610299,Hinton,William A Hinton Elementary School,Hinton,Hinton Elem School,644,W,71st St,Chicago,IL,60621,7250.0,26371,ES,68.0,Englewood,Englewood,4.0,3.0,170316812001010,41.7561965021,-87.5796806471999,170993000856,_170993000856,17031681200
609817,Budlong,Lyman A Budlong Elementary School,Budlong,Budlong Elem School,2701,W,Foster Ave,Chicago,IL,60625,2440.0,22391,ES,4.0,Lincoln Square,Ravenswood,30.0,12.0,170310402012005,41.7716197534999,-87.6217826171999,170993000625,_170993000625,17031040201
610249,Talman,Talman Elementary School,Talman,Talman Elem School,5450,S,Talman Ave,Chicago,IL,60632,6680.0,26781,ES,63.0,Gage Park,McKinley Park,17.0,7.0,170316305003012,41.7984644187,-87.6257282445999,170993004726,_170993004726,17031630500
609896,Drummond,Thomas Drummond Elementary School,Drummond,Drummond Elem School,1845,W,Cortland St,Chicago,IL,60622,3120.0,23021,ES,22.0,Logan Square,Near North,10.0,12.0,170318310002017,41.8440435791,-87.6285167492,170993000729,_170993000729,17031831000
610078,Inter-american,Inter-American Elementary Magnet School,Inter-american,Inter-American Elem Magnet School,851,W,Waveland Ave,Chicago,IL,60613,4890.0,29191,ES,6.0,Lake View,Lincoln Park,29.0,10.0,170310610001009,41.9125048318,-87.6969781149999,170993000971,_170993000971,17031061000
400017,Aspira Chtr - Haugan,ASPIRA Charter - Haugan Campus,Aspira Chtr - Haugan,Aspira Charter High School,3729,W,Leland Ave,Chicago,IL,60625,3500.0,66351,MS,14.0,Albany Park,Albany Irving,27.0,8.0,170311406023008,41.9664331060999,-87.7218252123,170993005663,_170993005663,17031140602
610103,O'keeffe,Isabelle C O'Keeffe Elementary School,O'keeffe,O'Keeffe Elem School,6940,S,Merrill Ave,Chicago,IL,60649,5180.0,24751,ES,43.0,South Shore,South Shore,11.0,3.0,170314301011002,41.8999764896,-87.6292965702999,170993001005,_170993001005,17031430101
610355,Courtenay,Mary E Courtenay Elementary Language Arts Center,Courtenay,Courtenay Elem Language Arts Ctr,4420,N,Beacon St,Chicago,IL,60640,7910.0,30141,ES,3.0,Uptown,Ravenswood,30.0,10.0,170310317004005,41.8243498917,-87.7116528769,170993000914,_170993000914,17031031700
610054,Marsh,John L Marsh Elementary School,Marsh,Marsh Elem School,9822,S,Exchange Ave,Chicago,IL,60617,4630.0,24361,ES,51.0,South Deering,Far East Side,2.0,4.0,170315101002051,41.7482744912,-87.5747789970999,170993000939,_170993000939,17031510100
400083,Uno Chtr - Paz,UNO Charter - Octavio Paz Campus,Uno Chtr - Paz,Uno Network Elem Charter School,2651,W,23rd St,Chicago,IL,60608,5810.0,66131,ES,30.0,South Lawndale,Pilsen - Little Village,16.0,7.0,170313012003000,41.85006285,-87.6925516058999,170993003555,_170993003555,17031301200
610202,Tilton,George W Tilton Elementary School,Tilton,Tilton Elem School,223,N,Keeler Ave,Chicago,IL,60624,6210.0,25621,ES,26.0,West Garfield Park,Garfield - West Humboldt,20.0,1.0,170312602001013,41.7333296560999,-87.5444418175,170993001124,_170993001124,17031260200
610185,Stevenson,Adlai E Stevenson Elementary School,Stevenson,Stevenson Elem School,8010,S,Kostner Ave,Chicago,IL,60652,6030.0,25471,ES,70.0,Ashburn,Ashburn,6.0,11.0,170317003013012,41.8848771225,-87.7504080214999,170993001103,_170993001103,17031700301
609891,Doolittle,James R Doolittle Jr Elementary School,Doolittle,Doolittle Elem School,535,E,35th St,Chicago,IL,60616,3070.0,22991,ES,35.0,Douglas,Bronzeville,15.0,3.0,170313511003000,41.743669914,-87.6099422444,170993005167,_170993005167,17031351100
400097,Noble Street Chtr - Chgo Bulls,Noble Street Charter - Chicago Bulls College,Noble Street Chtr - Chgo Bulls,Noble Street Charter High School,2040,W,Adams St,Chicago,IL,60612,8078.0,66572,HS,28.0,Near West Side,Near West,23.0,1.0,170318380001028,41.878781373,-87.6781944863,170993003479,_170993003479,17031838000
609899,Ebinger,Christian Ebinger Elementary School,Ebinger,Ebinger Elem School,7350,W,Pratt Ave,Chicago,IL,60631,3150.0,23051,ES,9.0,Edison Park,Sauganash,28.0,9.0,170310902002007,41.7811977309999,-87.6755465061,170993000741,_170993000741,17031090200
610257,Morton,Morton School of Excellence,Morton,Morton Elem Career Academy,431,N,Troy St,Chicago,IL,60612,6800.0,26091,ES,23.0,Humboldt Park,Garfield - West Humboldt,20.0,1.0,170318367002042,41.8589108874,-87.7157439170999,170993004956,_170993004956,17031836700
610501,Austin Poly HS,Austin Polytechnical Academy High School,Austin Poly HS,Austin Polytechnical Academy HS,231,N,Pine Ave,Chicago,IL,60644,1065.0,49141,HS,25.0,Austin,Austin,25.0,1.0,170312519003008,41.8831870830999,-87.6776352886,170993099998,_170993099998,17031251900
609698,Bogan HS,William J Bogan High School,Bogan HS,Bogan High School,3939,W,79th St,Chicago,IL,60652,1230.0,46041,HS,70.0,Ashburn,Ashburn,6.0,11.0,170317004012009,41.7914364693,-87.7244699628,170993000626,_170993000626,17031700401
610000,Howe,Julia Ward Howe Elementary School of Excellence,Howe,Howe Elem School,720,N,Lorel Ave,Chicago,IL,60644,4060.0,23851,ES,25.0,Austin,Austin,25.0,1.0,170312515003000,41.8379999504999,-87.6537910564999,170993000862,_170993000862,17031251500
610506,Team HS,TEAM Englewood Community Academy High School,Team HS,Team Englewood Comm Acad HS,6201,S,Stewart Ave,Chicago,IL,60621,8080.0,49161,HS,68.0,Englewood,Englewood,4.0,2.0,170318346003043,41.8670136515,-87.7263136989,170993005916,_170993005916,17031834600
610504,Thomas,Velma F Thomas Early Childhood Center,Thomas,Thomas Early Childhood Center,3625,S,Hoyne Ave,Chicago,IL,60609,6710.0,26891,ES,59.0,Mckinley Park,McKinley Park,17.0,7.0,170315905001033,41.8788478048999,-87.6887239489,170993005886,_170993005886,17031590500
610006,Hurley,Edward N Hurley Elementary School,Hurley,Hurley Elem School,3849,W,69th Pl,Chicago,IL,60629,4120.0,23911,ES,65.0,West Lawn,Chicago Lawn,8.0,11.0,170316504004000,41.7003356801999,-87.6112078485,170993000866,_170993000866,17031650400
609726,Brooks HS,Gwendolyn Brooks College Preparatory Academy HS,Brooks HS,Brooks College Prep Academy HS,250,E,111th St,Chicago,IL,60628,1500.0,47051,HS,49.0,Roseland,Far South Side,22.0,5.0,170314909013022,41.9875672366,-87.7025193446999,170993002031,_170993002031,17031490901
400025,Cics - Bucktown,Chicago Intl Charter - Bucktown,Cics - Bucktown,Chicago International Charter,2235,N,Hamilton Ave,Chicago,IL,60647,4910.0,66071,ES,22.0,Logan Square,Near North,10.0,12.0,170318322001018,41.9224139085999,-87.6813946958999,170993003505,_170993003505,17031832200
609995,Hitch,Rufus M Hitch Elementary School,Hitch,Hitch Elem School,5625,N,McVicker Ave,Chicago,IL,60646,4010.0,23811,ES,10.0,Norwood Park,Sauganash,28.0,9.0,170311001003015,41.8097698308,-87.6722182678,170993000857,_170993000857,17031100100
610057,Fairfield,Fairfield Elementary Academy,Fairfield,Fairfield Elem Academy,6201,S,Fairfield Ave,Chicago,IL,60629,4660.0,26701,ES,66.0,Chicago Lawn,Chicago Lawn,8.0,11.0,170318350003014,41.8796861539999,-87.7080913629,170993002631,_170993002631,17031835000
610177,Skinner,Mark Skinner Elementary School,Skinner,Skinner Elem School,1260,W,Adams St,Chicago,IL,60607,5940.0,29281,ES,28.0,Near West Side,Near West,23.0,1.0,170318331003016,41.8042665794,-87.5939042778999,170993001096,_170993001096,17031833100
609710,Harlan HS,John M Harlan Community Academy High School,Harlan HS,Harlan Community Academy HS,9652,S,Michigan Ave,Chicago,IL,60628,1350.0,51021,HS,49.0,Roseland,Chatham,12.0,4.0,170314905002004,41.9397961358,-87.7542032879999,170993000851,_170993000851,17031490500
609788,Barnard,Alice L Barnard Computer Math & Science Ctr ES,Barnard,Barnard Elem Comp Math & Sci Ctr,10354,S,Charles St,Chicago,IL,60643,2150.0,22131,ES,72.0,Beverly,Beverly,3.0,11.0,170317207002002,41.8678330978,-87.6803808588999,170993000585,_170993000585,17031720700
610094,Nettelhorst,Louis Nettelhorst Elementary School,Nettelhorst,Nettelhorst Elem School,3252,N,Broadway St,Chicago,IL,60657,5070.0,24661,ES,6.0,Lake View,Lincoln Park,29.0,10.0,170310620001007,41.8922020003999,-87.7472156802,170993000988,_170993000988,17031062000
610380,"Williams, D",Daniel Hale Williams Prep School of Medicine,"Williams, D",Williams Medical Prep High Sch,4934,S,Wabash Ave,Chicago,IL,60615,7200.0,55161,HS,38.0,Grand Boulevard,Bronzeville,15.0,3.0,170313818001010,41.7053148832999,-87.6298680343,170993005804,_170993005804,17031381800
609829,Burroughs,John C Burroughs Elementary School,Burroughs,Burroughs Elem School,3542,S,Washtenaw Ave,Chicago,IL,60632,2540.0,22481,ES,58.0,Brighton Park,McKinley Park,17.0,7.0,170315801001012,41.7284532011,-87.6074346425999,170993000637,_170993000637,17031580100
610293,Melody,Genevieve Melody Elementary School,Melody,Melody Elem School,3937,W,Wilcox St,Chicago,IL,60624,7190.0,26351,ES,26.0,West Garfield Park,Garfield - West Humboldt,20.0,1.0,170312608001012,41.7727093812,-87.6372498126,170993000963,_170993000963,17031260800
609779,"Armstrong, G",George Armstrong International Studies ES,"Armstrong, G",Armstrong  G Elem Int'L Studies,2110,W,Greenleaf Ave,Chicago,IL,60645,2080.0,22081,ES,2.0,West Ridge,Ravenswood,30.0,13.0,170310204001005,41.9298498527,-87.6464131368,170993001181,_170993001181,17031020400
610108,O'toole,Luke O'Toole Elementary School,O'toole,O'Toole Elem School,6550,S,Seeley Ave,Chicago,IL,60636,5230.0,24801,ES,67.0,West Englewood,Englewood,4.0,2.0,170316714001021,41.900140258,-87.7312238732999,170993001013,_170993001013,17031671400
609968,Mcauliffe,Sharon Christa McAuliffe Elementary School,Mcauliffe,Mcauliffe Elem School,1841,N,Springfield Ave,Chicago,IL,60647,3770.0,23551,ES,20.0,Hermosa,Logan,9.0,8.0,170318312001009,41.8527465737999,-87.6962438184,170993005547,_170993005547,17031831200
610567,Bridgescape Academy Of South Shore,Magic Johnson Bridgescape Academy South Shore,Bridgescape Academy Of South Shore,,,,,Chicago,IL,60649,9632.0,,HS,43.0,South Shore,South Shore,11.0,3.0,170314302003002,41.9519884365999,-87.7202837620999,,_,17031430200
610197,Talcott,Mancel Talcott Elementary School,Talcott,Talcott Elem School,1840,W,Ohio St,Chicago,IL,60622,6140.0,25581,ES,24.0,West Town,Near North,10.0,8.0,170312431002001,41.7114444432,-87.676857787,170993000964,_170993000964,17031243100
609920,Kanoon,Gerald Delgado Kanoon Elementary Magnet School,Kanoon,Kanoon Elem Magnet School,2233,S,Kedzie Ave,Chicago,IL,60623,3370.0,29071,ES,30.0,South Lawndale,Pilsen - Little Village,16.0,7.0,170313009002003,42.0096630886,-87.6700221810999,170993000787,_170993000787,17031300900
610207,Vanderpoel,John H Vanderpoel Elementary Magnet School,Vanderpoel,Vanderpoel Elem Magnet School,9510,S,Prospect Ave,Chicago,IL,60643,6250.0,29311,ES,72.0,Beverly,Beverly,3.0,11.0,170317202001002,41.7875226650999,-87.7082158438,170993001131,_170993001131,17031720200
609864,Cook,John W Cook Elementary School,Cook,Cook Elem School,8150,S,Bishop St,Chicago,IL,60620,2860.0,22801,ES,71.0,Auburn Gresham,Auburn Gresham,5.0,4.0,170317106001012,41.7414125294,-87.56600641,170993000672,_170993000672,17031710600
610138,Pulaski,Pulaski International School of Chicago,Pulaski,Pulaski Intl School,2230,W,McLean Ave,Chicago,IL,60647,5520.0,31211,ES,22.0,Logan Square,Near North,10.0,12.0,170312216001032,41.9288136628999,-87.6695269023,170993001045,_170993001045,17031221600
609806,Bradwell,Myra Bradwell Communications Arts & Sciences ES,Bradwell,Bradwell Comm Arts & Sci Elem Sch,7736,S,Burnham Ave,Chicago,IL,60649,2340.0,22291,ES,43.0,South Shore,South Shore,11.0,4.0,170314313011003,42.0034120328,-87.6974260358,170993000614,_170993000614,17031431301
609680,Payton HS,Walter Payton College Preparatory High School,Payton HS,Payton College Preparatory HS,1034,N,Wells St,Chicago,IL,60610,1090.0,7002,HS,8.0,Near North Side,Loop,1.0,2.0,170318383002003,41.8730667,-87.6276386214999,170993003989,_170993003989,17031838300
610520,Lasalle Ii,LaSalle II Magnet Elementary School,Lasalle Ii,LaSalle II Lang Acad Elem School,1148,N,Honore St,Chicago,IL,60622,8040.0,29101,ES,24.0,West Town,Near North,10.0,1.0,170312422001001,41.9504605058999,-87.7306783758999,170993099986,_170993099986,17031242200
610558,Goode Acad HS,Sarah E. Goode STEM Academy,Goode Acad HS,Goode STEM Academy HS,7651,S,Homan Ave,Chicago,IL,60652,9598.0,46611,HS,70.0,Ashburn,Ashburn,6.0,3.0,170317001001000,41.8955535607,-87.7543204085,,_,17031700100
610364,Dubois,William E B Dubois Elementary School,Dubois,Dubois Elem School,330,E,133rd St,Chicago,IL,60827,8010.0,26601,ES,54.0,Riverdale,Far South Side,22.0,5.0,170315401012002,41.7156648237999,-87.639342088,170993000731,_170993000731,17031540101
610559,Shields Middle,James Shields Middle School,Shields Middle,Shields Middle School,2611,W,48th St,Chicago,IL,60632,9597.0,27091,ES,58.0,Brighton Park,McKinley Park,17.0,7.0,170318428004006,41.735211585,-87.7040593884999,,_,17031842800
609844,Carter,William W Carter Elementary School,Carter,Carter Elem School,5740,S,Michigan Ave,Chicago,IL,60637,2670.0,22611,ES,40.0,Washington Park,Bronzeville,15.0,2.0,170314005002002,41.7425440633999,-87.6960128148,170993000653,_170993000653,17031400500
610521,"Davis, M",Sir Miles Davis Magnet Elementary Academy,"Davis, M","Davis, M Magnet Elem School",6730,S,Paulina St,Chicago,IL,60636,7000.0,29391,ES,67.0,West Englewood,Englewood,4.0,2.0,170316715001016,41.8852126906,-87.7632855866999,170993099993,_170993099993,17031671500
400079,Uno Chtr - Spc Daniel Zizumbo,UNO Charter School - SPC Daniel Zizumbo Campus,Uno Chtr - Spc Daniel Zizumbo,Uno Network Elem Charter School,4248,W,47th St,Chicago,IL,60632,3344.0,66395,ES,57.0,Archer Heights,McKinley Park,17.0,11.0,170315702001016,41.8078400695999,-87.7303591385,170993003555,_170993003555,17031570200
609736,Dyett HS,Dyett High School,Dyett HS,Dyett High School,555,E,51st St,Chicago,IL,60615,1600.0,66021,HS,40.0,Washington Park,Bronzeville,15.0,3.0,170318361003000,41.9829335474,-87.7915467721,170993004265,_170993004265,17031836100
610385,Multicultural Acad Scholarship,Multicultural Academy of Scholarship,Multicultural Acad Scholarship,Multicultural Acad of Scholarshp HS,3120,S,Kostner Ave,Chicago,IL,60623,7630.0,55181,HS,30.0,South Lawndale,Pilsen - Little Village,16.0,7.0,170318305001006,41.8360356836,-87.7341216358999,170993005794,_170993005794,17031830500
610515,Disney Ii,Disney II Magnet School,Disney Ii,Disney II Elem Schools,3815,N,Kedvale Ave,Chicago,IL,60641,8045.0,26921,ES,16.0,Irving Park,Albany Irving,27.0,12.0,170311610001013,41.7815051900999,-87.6350153384999,170993099992,_170993099992,17031161000
609854,Chopin,Frederic Chopin Elementary School,Chopin,Chopin Elem School,2450,W,Rice St,Chicago,IL,60622,2770.0,22721,ES,24.0,West Town,Humboldt Park,21.0,8.0,170312425002007,41.9759217356999,-87.6832643768999,170993000697,_170993000697,17031242500
400040,Frazier Chtr,Frazier Preparatory Academy Elementary School,Frazier Chtr,Frazier Prep Acad Elem School,4027,W,Grenshaw St,Chicago,IL,60624,6650.0,26901,ES,29.0,North Lawndale,North Lawndale,19.0,2.0,170318430002027,41.8670136515,-87.7263136989,170993005934,_170993005934,17031843000
610532,Hernandez,Irene C. Hernandez Middle School for the Advancement of Science,Hernandez,Hernandez Middle School,3510,W,55th St,Chicago,IL,60632,8021.0,22441,MS,63.0,Gage Park,McKinley Park,17.0,7.0,170316303002008,41.8933966307999,-87.6672864955999,,_,17031630300
610097,Nixon,William P Nixon Elementary School,Nixon,Nixon Elem School,2121,N,Keeler Ave,Chicago,IL,60639,5100.0,24681,ES,20.0,Hermosa,Logan,9.0,8.0,170312004022012,41.9139197798999,-87.6459896191999,170993000994,_170993000994,17031200402
609836,Canty,Arthur E Canty Elementary School,Canty,Canty Elem School,3740,N,Panama Ave,Chicago,IL,60634,2620.0,22541,ES,17.0,Dunning,Reed-Dunning,24.0,9.0,170311705004002,41.843698967,-87.7172822713999,170993000647,_170993000647,17031170500
610321,"Marshall, T",Thurgood Marshall Middle School,"Marshall, T",Marshall Middle School,3900,N,Lawndale Ave,Chicago,IL,60618,7520.0,41081,MS,16.0,Irving Park,Albany Irving,27.0,8.0,170311609001005,41.8238993026999,-87.6921136053999,170993000389,_170993000389,17031160900
609937,Garvy,John W Garvy Elementary School,Garvy,Garvy  J Elem School,5225,N,Oak Park Ave,Chicago,IL,60656,3510.0,23301,ES,10.0,Norwood Park,Sauganash,28.0,9.0,170311006002038,42.0211179478,-87.6719367283999,170993000784,_170993000784,17031100600
610043,Lovett,Joseph Lovett Elementary School,Lovett,Lovett Elem School,6333,W,Bloomingdale Ave,Chicago,IL,60639,4530.0,24241,ES,25.0,Austin,Belmont Cragin,26.0,1.0,170312504005011,41.9188136642,-87.7485517509999,170993000929,_170993000929,17031250400
610571,Ombudsman 3 HS,Ombudsman #3,Ombudsman 3 HS,,,,,Chicago,IL,60640,9636.0,,HS,3.0,Uptown,Ravenswood,30.0,10.0,170310311001004,41.9394057688,-87.7052061095999,,_,17031031100
610572,Camelot - Safe School Program ES,Camelot Safe Academy Elementary,Camelot - Safe School Program ES,,,,,Chicago,IL,"Ave. Chicago, IL 60649",9637.0,,HS,46.0,South Chicago,South Shore,11.0,4.0,170314601001007,41.7790182326,-87.703760587,,_,17031460100
609733,Sullivan HS,Roger C Sullivan High School,Sullivan HS,Sullivan High School,6631,N,Bosworth Ave,Chicago,IL,60626,1570.0,46301,HS,1.0,Rogers Park,Ravenswood,30.0,10.0,170318306001000,41.9890331928,-87.6651879968,170993001149,_170993001149,17031830600
400012,Amandla Chtr HS,Amandla Charter High School,Amandla Chtr HS,Amandla Elem Charter Sch,6800,S,Stewart Ave,Chicago,IL,60621,2035.0,66551,HS,68.0,Englewood,Englewood,4.0,3.0,170316812003013,41.7707911322999,-87.6352295467,170993005986,_170993005986,17031681200
609954,Gregory,John Milton Gregory Elementary School,Gregory,Gregory Math & Sci Elem Academy,3715,W,Polk St,Chicago,IL,60624,3660.0,23441,ES,27.0,East Garfield Park,Garfield - West Humboldt,20.0,2.0,170312705001038,41.8113891193,-87.5985199032,170993000807,_170993000807,17031270500
609716,Kelvyn Park HS,Kelvyn Park High School,Kelvyn Park HS,Kelvyn Park High School,4343,W,Wrightwood Ave,Chicago,IL,60639,1410.0,46191,HS,20.0,Hermosa,Logan,9.0,8.0,170312002002004,41.7822574257,-87.5865783526,170993000923,_170993000923,17031200200
610390,Rickover HS,Hyman G Rickover Naval Academy High School,Rickover HS,Rickover Naval Academy High Schl,5900,N,Glenwood Ave,Chicago,IL,60660,7140.0,45221,HS,77.0,Edgewater,Ravenswood,30.0,10.0,170310305002008,41.8035152649,-87.6673410967,170993005078,_170993005078,17031030500
609922,Belmont-cragin,Belmont-Cragin Elementary School,Belmont-cragin,Belmont-Cragin Elem School,5252,W,Palmer St,Chicago,IL,60639,3390.0,26772,ES,19.0,Belmont Cragin,Belmont Cragin,26.0,8.0,170311912001013,41.8507709758,-87.7051487741999,170993004720,_170993004720,17031191200
400127,Yccs Chtr - Austin Career,YCCS-Austin Career Education Center HS,Yccs Chtr - Austin Career,Youth Connections Charter HS,5352,W,Chicago Ave,Chicago,IL,60651,9044.0,66611,HS,25.0,Austin,Austin,25.0,1.0,170312512003009,41.8949489510999,-87.7602207293,170993003473,_170993003473,17031251200
400117,Noble Street Chtr - Silver HS,Noble Street Charter School - Silver,Noble Street Chtr - Silver HS,Noble Street Charter High School,8748,S,Aberdeen St,Chicago,IL,60620,9034.0,66574,HS,71.0,Auburn Gresham,Auburn Gresham,5.0,4.0,170317114002009,41.7344423063999,-87.6509501031,,_,17031711400
609853,Chase,Salmon P Chase Elementary School,Chase,Chase Elem School,2021,N,Point St,Chicago,IL,60647,2760.0,22701,ES,22.0,Logan Square,Logan,9.0,8.0,170312214003004,41.8664626921,-87.6952597994999,170993000659,_170993000659,17031221400
610039,Von Linne,Carl von Linne Elementary School,Von Linne,Linne Elem School,3221,N,Sacramento Ave,Chicago,IL,60618,4490.0,24201,ES,21.0,Avondale,Logan,9.0,8.0,170312101002018,41.797685342,-87.6598961515,170993000919,_170993000919,17031210100
609783,Jefferson Alt HS,Nancy B Jefferson Alternative High School,Jefferson Alt HS,Jefferson  N Elem Alt School,1100,S,Hamilton Ave,Chicago,IL,60612,2120.0,30011,HS,28.0,Near West Side,Near West,23.0,2.0,170318382002026,41.8021121562999,-87.6258200563,170993000894,_170993000894,17031838200
609986,Henderson,Charles R Henderson Elementary School,Henderson,Henderson Elem School,5650,S,Wolcott Ave,Chicago,IL,60636,3920.0,23721,ES,67.0,West Englewood,Englewood,4.0,2.0,170316704001024,41.8071115385,-87.6733639292999,170993000842,_170993000842,17031670400
609704,Farragut HS,David G Farragut Career Academy High School,Farragut HS,Farragut Career Academy HS,2345,S,Christiana Ave,Chicago,IL,60623,1300.0,53091,HS,30.0,South Lawndale,Pilsen - Little Village,16.0,7.0,170313008001019,41.7494030471999,-87.7210981621999,170993000788,_170993000788,17031300800
400120,Uno Chtr - Near West,UNO Charter - Near West Elementary,Uno Chtr - Near West,UNO Network Charter Schools,2050,N,Natchez Ave,Chicago,IL,60707,9600.0,66133,ES,19.0,Belmont Cragin,Belmont Cragin,26.0,9.0,170318315002002,41.9179521228,-87.7877937009999,,_,17031831500
610127,Peterson,Mary Gage Peterson Elementary School,Peterson,Peterson Elem School,5510,N,Christiana Ave,Chicago,IL,60625,5410.0,24941,ES,13.0,North Park,Albany Irving,27.0,12.0,170318318005005,41.8481015258999,-87.6807078424999,170993001033,_170993001033,17031831800
610312,Mcdowell,Mary E McDowell Elementary School,Mcdowell,Mcdowell Elem School,1419,E,89th St,Chicago,IL,60619,7390.0,26421,ES,48.0,Calumet Heights,South Shore,11.0,4.0,170314803001006,41.8735875291,-87.7492388514999,170993000839,_170993000839,17031480300
400109,Prologue-johnston Chtr HS,Prologue-Joshua Johnston Charter School,Prologue-johnston Chtr HS,Prologue - Johnston Fine Arts HS,1551,W,95th St,Chicago,IL,60643,8670.0,66581,HS,73.0,Washington Heights,Auburn Gresham,5.0,4.0,170317304002006,41.7211638933,-87.6624163144,170993006113,_170993006113,17031730400
610223,Wentworth,Daniel S Wentworth Elementary School,Wentworth,Wentworth Elem School,1340,W,71st St,Chicago,IL,60636,6390.0,25811,ES,67.0,West Englewood,Englewood,4.0,2.0,170318349001008,41.9643659734,-87.6912957515999,170993001150,_170993001150,17031834900
610291,Lee,Richard Henry Lee Elementary School,Lee,Lee Elem School,6448,S,Tripp Ave,Chicago,IL,60629,7170.0,26331,ES,65.0,West Lawn,Chicago Lawn,8.0,11.0,170316503011016,41.7423510082,-87.7095730455999,170993001214,_170993001214,17031650301
610215,Madero,Francisco I Madero Middle School,Madero,Madero Middle School,3202,W,28th St,Chicago,IL,60623,6310.0,41041,MS,30.0,South Lawndale,Pilsen - Little Village,16.0,7.0,170318408001018,41.9711409283999,-87.7097007456,170993004915,_170993004915,17031840800
609990,South Loop,South Loop Elementary School,South Loop,South Loop Elem School,1212,S,Plymouth Ct,Chicago,IL,60605,3960.0,23751,ES,33.0,Near South Side,Loop,1.0,2.0,170313302002006,41.8157883917999,-87.6336278038999,170993005268,_170993005268,17031330200
400074,Shabazz Chtr - Sizemore,Betty Shabazz Intl Charter - Barbara A Sizemore,Shabazz Chtr - Sizemore,Shabazz International Chrtr Schls,6936,S,Hermitage Ave,Chicago,IL,60636,5130.0,66401,ES,67.0,West Englewood,Englewood,4.0,2.0,170316715003015,41.7673906771999,-87.6676023606,170993003539,_170993003539,17031671500
400022,Chgo Arts Contr HS,Chicago High School for the Arts,Chgo Arts Contr HS,Chicago HS for the Arts,521,E,35th St,Chicago,IL,60616i,8047.0,63051,HS,35.0,Douglas,Bronzeville,15.0,3.0,170313510002005,41.8311449727999,-87.6136286802999,170993006058,_170993006058,17031351000
400086,Urban Prep Chtr - Englewood,Urban Prep Acad for Young Men Charter - Englewood,Urban Prep Chtr - Englewood,Urban Prep Chtr Acad Englewood HS,6201,S,Stewart Ave,Chicago,IL,60621,7030.0,66441,HS,68.0,Englewood,Englewood,4.0,2.0,170318346003043,41.7815051900999,-87.6350153384999,170993099979,_170993099979,17031834600
609751,King HS,Dr  Martin Luther King  Jr  College Prep HS,King HS,King College Prep High School,4445,S,Drexel Blvd,Chicago,IL,60653,1760.0,46371,HS,39.0,Kenwood,Bronzeville,15.0,3.0,170313903002009,41.981314779,-87.7087445721,170993000931,_170993000931,17031390300
400081,Uno Chtr - De Las Casas,UNO Charter - Bartolome de Las Casas,Uno Chtr - De Las Casas,Uno Network Elem Charter School,1641,W,16th St,Chicago,IL,60608,3341.0,66392,ES,31.0,Lower West Side,Pilsen - Little Village,16.0,7.0,170313108001001,41.8595314466,-87.6679497479999,170993003555,_170993003555,17031310800
610499,Collins HS,Collins Academy High School,Collins HS,Collins Academy High School,1313,S,Sacramento Dr,Chicago,IL,60623,1045.0,49131,HS,29.0,North Lawndale,North Lawndale,19.0,2.0,170318431001005,41.9413882507,-87.6907246464,170993099995,_170993099995,17031843100
609919,Fiske,John Fiske Elementary School,Fiske,Fiske Elem School,6020,S,Langley Ave,Chicago,IL,60637,3360.0,23221,ES,42.0,Woodlawn,Woodlawn,13.0,3.0,170314205001001,41.7111830719999,-87.6404502625999,170993000773,_170993000773,17031420500
610217,"Ward, J",James Ward Elementary School,"Ward, J",Ward  J Elem School,2701,S,Shields Ave,Chicago,IL,60616,6330.0,25751,ES,34.0,Armour Square,Bridgeport - Chinatown,18.0,2.0,170313403001022,41.8409294755999,-87.7050634991999,170993001143,_170993001143,17031340300
609826,Castellanos,Rosario Castellanos Elementary School,Castellanos,Castellanos Elem School,2524,S,Central Park Ave,Chicago,IL,60623,2510.0,22461,ES,30.0,South Lawndale,Pilsen - Little Village,16.0,7.0,170313006002015,41.9379100362,-87.6698525239,170993000634,_170993000634,17031300600
610130,Pirie,John T Pirie Fine Arts & Academic Center ES,Pirie,Pirie Elem Fine Arts & Academic C,650,E,85th St,Chicago,IL,60619,5440.0,24971,ES,44.0,Chatham,Chatham,12.0,4.0,170314402022010,41.7066023113999,-87.6476137787999,170993001036,_170993001036,17031440202
610250,Salazar,Rueben Salazar Elementary Bilingual Center,Salazar,Salazar Elem Bilingual Center,160,W,Wendell St,Chicago,IL,60610,6720.0,30101,ES,8.0,Near North Side,Loop,1.0,2.0,170310810005000,41.9421377377,-87.7764315432,170993001215,_170993001215,17031081000
609819,Burke,Edmond Burke Elementary School,Burke,Burke Elem School,5356,S,King Dr,Chicago,IL,60615,2460.0,22411,ES,40.0,Washington Park,Bronzeville,15.0,2.0,170314003001003,41.9757817704999,-87.6965564098999,170993000629,_170993000629,17031400300
609949,"Gray, W",William P Gray Elementary School,"Gray, W",Gray Elem School,3730,N,Laramie Ave,Chicago,IL,60641,3620.0,23401,ES,15.0,Portage Park,Albany Irving,27.0,12.0,170311507002000,41.975817005,-87.6578757241999,170993000803,_170993000803,17031150700
609960,Hale,Nathan Hale Elementary School,Hale,Hale Elem School,6140,S,Melvina,Chicago,IL,60638,3710.0,23491,ES,64.0,Clearing,MDW,7.0,11.0,170316403006018,41.8130081401999,-87.6993275181,170993000819,_170993000819,17031640300
610124,"Washington, H",Harold Washington Elementary School,"Washington, H",Washington  H Elem School,9130,S,University Ave,Chicago,IL,60619,5380.0,24921,ES,47.0,Burnside,Chatham,12.0,4.0,170314701001001,41.9834832307,-87.6658505550999,170993001031,_170993001031,17031470100
609756,Curie HS,Marie Sklodowska Curie Metropolitan High School,Curie HS,Curie Metropolitan High School,4959,S,Archer Ave,Chicago,IL,60632,1820.0,53101,HS,57.0,Archer Heights,McKinley Park,17.0,7.0,170315704002002,41.8305544189,-87.6192522266999,170993001198,_170993001198,17031570400
609907,Ericson,Leif Ericson Elementary Scholastic Academy,Ericson,Ericson Elem Scholastic Academy,3600,W,5th Ave,Chicago,IL,60624,3240.0,29051,ES,27.0,East Garfield Park,Garfield - West Humboldt,20.0,1.0,170312705001012,41.8055409109,-87.7258928458,170993000752,_170993000752,17031270500
400147,Chicago Excel Contr Acad,Chicago Excel Academy,Chicago Excel Contr Acad,Chicago Excel Acad,1269,W,111th St,Chicago,IL,60643,9066.0,63141,HS,75.0,Morgan Park,Far South Side,22.0,4.0,170317506003001,41.6921576419999,-87.6544645335,170993006219,_170993006219,17031750600
609719,Lake View HS,Lake View High School,Lake View HS,Lake View High School,4015,N,Ashland Ave,Chicago,IL,60613,1430.0,46211,HS,6.0,Lake View,Ravenswood,30.0,12.0,170310601003006,41.92794584,-87.7359995221,170993000941,_170993000941,17031060100
610116,Parkside,Parkside Elementary Community Academy,Parkside,Parkside Elem Community Academy,6938,S,East End Ave,Chicago,IL,60649,5300.0,31201,ES,43.0,South Shore,South Shore,11.0,3.0,170314302003000,41.7707911322999,-87.6352295467,170993001022,_170993001022,17031430200
610226,Sandoval,Socorro Sandoval Elementary School,Sandoval,Sandoval Elem School,5534,S,Saint Louis Ave,Chicago,IL,60629,6430.0,26721,ES,63.0,Gage Park,McKinley Park,17.0,7.0,170316309003014,41.7650484604999,-87.6582040612999,170993003566,_170993003566,17031630900
610347,Claremont,Claremont Academy Elementary School,Claremont,Claremont Academy Elem School,2300,W,64th St,Chicago,IL,60636,7830.0,31301,ES,66.0,Chicago Lawn,Chicago Lawn,8.0,2.0,170316607001003,41.9067883751,-87.6830491568999,170993005109,_170993005109,17031660700
610076,Moos,Bernhard Moos Elementary School,Moos,Moos Elem School,1711,N,California Ave,Chicago,IL,60647,4870.0,24551,ES,24.0,West Town,Humboldt Park,21.0,8.0,170312407001004,41.9300160379999,-87.7192245682,170993000969,_170993000969,17031240700
610225,Whistler,John Whistler Elementary School,Whistler,Whistler Elem School,11533,S,Ada St,Chicago,IL,60643,6420.0,25831,ES,53.0,West Pullman,Far South Side,22.0,5.0,170315303003002,41.8699432951,-87.7275250911999,170993001155,_170993001155,17031530300
610295,Higgins,Thomas J Higgins Elementary Community Academy,Higgins,Higgins Elem Community Academy,11710,S,Morgan St,Chicago,IL,60643,7210.0,31251,ES,53.0,West Pullman,Far South Side,22.0,5.0,170315303002019,41.7753060861999,-87.7288476444999,170993000855,_170993000855,17031530300
610389,Orr HS,Orr Academy High School,Orr HS,Orr Academy High School,730,N,Pulaski Rd,Chicago,IL,60624,1830.0,28151,HS,23.0,Humboldt Park,Garfield - West Humboldt,20.0,1.0,170318421005012,41.8360356836,-87.7341216358999,170993005179,_170993005179,17031842100
609930,Funston,Frederick Funston Elementary School,Funston,Funston Elem School,2010,N,Central Park,Chicago,IL,60647,3460.0,23291,ES,22.0,Logan Square,Logan,9.0,8.0,170312209012008,41.8180037322999,-87.6117473613,170993000781,_170993000781,17031220901
400105,Urban Prep Chtr - Bronzeville,Urban Prep Academy for Young Men - Bronzeville,Urban Prep Chtr - Bronzeville,Urban Prep Chtr Acad Bronzeville HS,2710,S,Dearborn St,Chicago,IL,60616,8027.0,66442,HS,35.0,Douglas,Bronzeville,15.0,3.0,170313504001003,41.8440435791,-87.6285167492,,_,17031350400
610073,Mitchell,Ellen Mitchell Elementary School,Mitchell,Mitchell Elem School,2233,W,Ohio St,Chicago,IL,60612,4840.0,24511,ES,24.0,West Town,Near North,10.0,8.0,170312429002001,41.9239826925999,-87.7615156173,170993000965,_170993000965,17031242900
610274,Johnson,James Weldon Johnson Elementary School,Johnson,Johnson Elem School,1420,S,Albany Ave,Chicago,IL,60623,6940.0,26231,ES,29.0,North Lawndale,North Lawndale,19.0,2.0,170318431001020,41.9709485695999,-87.6547952135999,170993000880,_170993000880,17031843100
609857,Cleveland,Grover Cleveland Elementary School,Cleveland,Cleveland Elem School,3121,W,Byron St,Chicago,IL,60618,2800.0,22741,ES,16.0,Irving Park,Albany Irving,27.0,8.0,170311607005009,41.8016591761999,-87.6855703355,170993000663,_170993000663,17031160700
610163,Stock,Frederick Stock Elementary School,Stock,Stock Early Childhood Center,7507,W,Birchwood Ave,Chicago,IL,60631,5770.0,30081,ES,9.0,Edison Park,Sauganash,28.0,9.0,170310901004022,41.9141512279,-87.7986839743,170993005151,_170993005151,17031090100
610060,"Jackson, A",Andrew Jackson Elementary Language Academy,"Jackson, A",Jackson  A Elem Language Acad,1340,W,Harrison St,Chicago,IL,60607,4690.0,29171,ES,28.0,Near West Side,Near West,23.0,2.0,170318329002009,41.7809034371,-87.6921517223999,170993000868,_170993000868,17031832900
609933,Gale,Stephen F Gale Elementary Community Academy,Gale,Gale Elem Community Academy,1631,W,Jonquil Ter,Chicago,IL,60626,3480.0,31081,ES,1.0,Rogers Park,Ravenswood,30.0,13.0,170310101002011,41.7975811709,-87.6683992287999,170993000782,_170993000782,17031010100
610212,Albany Park,Albany Park Multicultural Academy,Albany Park,Albany Park Multicultural Elem,4929,N,Sawyer Ave,Chicago,IL,60625,6290.0,32011,MS,14.0,Albany Park,Albany Irving,27.0,12.0,170311402001008,41.6962349093999,-87.6271470318999,170993004962,_170993004962,17031140200
609979,Healy,Robert Healy Elementary School,Healy,Healy Elem School,3010,S,Parnell Ave,Chicago,IL,60616,3880.0,23651,ES,60.0,Bridgeport,Bridgeport - Chinatown,18.0,11.0,170318401002013,41.7733652276999,-87.5944286525,170993000835,_170993000835,17031840100
610144,Reilly,Frank W Reilly Elementary School,Reilly,Reilly Elem School,3650,W,School St,Chicago,IL,60618,5590.0,25101,ES,21.0,Avondale,Logan,9.0,8.0,170318311004002,41.7923473448,-87.5947887349,170993001054,_170993001054,17031831100
609744,Northside Learning HS,Northside Learning Center High School,Northside Learning HS,Northside Learning Center,3730,W,Bryn Mawr Ave,Chicago,IL,60659,1690.0,49021,HS,13.0,North Park,Albany Irving,27.0,10.0,170311301002015,41.8989952772,-87.6674461466,170993000999,_170993000999,17031130100
400118,Noble Street Chtr - Purple,Noble Street Charter School - Purple,Noble Street Chtr - Purple,Noble Street Charter High School,931,S,Homan Ave,Chicago,IL,60624,9035.0,66575,HS,29.0,North Lawndale,North Lawndale,19.0,2.0,170318430001001,41.8693119926999,-87.7105633272,,_,17031843000
610383,Greater Lawndale HS,Greater Lawndale High School For Social Justice,Greater Lawndale HS,School of Social Justice HS,3120,S,Kostner Ave,Chicago,IL,60623,7600.0,55171,HS,30.0,South Lawndale,Pilsen - Little Village,16.0,7.0,170318305001006,41.8045587817,-87.6244105627,170993005793,_170993005793,17031830500
610018,Canter,Miriam G Canter Middle School,Canter,Canter Middle School,4959,S,Blackstone Ave,Chicago,IL,60615,4260.0,23981,MS,39.0,Kenwood,Hyde Park,14.0,3.0,170313907002006,41.7406879548,-87.6771287387999,170993004957,_170993004957,17031390700
400145,Yccs Chtr - Community Academy,YCCS-Youth Connection Leadership Academy HS,Yccs Chtr - Community Academy,Youth Connections Charter HS,3424,S,State St,Chicago,IL,60616,9062.0,66629,HS,35.0,Douglas,Bronzeville,15.0,3.0,170318420002008,41.8320716345999,-87.6267447821,170993003473,_170993003473,17031842000
610402,Devry HS,DeVry University Advantage Academy HS,Devry HS,Devry Advantage Academy High Schl,3300,N,Campbell,Chicago,IL,60618,6990.0,46521,HS,5.0,North Center,Logan,9.0,12.0,170318437001021,41.9655200272,-87.6524725414,170993005790,_170993005790,17031843700
610237,Beethoven,Ludwig Van Beethoven Elementary School,Beethoven,Beethoven Elem School,25,W,47th St,Chicago,IL,60609,6540.0,25931,ES,38.0,Grand Boulevard,Bronzeville,15.0,3.0,170313817001000,41.9150378914999,-87.7003170428999,170993000602,_170993000602,17031381700
400124,Yccs Chtr - Mckinley,YCCS-Ada S. McKinley-Lakeside HS,Yccs Chtr - Mckinley,Youth Connections Charter HS,2920,S,Wabash Ave,Chicago,IL,60616,9041.0,66107,HS,35.0,Douglas,Bronzeville,15.0,3.0,170318392002018,41.841331691,-87.62529408,170993003473,_170993003473,17031839200
400062,Perspectives Chtr - Calumet Tech,Perspectives Charter - Calumet Technology,Perspectives Chtr - Calumet Tech,Perspectives Charter High School,8131,S,May St,Chicago,IL,60620,1962.0,66053,HS,71.0,Auburn Gresham,Auburn Gresham,5.0,4.0,170317108006008,41.7459346286999,-87.6523281373,170993003450,_170993003450,17031710800
610136,Prescott,William H Prescott Elementary School,Prescott,Prescott Elem School,1632,W,Wrightwood Ave,Chicago,IL,60614,5500.0,25021,ES,7.0,Lincoln Park,Lincoln Park,29.0,12.0,170310707001012,41.8932361946,-87.7187605735,170993001040,_170993001040,17031070700
400106,Noble Street Chtr - Johnson,Noble Street Charter School  Johnson HS,Noble Street Chtr - Johnson,Noble Street Charter High School,6350,S,Stewart Ave,Chicago,IL,60621,8028.0,66148,HS,68.0,Englewood,Englewood,4.0,2.0,170316809002014,41.7783700537,-87.6350800446,,_,17031680900
400076,Univ Of Chgo Chtr - Nko,University of Chicago Charter - NKO,Univ Of Chgo Chtr - Nko,Univ of Chicago Elem Charter Schl,1119,E,46th St,Chicago,IL,60653,3060.0,66111,ES,39.0,Kenwood,Bronzeville,15.0,3.0,170313902001006,41.8113891193,-87.5985199032,170993003542,_170993003542,17031390200
610367,De Priest,Oscar DePriest Elementary School,De Priest,Depriest Elem School,139,S,Parkside Ave,Chicago,IL,60644,8050.0,26631,ES,25.0,Austin,Austin,25.0,1.0,170312521011008,41.6537055394,-87.6143199053999,170993001177,_170993001177,17031252101
609730,Senn HS,Nicholas Senn High School,Senn HS,Senn High School,5900,N,Glenwood Ave,Chicago,IL,60660,1540.0,47061,HS,77.0,Edgewater,Ravenswood,30.0,10.0,170310305002008,41.9648004455,-87.7148181431,170993001114,_170993001114,17031030500
400143,Yccs Chtr - West Town,YCCS-West Town Academy Alternative HS,Yccs Chtr - West Town,Youth Connections Charter HS,500,N,Sacramento Blvd,Chicago,IL,60612,9603.0,66627,HS,23.0,Humboldt Park,Garfield - West Humboldt,20.0,1.0,170318367002033,41.8908064653,-87.7020163485999,170993003473,_170993003473,17031836700
610179,Smyser,Washington D Smyser Elementary School,Smyser,Smyser Elem School,4310,N,Melvina Ave,Chicago,IL,60634,5960.0,25401,ES,15.0,Portage Park,Albany Irving,27.0,12.0,170311505021009,41.8790751068,-87.6594182663999,170993001097,_170993001097,17031150502
610053,Marquette,Marquette Elementary School,Marquette,Marquette Elem School,6550,S,Richmond St,Chicago,IL,60629,4620.0,24341,ES,66.0,Chicago Lawn,Chicago Lawn,8.0,11.0,170316608004004,41.9204833931,-87.7582128207999,170993000940,_170993000940,17031660800
609966,Hammond,Charles G Hammond Elementary School,Hammond,Hammond Elem School,2819,W,21st Pl,Chicago,IL,60623,3750.0,23531,ES,30.0,South Lawndale,Pilsen - Little Village,16.0,7.0,170318407001011,41.9451922208,-87.6708645143999,170993000824,_170993000824,17031840700
400126,Yccs Chtr - Association House,"YCCS-Association House, El Cuarto Ano HS",Yccs Chtr - Association House,Youth Connections Charter HS,1116,N,Kedzie Ave,Chicago,IL,60651,9043.0,66109,HS,23.0,Humboldt Park,Humboldt Park,21.0,8.0,170318366002008,41.9015730770999,-87.7068231620999,170993003473,_170993003473,17031836600
609705,Fenger HS,Christian Fenger Academy High School,Fenger HS,Fenger Academy High School,11220,S,Wallace St,Chicago,IL,60628,1310.0,46111,HS,49.0,Roseland,Far South Side,22.0,5.0,170314912003013,41.8775287339,-87.6832489541999,170993000792,_170993000792,17031491200
400069,Polaris Chtr Campus,Polaris Charter Academy Elementary School,Polaris Chtr Campus,Polaris Elem Charter Academy,620,N,Sawyer Ave,Chicago,IL,60624,4150.0,67081,ES,23.0,Humboldt Park,Garfield - West Humboldt,20.0,1.0,170318367001016,41.8925508275999,-87.7077597579,170993005919,_170993005919,17031836700
609674,Chicago Vocational HS,Chicago Vocational Career Academy High School,Chicago Vocational HS,Chicago Vocational Career Acad HS,2100,E,87th St,Chicago,IL,60617,1010.0,53011,HS,45.0,Avalon Park,Chatham,12.0,4.0,170314503003005,41.8459653309,-87.68554722,170993000943,_170993000943,17031450300
609737,Von Steuben HS,Friedrich W von Steuben Metropolitan Science HS,Von Steuben HS,Von Steuben Metro Science HS,5039,N,Kimball Ave,Chicago,IL,60625,1610.0,47081,HS,13.0,North Park,Albany Irving,27.0,12.0,170318318004000,41.8075094709,-87.6430031536,170993001180,_170993001180,17031831800
610152,Ruggles,Martha Ruggles Elementary School,Ruggles,Ruggles Elem School,7831,S,Prairie Ave,Chicago,IL,60619,5660.0,25181,ES,69.0,Greater Grand Crossing,Chatham,12.0,4.0,170316913002020,42.015265313,-87.6972221893999,170993001064,_170993001064,17031691300
400048,Learn Chtr - Excel,LEARN Charter ES - Excel,Learn Chtr - Excel,Learn Elem Charter School,2401,W,Congress Pkwy,Chicago,IL,60612,6775.0,66561,ES,28.0,Near West Side,Near West,23.0,2.0,170312827002013,41.8749403599,-87.6862898820999,170993004270,_170993004270,17031282700
400033,Cics - Longwood,Chicago Intl Charter - Longwood,Cics - Longwood,Chicago International Charter,1309,W,95th St,Chicago,IL,60643,2420.0,66061,HS,73.0,Washington Heights,Auburn Gresham,5.0,4.0,170317304002001,41.7212488715,-87.6557687539,170993003505,_170993003505,17031730400
400137,Little Black Pearl,Little Black Pearl Art and Design Academy,Little Black Pearl,Youth Connections Charter HS,1060,E,47th St,Chicago,IL,60653,9054.0,66622,HS,39.0,Kenwood,Bronzeville,15.0,3.0,170313902002014,41.8096680576,-87.5993393938999,170993003473,_170993003473,17031390200
610547,South Shore Intl HS,South Shore Intl College Prep High School,South Shore Intl HS,South Shore Intl Col Prep HS,1955,E,75th St,Chicago,IL,60649,8676.0,46631,HS,43.0,South Shore,South Shore,11.0,4.0,170318342002000,41.7952016620999,-87.7110221811,,_,17031834200
610109,Owen,William Bishop Owen Scholastic Academy ES,Owen,Owen Elem Scholastic Academy,8247,S,Christiana Ave,Chicago,IL,60652,5240.0,29241,ES,70.0,Ashburn,Ashburn,6.0,3.0,170317004014013,41.8918055749999,-87.6654629566999,170993001015,_170993001015,17031700401
609794,"Edison, T",Thomas A Edison Regional Gifted Center ES,"Edison, T",Edison Elem Regional Gifted Cntr,4929,N,Sawyer Ave,Chicago,IL,60625,2220.0,29011,ES,14.0,Albany Park,Albany Irving,27.0,12.0,170311402001008,41.9582204769999,-87.7021142077,170993004944,_170993004944,17031140200
609866,Coonley,John C Coonley Elementary School,Coonley,Coonley Elem School,4046,N,Leavitt St,Chicago,IL,60618,2880.0,22821,ES,5.0,North Center,Ravenswood,30.0,12.0,170310502003009,41.7452375451999,-87.6597379541999,170993000674,_170993000674,17031050200
610323,Bowen HS,Bowen High School,Bowen HS,Bowen High School,2710,E,89th St,Chicago,IL,60617,7540.0,46491,HS,46.0,South Chicago,South Shore,11.0,4.0,170314606001016,41.8293550503,-87.6678531945999,170993005072,_170993005072,17031460600
610158,Sayre,Harriet E Sayre Elementary Language Academy,Sayre,Sayre Elem Language Academy,1850,N,Newland Ave,Chicago,IL,60707,5720.0,29271,ES,25.0,Austin,Belmont Cragin,26.0,9.0,170312505004020,41.9911547557,-87.7459202073,170993001070,_170993001070,17031250500
610184,Spry,John Spry Elementary Community School,Spry,Spry Elem Community School,2400,S,Marshall Blvd,Chicago,IL,60623,6010.0,25451,ES,30.0,South Lawndale,Pilsen - Little Village,16.0,7.0,170313011001004,41.9939426911,-87.7240058512,170993001106,_170993001106,17031301100
610200,"Thorp, J",James N Thorp Elementary School,"Thorp, J",Thorp  J N Elem School,8914,S,Buffalo Ave,Chicago,IL,60617,6180.0,25601,ES,46.0,South Chicago,South Shore,11.0,4.0,170318339001007,41.7154703702999,-87.5329341422999,170993001122,_170993001122,17031833900
609830,Brunson,Milton Brunson Math & Science Specialty ES,Brunson,Brunson Math & Sci Specialty Elem,932,N,Central Ave,Chicago,IL,60651,2550.0,22491,ES,25.0,Austin,Austin,25.0,1.0,170312513002000,41.9123853466999,-87.6686611344999,170993000638,_170993000638,17031251300
610230,Wildwood,Wildwood Elementary School,Wildwood,Wildwood Elem School,6950,N,Hiawatha Ave,Chicago,IL,60646,6470.0,25881,ES,12.0,Forest Glen,Sauganash,28.0,9.0,170311201004011,41.8504534519,-87.6733908649,170993000898,_170993000898,17031120100
400148,Instituto Justice Chtr Acad,Instituto Justice and Leadership Acad Charter HS,Instituto Justice Chtr Acad,IJLA Charter High School,2570,S,Blue Island Blvd,Chicago,IL,60608,9065.0,63132,HS,31.0,Lower West Side,Pilsen - Little Village,16.0,7.0,170318413003020,41.84542162,-87.6840481342999,170993006238,_170993006238,17031841300
400015,Aspira Chtr - Ramirez HS,ASPIRA Charter - Mirta Ramirez Computer Science,Aspira Chtr - Ramirez HS,Aspira Charter High School,1711,N,California Ave,Chicago,IL,60647,7800.0,66251,HS,24.0,West Town,Humboldt Park,21.0,8.0,170312407001004,41.9125048318,-87.6969781149999,170993005663,_170993005663,17031240700
609996,Holden,Charles N Holden Elementary School,Holden,Holden Elem School,1104,W,31st St,Chicago,IL,60608,4020.0,23821,ES,60.0,Bridgeport,Bridgeport - Chinatown,18.0,11.0,170316006001015,41.9703077965,-87.7103610876999,170993000858,_170993000858,17031600600
609702,Crane HS,Richard T Crane Technical Preparatory HS,Crane HS,Crane Technical Prep High School,2245,W,Jackson Blvd,Chicago,IL,60612,1270.0,46081,HS,28.0,Near West Side,Near West,23.0,2.0,170318380001026,41.9750679336,-87.6794474519,170993000717,_170993000717,17031838000
610284,New Field,New Field Elementary School,New Field,New Field Elem School,1707,W,Morse Ave,Chicago,IL,60626,7060.0,22071,ES,1.0,Rogers Park,Ravenswood,30.0,13.0,170310107022009,41.7603154703,-87.5568187039,170993005687,_170993005687,17031010702
610251,Cather,Willa Cather Elementary School,Cather,Cather Elem School,2908,W,Washington Blvd,Chicago,IL,60612,6730.0,26021,ES,27.0,East Garfield Park,Garfield - West Humboldt,20.0,1.0,170318371002030,41.7940486788,-87.6902241785,170993000656,_170993000656,17031837100
400050,Namaste Chtr Campus,Namaste Charter Elementary School,Namaste Chtr Campus,Namaste Elem Charter School,3737,S,Paulina St,Chicago,IL,60609,7920.0,66271,ES,59.0,Mckinley Park,McKinley Park,17.0,11.0,170315907002026,41.8256990471,-87.6677607193999,170993005102,_170993005102,17031590700
609972,Haugan,Helge A Haugan Elementary School,Haugan,Haugan Elem School,4540,N,Hamlin Ave,Chicago,IL,60625,3810.0,23591,ES,14.0,Albany Park,Albany Irving,27.0,12.0,170311406023012,41.7934198044999,-87.5868541149999,170993000831,_170993000831,17031140602
609764,Juarez HS,Benito Juarez Community Academy High School,Juarez HS,Juarez Community Academy HS,2150,S,Laflin St,Chicago,IL,60608,1890.0,46421,HS,31.0,Lower West Side,Pilsen - Little Village,16.0,7.0,170313107001020,41.7074460748,-87.6030643545,170993000722,_170993000722,17031310700
610242,Brennemann,Joseph Brennemann Elementary School,Brennemann,Brennemann Elem School,4251,N,Clarendon Ave,Chicago,IL,60613,6600.0,25991,ES,3.0,Uptown,Ravenswood,30.0,10.0,170310314001001,41.7653611216,-87.6529811393999,170993000616,_170993000616,17031031400
609820,Burley,Augustus H Burley Elementary School,Burley,Burley Elem School,1630,W,Barry Ave,Chicago,IL,60657,2470.0,22421,ES,6.0,Lake View,Lincoln Park,29.0,12.0,170310626001006,41.9175974811,-87.7827363014999,170993000632,_170993000632,17031062600
400039,Erie Chtr Campus,Erie Elementary Charter School,Erie Chtr Campus,Erie Elem Charter School,1405,N,Washtenaw Ave,Chicago,IL,60622,5780.0,66331,ES,24.0,West Town,Humboldt Park,21.0,8.0,170312410001005,41.9067715451,-87.6944011607999,170993005797,_170993005797,17031241000
609893,Dore,John C Dore Elementary School,Dore,Dore Elem School,6108,S,Natoma Ave,Chicago,IL,60638,3080.0,23001,ES,64.0,Clearing,MDW,7.0,11.0,170316404002034,41.8892867399,-87.7050619661,170993000725,_170993000725,17031640400
610263,Dulles,John Foster Dulles Elementary School,Dulles,Dulles Elem School,6311,S,Calumet Ave,Chicago,IL,60637,6860.0,26141,ES,69.0,Greater Grand Crossing,Woodlawn,13.0,2.0,170318425001001,41.8173367293,-87.5990993611,170993000682,_170993000682,17031842500
609720,Lane HS,Albert G Lane Technical High School,Lane HS,Lane Technical High School,2501,W,Addison St,Chicago,IL,60618,1440.0,46221,HS,5.0,North Center,Logan,9.0,12.0,170318437001018,41.7904824288999,-87.7803947179999,170993000942,_170993000942,17031843700
610099,Norwood Park,Norwood Park Elementary School,Norwood Park,Norwood Park Elem School,5900,N,Nina Ave,Chicago,IL,60631,5120.0,24711,ES,10.0,Norwood Park,Sauganash,28.0,9.0,170311003004016,41.9195808825,-87.7314568265999,170993000997,_170993000997,17031100300
400013,Aspira Chtr - Early College HS,ASPIRA Charter - Early College,Aspira Chtr - Early College HS,Aspira Charter High School,3986,W,Barry Ave,Chicago,IL,60618,7803.0,66254,HS,21.0,Avondale,Logan,9.0,8.0,170312105012024,41.9373268347999,-87.7268360207,170993005663,_170993005663,17031210501
610203,Tonti,Enrico Tonti Elementary School,Tonti,Tonti Elem School,5815,S,Homan Ave,Chicago,IL,60629,6220.0,25631,ES,63.0,Gage Park,McKinley Park,17.0,7.0,170316309002004,41.9485438736999,-87.7776307207,170993001127,_170993001127,17031630900
610048,Manierre,George Manierre Elementary School,Manierre,Manierre Elem School,1420,N,Hudson Ave,Chicago,IL,60610,4580.0,24311,ES,8.0,Near North Side,Lincoln Park,29.0,2.0,170310804001009,41.9341914723,-87.7772109386,170993000936,_170993000936,17031080400
610141,Ravenswood,Ravenswood Elementary School,Ravenswood,Ravenswood Elem School,4332,N,Paulina St,Chicago,IL,60613,5550.0,25061,ES,6.0,Lake View,Ravenswood,30.0,12.0,170310602001002,41.9184588446999,-87.6838005627,170993001050,_170993001050,17031060200
610117,Pasteur,Louis Pasteur Elementary School,Pasteur,Pasteur Elem School,5825,S,Kostner Ave,Chicago,IL,60629,5310.0,24851,ES,62.0,West Elsdon,McKinley Park,17.0,11.0,170316203005005,41.7664760122,-87.6115822409,170993001023,_170993001023,17031620300
400029,Cics - Washington Park,Chicago Intl Charter - Washington Park,Cics - Washington Park,Chicago International Charter,6105,S,Michigan Ave,Chicago,IL,60637,2290.0,66181,ES,40.0,Washington Park,Woodlawn,13.0,2.0,170314008002007,41.7836163451,-87.6221051128,170993003505,_170993003505,17031400800
400107,Learn Chrt - So Chicago,LEARN  Charter School-South Chicago Campus,Learn Chrt - So Chicago,Learn Elem Charter School,8914,S,Buffalo Ave,Chicago,IL,60617,8029.0,66563,ES,46.0,South Chicago,South Shore,11.0,4.0,170318339001007,41.7333296560999,-87.5444418175,,_,17031833900
610123,Penn,William Penn Elementary School,Penn,Penn Elem School,1616,S,Avers Ave,Chicago,IL,60623,5370.0,24911,ES,29.0,North Lawndale,North Lawndale,19.0,2.0,170312924001002,41.8715949308,-87.6836523588,170993001028,_170993001028,17031292400
610198,Taylor,Douglas Taylor Elementary School,Taylor,Taylor Elem School,9912,S,Avenue H,Chicago,IL,60617,6150.0,25591,ES,52.0,East Side,Far East Side,2.0,4.0,170315201001042,41.9891396826999,-87.6582593068,170993001120,_170993001120,17031520100
610041,"Locke, J",Josephine C Locke Elementary School,"Locke, J",Locke  J Elem School,2828,N,Oak Park Ave,Chicago,IL,60634,4510.0,24231,ES,18.0,Montclare,Belmont Cragin,26.0,9.0,170311801002009,41.9400085349999,-87.7026714153,170993000927,_170993000927,17031180100
610345,Woodson,Carter G Woodson South Elementary School,Woodson,Woodson South Elem School,4414,S,Evans,Chicago,IL,60653,7820.0,26541,ES,38.0,Grand Boulevard,Bronzeville,15.0,3.0,170318360003014,41.9421377377,-87.7764315432,170993001163,_170993001163,17031836000
609750,Simpson HS,Simpson Academy High School for Young Women,Simpson HS,Simpson Acad HS for Young Women,1321,S,Paulina St,Chicago,IL,60608,1750.0,49051,HS,28.0,Near West Side,Near West,23.0,2.0,170318429004065,41.8425338464,-87.695224323,170993004383,_170993004383,17031842900
609792,Bateman,Newton Bateman Elementary School,Bateman,Bateman Elem School,4220,N,Richmond St,Chicago,IL,60618,2190.0,22171,ES,16.0,Irving Park,Albany Irving,27.0,8.0,170311606012009,41.7541944450999,-87.6708904894999,170993000591,_170993000591,17031160601
610208,Lavizzo,Mildred I Lavizzo Elementary School,Lavizzo,Lavizzo Elem School,138,W,109th St,Chicago,IL,60628,6260.0,25671,ES,49.0,Roseland,Far South Side,22.0,5.0,170314910002002,41.7990469659999,-87.7588917358999,170993001135,_170993001135,17031491000
400133,Yccs Chtr - Innovations,YCCS-Innovations of Arts Integration HS,Yccs Chtr - Innovations,Youth Connections Charter HS,220,W,45th Pl,Chicago,IL,60609,9602.0,66617,HS,37.0,Fuller Park,Bronzeville,15.0,2.0,170318355002027,41.8118176344,-87.631990875,170993003473,_170993003473,17031835500
609871,Vick,Barbara Vick Early Childhood & Family Center,Vick,Vick Early Childhood & Family Ctr,2554,W,113th St,Chicago,IL,60655,2920.0,26731,ES,75.0,Morgan Park,Beverly,3.0,11.0,170317504001018,41.7846813513,-87.6571325466999,170993003570,_170993003570,17031750400
610004,Cullen,Countee Cullen Elementary School,Cullen,Cullen Elem School,10650,S,Eberhart Ave,Chicago,IL,60628,4100.0,23891,ES,49.0,Roseland,Far South Side,22.0,5.0,170314909021024,41.7333371196,-87.5682647274,170993001194,_170993001194,17031490902
400121,Uno Chtr - Northside,UNO Charter - Rogers Park ES,Uno Chtr - Northside,UNO Network Charter Schools,7416,N,Ridge Blvd,Chicago,IL,60645,9038.0,66134,ES,2.0,West Ridge,Ravenswood,30.0,13.0,170310201002001,42.0164781781,-87.6843690134,,_,17031020100
609777,Armour,Phillip D Armour Elementary School,Armour,Armour Elem School,950,W,33rd Pl,Chicago,IL,60608,2070.0,22061,ES,60.0,Bridgeport,Bridgeport - Chinatown,18.0,11.0,170318397003002,41.9341255571999,-87.6562654048999,170993001001,_170993001001,17031839700
609832,Byrne,Michael M Byrne Elementary School,Byrne,Byrne Elem School,5329,S,Oak Park Ave,Chicago,IL,60638,2570.0,22501,ES,56.0,Garfield Ridge,MDW,7.0,11.0,170315609003014,41.8288685081,-87.6924199474999,170993000640,_170993000640,17031560900
609888,Dodge,Mary Mapes Dodge Elementary Renaissance Academy,Dodge,Dodge Elem School,431,N,Troy St,Chicago,IL,60612,3050.0,22981,ES,23.0,Humboldt Park,Garfield - West Humboldt,20.0,1.0,170318367002042,41.7956451036,-87.6426882418,170993000713,_170993000713,17031836700
610066,Mcdade,James E McDade Elementary Classical School,Mcdade,Mcdade Elem Classical School,8801,S,Indiana Ave,Chicago,IL,60619,4750.0,29181,ES,44.0,Chatham,Chatham,12.0,4.0,170314406001003,41.8422679111,-87.7062634082,170993000957,_170993000957,17031440600
610084,Keller,Annie Keller Elementary Gifted Magnet School,Keller,Keller Elem Gifted Magnet School,3020,W,108th St,Chicago,IL,60655,4960.0,29211,ES,74.0,Mount Greenwood,Beverly,3.0,11.0,170317401003002,41.6957331317,-87.7058465475,170993000860,_170993000860,17031740100
610101,Ogden,William B Ogden Elementary School,Ogden,Ogden Elem School,24,W,Walton St,Chicago,IL,60610,5150.0,24731,ES,8.0,Near North Side,Loop,1.0,2.0,170310811001002,41.9881325586,-87.8029541813999,170993001003,_170993001003,17031081100
609734,Taft HS,William Howard Taft High School,Taft HS,Taft High School,6530,W,Bryn Mawr Ave,Chicago,IL,60631,1580.0,46311,HS,10.0,Norwood Park,Sauganash,28.0,9.0,170311003001009,41.9356342059,-87.7834784907999,170993001153,_170993001153,17031100300
400082,Uno Chtr - Fuentes,UNO Charter - Carlos Fuentes,Uno Chtr - Fuentes,Uno Network Elem Charter School,2845,W,Barry Ave,Chicago,IL,60618,3342.0,66393,ES,21.0,Avondale,Logan,9.0,8.0,170312108001007,41.9375032175,-87.6995937796999,170993003555,_170993003555,17031210800
609766,Vaughn HS,Jacqueline B Vaughn Occupational High School,Vaughn HS,Vaughn Occupational High School,4355,N,Linder Ave,Chicago,IL,60641,1920.0,49081,HS,15.0,Portage Park,Albany Irving,27.0,12.0,170311503006015,41.7058594383,-87.6537125969999,170993001018,_170993001018,17031150300
400038,Community Services West,Community Services West Academy,Community Services West,Community Services West High Sch,1239,S,Pulaski Rd,Chicago,IL,60623,1225.0,63061,HS,29.0,North Lawndale,North Lawndale,19.0,2.0,170318387003008,41.8649516198999,-87.725058722,170993005977,_170993005977,17031838700
610137,Prussing,Ernst Prussing Elementary School,Prussing,Prussing Elem School,4650,N,Menard Ave,Chicago,IL,60630,5510.0,25031,ES,15.0,Portage Park,Albany Irving,27.0,9.0,170311504013007,41.9569601996999,-87.7610063873,170993001043,_170993001043,17031150401
610087,Blair,Blair Early Childhood Center,Blair,Blair Early Childhood Center,6751,W,63rd Pl,Chicago,IL,60638,4990.0,30071,ES,64.0,Clearing,MDW,7.0,11.0,170316405001010,41.6971428943,-87.6972778573999,170993004966,_170993004966,17031640500
609959,Haines,John Charles Haines Elementary School,Haines,Haines Elem School,247,W,23rd Pl,Chicago,IL,60616,3700.0,23481,ES,34.0,Armour Square,Bridgeport - Chinatown,18.0,2.0,170318411002017,41.7754368287,-87.7588023429999,170993000815,_170993000815,17031841100
610568,Pathways Education HS - Avondale,Pathways in Education Avondale,Pathways Education HS - Avondale,,3100,W,Belmont,Chicago,IL,60618,9633.0,,HS,21.0,Avondale,Logan,9.0,8.0,170312101002020,41.7638954211999,-87.6491609928,,_,17031210100
609938,Gary,Joseph E Gary Elementary School,Gary,Gary Elem School,3740,W,31st St,Chicago,IL,60623,3520.0,23311,ES,30.0,South Lawndale,Pilsen - Little Village,16.0,7.0,170313017021006,41.7068010763999,-87.5352119264999,170993000785,_170993000785,17031301702
610220,Waters,Thomas J Waters Elementary School,Waters,Waters Elem School,4540,N,Campbell Ave,Chicago,IL,60625,6370.0,25781,ES,4.0,Lincoln Square,Ravenswood,30.0,12.0,170310408001003,41.7267623979,-87.5753891746,170993001147,_170993001147,17031040800
610570,Ombudsman 2 HS,Ombudsman #2,Ombudsman 2 HS,,,,,Chicago,IL,60631,9635.0,,HS,9.0,Edison Park,Sauganash,28.0,9.0,170310901001001,41.7668209818,-87.5858670779,,_,17031090100
610148,Chavez,Cesar E Chavez Multicultural Academic Center ES,Chavez,Chavez Elem Multicultural Acad Ct,4747,S,Marshfield Ave,Chicago,IL,60609,5640.0,25151,ES,61.0,New City,McKinley Park,17.0,7.0,170316113001004,41.7641684246,-87.6001763903,170993000411,_170993000411,17031611300
610044,Lowell,James Russell Lowell Elementary School,Lowell,Lowell Elem School,3320,W,Hirsch St,Chicago,IL,60651,4540.0,24251,ES,23.0,Humboldt Park,Humboldt Park,21.0,8.0,170312309001023,41.9317629597,-87.7955673303,170993000930,_170993000930,17031230900
610183,Spencer Tech Acad,Spencer Technology Academy,Spencer Tech Acad,Spencer Technology Acad Elem Sch,214,N,Lavergne Ave,Chicago,IL,60644,6000.0,25441,ES,25.0,Austin,Austin,25.0,1.0,170312518002010,41.8653784595,-87.6534452429999,170993001101,_170993001101,17031251800
610174,Shields,James Shields Elementary School,Shields,Shields Elem School,4250,S,Rockwell St,Chicago,IL,60632,5910.0,25361,ES,58.0,Brighton Park,McKinley Park,17.0,7.0,170315806003000,41.7997397751,-87.6502115818999,170993001092,_170993001092,17031580600
609845,"Carver , G",George Washington Carver Primary School,"Carver , G",Carver Primary School,901,E,133rd Pl,Chicago,IL,60827,2690.0,22621,ES,54.0,Riverdale,Far South Side,22.0,5.0,170315401013008,41.7932727028,-87.6877628807999,170993000993,_170993000993,17031540101
610013,Pilsen,Pilsen Elementary Community Academy,Pilsen,Pilsen Elem Community Academy,1420,W,17th St,Chicago,IL,60608,4210.0,31141,ES,31.0,Lower West Side,Pilsen - Little Village,16.0,7.0,170313106001013,41.9846415011,-87.7004926531,170993000878,_170993000878,17031310600
610362,Evers,Medgar Evers Elementary School,Evers,Evers Elem School,9811,S,Lowe Ave,Chicago,IL,60628,7990.0,26591,ES,73.0,Washington Heights,Auburn Gresham,5.0,4.0,170317305004031,41.9623079615,-87.6638161965999,170993000757,_170993000757,17031730500
610157,Sawyer,Sidney Sawyer Elementary School,Sawyer,Sawyer Elem School,5248,S,Sawyer Ave,Chicago,IL,60632,5710.0,25231,ES,63.0,Gage Park,McKinley Park,17.0,7.0,170316303001014,41.7353799169,-87.6388060702,170993001068,_170993001068,17031630300
610201,"Thorp, O",Ole A Thorp Elementary Scholastic Academy,"Thorp, O",Thorp  O A Elem Scholastic Acad,6024,W,Warwick Ave,Chicago,IL,60634,6190.0,29301,ES,17.0,Dunning,Reed-Dunning,24.0,12.0,170311702001015,41.6775328841,-87.6581115778,170993001123,_170993001123,17031170200
609679,Prosser HS,Charles Allen Prosser Career Academy High School,Prosser HS,Prosser Career Academy HS,2148,N,Long Ave,Chicago,IL,60639,1070.0,53041,HS,19.0,Belmont Cragin,Belmont Cragin,26.0,8.0,170311912002000,41.8402261095,-87.6176007457,170993000681,_170993000681,17031191200
609926,Franklin,Franklin Elementary Fine Arts Center,Franklin,Franklin Elem Fine Arts Center,225,W,Evergreen Ave,Chicago,IL,60610,3420.0,29081,ES,8.0,Near North Side,Lincoln Park,29.0,2.0,170310803001007,41.7296720889,-87.6555177861,170993000777,_170993000777,17031080300
400035,Chgo Math & Sci Acad Campus HS,Chicago Math and Science Academy High School,Chgo Math & Sci Acad Campus HS,Chicago Math & Sci Elem Charter,7212,N,Clark St,Chicago,IL,60626,7940.0,66281,HS,1.0,Rogers Park,Ravenswood,30.0,13.0,170310102022002,42.0130346119999,-87.6747818606,170993005092,_170993005092,17031010202
610047,Madison,James Madison Elementary School,Madison,Madison Elem School,7433,S,Dorchester Ave,Chicago,IL,60619,4570.0,24301,ES,43.0,South Shore,South Shore,11.0,3.0,170314304004005,41.9064921535999,-87.7102163819999,170993000935,_170993000935,17031430400
400075,Univ Of Chgo Chtr - Donoghue,University of Chicago Charter - Donoghue,Univ Of Chgo Chtr - Donoghue,Univ of Chicago Elem Charter Schl,707,E,37th St,Chicago,IL,60653,2600.0,66321,ES,36.0,Oakland,Bronzeville,15.0,3.0,170318365002008,41.8277515955999,-87.6085142901,170993003542,_170993003542,17031836500
610125,Ruiz,Irma C Ruiz Elementary School,Ruiz,Ruiz Elem School,2410,S,Leavitt St,Chicago,IL,60608,5390.0,24931,ES,31.0,Lower West Side,Pilsen - Little Village,16.0,7.0,170318413003000,41.8583871238,-87.7212629729999,170993005413,_170993005413,17031841300
609718,Kennedy HS,John F Kennedy High School,Kennedy HS,Kennedy High School,6325,W,56th St,Chicago,IL,60638,1420.0,46201,HS,56.0,Garfield Ridge,MDW,7.0,11.0,170315611006006,41.8187296523,-87.694601984,170993000924,_170993000924,17031561100
609800,Bennett,Frank I Bennett Elementary School,Bennett,Bennett Elem School,10115,S,Prairie Ave,Chicago,IL,60628,2280.0,22241,ES,49.0,Roseland,Far South Side,22.0,5.0,170314908004004,41.9589380489999,-87.7340564895999,170993000607,_170993000607,17031490800
610012,Jenner,Edward Jenner Elementary Academy of the Arts,Jenner,Jenner Elem Academy of The Arts,1119,N,Cleveland Ave,Chicago,IL,60610,4200.0,23951,ES,8.0,Near North Side,Loop,1.0,2.0,170318383001008,41.9392467536999,-87.6758464594,170993000874,_170993000874,17031838300
610555,Banner Academy West HS,Banner Academy West,Banner Academy West HS,Banner West Academy HS,,,,Chicago,IL,60651,8685.0,66301,HS,25.0,Austin,Austin,25.0,1.0,170312511003008,41.7588191019999,-87.5763531982999,170993006174,_170993006174,17031251100
610068,Hanson Park,Hanson Park Elementary School,Hanson Park,Hanson Park Elem School,5411,W,Fullerton Ave,Chicago,IL,60639,4770.0,24461,ES,19.0,Belmont Cragin,Belmont Cragin,26.0,8.0,170311912002000,41.7345493269,-87.6192510716,170993000720,_170993000720,17031191200
609875,Darwin,Charles R Darwin Elementary School,Darwin,Darwin Elem School,3116,W,Belden Ave,Chicago,IL,60647,2960.0,22881,ES,22.0,Logan Square,Logan,9.0,8.0,170312212002007,41.8526641707999,-87.7124334580999,170993000679,_170993000679,17031221200
400150,Yccs Chtr - Chatham,YCCS-Chatham Academy HS,Yccs Chtr - Chatham,Youth Connections Charter HS,9035,S,Langley Ave,Chicago,IL,60619,9599.0,66631,HS,44.0,Chatham,Chatham,12.0,4.0,170314409001015,41.7301309329999,-87.6070165377,,_,17031440900
610037,Libby,Arthur A Libby Elementary School,Libby,Libby Elem School,5300,S,Loomis Blvd,Chicago,IL,60609,4470.0,24171,ES,61.0,New City,Englewood,4.0,11.0,170316119002021,41.8629325866999,-87.7129561530999,170993000916,_170993000916,17031611900
610070,Mcpherson,James B McPherson Elementary School,Mcpherson,Mcpherson Elem School,4728,N,Wolcott Ave,Chicago,IL,60640,4800.0,24471,ES,4.0,Lincoln Square,Ravenswood,30.0,12.0,170318308001002,41.7681425334,-87.6918231573999,170993000959,_170993000959,17031830800
610254,Dvorak Tech Acad,Dvorak Technology Academy,Dvorak Tech Acad,Dvorak Technology Acad Elem Sch,3615,W,16th St,Chicago,IL,60623,6760.0,26051,ES,29.0,North Lawndale,North Lawndale,19.0,2.0,170312922002002,41.8829224859,-87.6991865078999,170993000737,_170993000737,17031292200
609811,Bright,Orville T Bright Elementary School,Bright,Bright Elem School,10740,S,Calhoun Ave,Chicago,IL,60617,2390.0,22331,ES,51.0,South Deering,Far East Side,2.0,4.0,170318388001010,41.930965409,-87.6963309356,170993000619,_170993000619,17031838800
609855,Christopher,Walter S Christopher Elementary School,Christopher,Christopher Elem School,5042,S,Artesian Ave,Chicago,IL,60632,2780.0,30031,ES,63.0,Gage Park,McKinley Park,17.0,7.0,170316302001018,41.9179714041,-87.6945855009,170993004376,_170993004376,17031630200
610100,West Park,West Park Elementary Academy,West Park,West Park Elem Academy,1425,N,Tripp Ave,Chicago,IL,60651,5140.0,24721,ES,23.0,Humboldt Park,Garfield - West Humboldt,20.0,8.0,170312306004011,41.9061825912,-87.7299552273999,170993002042,_170993002042,17031230600
610077,Morrill,Donald Morrill Math & Science Elementary School,Morrill,Morrill Elem Math & Sci School,6011,S,Rockwell St,Chicago,IL,60629,4880.0,24571,ES,66.0,Chicago Lawn,Chicago Lawn,8.0,11.0,170318350005013,41.8647245887,-87.6664075250999,170993000970,_170993000970,17031835000
610363,Disney,Walt Disney Magnet Elementary School,Disney,Disney Elem Magnet School,4140,N,Marine Dr,Chicago,IL,60613,8000.0,29401,ES,3.0,Uptown,Ravenswood,30.0,10.0,170310314002004,41.8481615496,-87.6990540931,170993000709,_170993000709,17031031400
609862,Coles,Edward Coles Elementary Language Academy,Coles,Coles Elem Language Academy,8441,S,Yates Blvd,Chicago,IL,60617,2830.0,22771,ES,46.0,South Chicago,South Shore,11.0,4.0,170314604003012,41.9925420177,-87.6983231804999,170993000666,_170993000666,17031460400
610096,Nightingale,Florence Nightingale Elementary School,Nightingale,Nightingale Elem School,5250,S,Rockwell St,Chicago,IL,60632,5090.0,24671,ES,63.0,Gage Park,McKinley Park,17.0,7.0,170316305004012,41.9416372614999,-87.6445244788999,170993000992,_170993000992,17031630500
609786,Avalon Park,Avalon Park Elementary School,Avalon Park,Avalon Park Elem School,8045,S,Kenwood Ave,Chicago,IL,60619,2130.0,22101,ES,45.0,Avalon Park,Chatham,12.0,4.0,170318343002040,41.9450628176999,-87.6810043046999,170993000582,_170993000582,17031834300
610565,Camelot - Excel Academy Of Englewood,Excel Academy of Englewood,Camelot - Excel Academy Of Englewood,,7141,S,Morgan St,Chicago,IL,60621,9630.0,,HS,68.0,Englewood,Englewood,4.0,3.0,170316814004010,41.8775287339,-87.6832489541999,,_,17031681400
610194,Sumner,Charles Sumner  Math & Science Community Acad ES,Sumner,Sumner Elem Math & Sci Comm Acad,4320,W,5th Ave,Chicago,IL,60624,6110.0,31221,ES,26.0,West Garfield Park,Garfield - West Humboldt,20.0,2.0,170312610001032,41.9119106404,-87.7133170225999,170993001117,_170993001117,17031261000
610368,"Hughes, L",Langston Hughes Elementary School,"Hughes, L",Hughes L Elem School,240,W,104th St,Chicago,IL,60628,8060.0,22451,ES,49.0,Roseland,Far South Side,22.0,5.0,170314910003006,41.7161937313,-87.6480077018999,170993000899,_170993000899,17031491000
400032,Cics - Ellison,Chicago Intl Charter - Ralph Ellison,Cics - Ellison,Chicago International Charter,1817,W,80th St,Chicago,IL,60620,4911.0,66072,HS,71.0,Auburn Gresham,Auburn Gresham,5.0,3.0,170317105003002,41.7484098473,-87.6689802310999,170993003505,_170993003505,17031710500
400019,Bronzeville Lthouse Chtr Campus,Bronzeville Lighthouse Charter Elementary School,Bronzeville Lthouse Chtr Campus,Bronzeville Lighthouse Elem Chrtr,8,W,Root St,Chicago,IL,60609,3990.0,66421,ES,38.0,Grand Boulevard,Bronzeville,15.0,3.0,170313805001006,41.8192491733,-87.6266211796999,170993099983,_170993099983,17031380500
610056,Mason,Roswell B Mason Elementary School,Mason,Mason Elem School,4217,W,18th St,Chicago,IL,60623,4650.0,24381,ES,29.0,North Lawndale,North Lawndale,19.0,2.0,170312925004016,41.7165883935999,-87.5524468039999,170993000944,_170993000944,17031292500
609943,Gompers,Samuel Gompers Fine Arts Options ES,Gompers,Gompers Elem Fine Arts Opt School,12302,S,State St,Chicago,IL,60628,3570.0,23351,ES,53.0,West Pullman,Far South Side,22.0,5.0,170315305021000,41.7606146364,-87.6759288684,170993000796,_170993000796,17031530502
609955,Gresham,Walter Q Gresham Elementary School,Gresham,Gresham Elem School,8524,S,Green St,Chicago,IL,60620,3670.0,23451,ES,71.0,Auburn Gresham,Auburn Gresham,5.0,4.0,170317110002014,41.8296687010999,-87.671529053,170993000811,_170993000811,17031711000
400056,Noble Street Chtr - Rowe Clark,Noble Street Charter - Rowe-Clark Math & Sci Acad,Noble Street Chtr - Rowe Clark,Noble Street Charter High School,3645,W,Chicago Ave,Chicago,IL,60651,1933.0,66144,HS,23.0,Humboldt Park,Garfield - West Humboldt,20.0,1.0,170312315004004,41.8953896976999,-87.7180472999999,170993003479,_170993003479,17031231500
609707,Robeson HS,Paul Robeson High School,Robeson HS,Robeson High School,6835,S,Normal Blvd,Chicago,IL,60621,1320.0,46121,HS,68.0,Englewood,Englewood,4.0,3.0,170316812003013,41.8485592149,-87.7087423234,170993000967,_170993000967,17031681200
609912,Farnsworth,James B Farnsworth Elementary School,Farnsworth,Farnsworth Elem School,5414,N,Linder Ave,Chicago,IL,60630,3280.0,23161,ES,11.0,Jefferson Park,Sauganash,28.0,9.0,170311105012002,41.8315545761999,-87.6813469881,170993000764,_170993000764,17031110501
609727,Phillips HS,Wendell Phillips Academy High School,Phillips HS,Phillips Academy High School,244,E,Pershing Rd,Chicago,IL,60653,1510.0,46261,HS,35.0,Douglas,Bronzeville,15.0,3.0,170318396002013,41.6920111235999,-87.6656755724,170993001061,_170993001061,17031839600
609987,Hendricks,Thomas A Hendricks Elementary Community Academy,Hendricks,Hendricks Elem Community Academy,4316,S,Princeton Ave,Chicago,IL,60609,3930.0,31121,ES,37.0,Fuller Park,Bronzeville,15.0,2.0,170318355002009,41.8786920861999,-87.7358023949999,170993000817,_170993000817,17031835500
610062,Mcclellan,George B McClellan Elementary School,Mcclellan,Mcclellan Elem School,3527,S,Wallace St,Chicago,IL,60609,4710.0,24421,ES,60.0,Bridgeport,Bridgeport - Chinatown,18.0,11.0,170318399001000,41.9232041885,-87.6572507048,170993000952,_170993000952,17031839900
400049,Legacy Chtr Campus,Legacy Charter Elementary School,Legacy Chtr Campus,Legacy Elem Charter School,4217,W,18th St,Chicago,IL,60623,5870.0,67071,ES,29.0,North Lawndale,North Lawndale,19.0,2.0,170312925004016,41.8569071431,-87.7304697444999,170993005799,_170993005799,17031292500
610180,Smyth,John M Smyth Elementary School,Smyth,Smyth  J Elem School,1059,W,13th St,Chicago,IL,60608,5970.0,25411,ES,28.0,Near West Side,Near West,23.0,2.0,170312838001004,41.7169881774999,-87.5969684965999,170993001098,_170993001098,17031283800
610081,Sheridan,Mark Sheridan Elementary Math & Science Academy,Sheridan,Sheridan Elem Math & Science Acad,533,W,27th St,Chicago,IL,60616,4920.0,29201,ES,60.0,Bridgeport,Bridgeport - Chinatown,18.0,11.0,170318401001009,41.7843127030999,-87.6885859127999,170993001083,_170993001083,17031840100
610024,Cardenas,Lazaro Cardenas Elementary School,Cardenas,Cardenas Elem School,2345,S,Millard Ave,Chicago,IL,60623,4320.0,24051,ES,30.0,South Lawndale,Pilsen - Little Village,16.0,7.0,170313006001019,41.9045302028999,-87.714234223,170993001099,_170993001099,17031300600
400042,Ford Chtr HS,Henry Ford Academy Power House Charter HS,Ford Chtr HS,Ford Power House Charter HS,931,S,Homan Ave,Chicago,IL,60624,1165.0,67091,HS,29.0,North Lawndale,North Lawndale,19.0,2.0,170318430001001,41.8693119926999,-87.7105633272,170993005978,_170993005978,17031843000
610002,Hoyne,Thomas Hoyne Elementary School,Hoyne,Hoyne Elem School,8905,S,Crandon Ave,Chicago,IL,60617,4080.0,23871,ES,48.0,Calumet Heights,South Shore,11.0,4.0,170314804001002,41.7938150868999,-87.6497960333999,170993000864,_170993000864,17031480400
610561,Crane Medical Prep,Richard T Crane Medical Preparatory HS,Crane Medical Prep,,2245,W,Jackson Blvd,Chicago,IL,60612,9621.0,46641,HS,28.0,Near West Side,Near West,23.0,2.0,170318380001026,41.7537492041999,-87.707381987,,_,17031838000
610369,"Jackson, M",Mahalia Jackson Elementary School,"Jackson, M",Jackson  M Elem School,917,W,88th St,Chicago,IL,60620,8090.0,26651,ES,71.0,Auburn Gresham,Auburn Gresham,5.0,4.0,170317114002018,41.8779781522,-87.7663342624999,170993001091,_170993001091,17031711400
610216,Walsh,John A Walsh Elementary School,Walsh,Walsh Elem School,2015,S,Peoria St,Chicago,IL,60608,6320.0,25731,ES,31.0,Lower West Side,Pilsen - Little Village,16.0,7.0,170313103001034,41.7734783216999,-87.6009814581999,170993001136,_170993001136,17031310300
610529,Ogden HS,Ogden International High School,Ogden HS,Ogden Int High School,1250,W,Erie St,Chicago,IL,60622,8083.0,24731,HS,24.0,West Town,Near North,10.0,8.0,170312432001011,41.893528,87.65941,170993006093,_170993006093,17031243200
609925,Kellman,Joseph Kellman Corporate Community ES,Kellman,Kellman Corporate Community Elem,751,S,Sacramento Blvd,Chicago,IL,60612,3410.0,23251,ES,27.0,East Garfield Park,Garfield - West Humboldt,20.0,2.0,170312718001007,41.9204833931,-87.7582128207999,170993000760,_170993000760,17031271800
400055,Noble Street Chtr - Rauner,Noble Street Charter - Rauner College Prep,Noble Street Chtr - Rauner,Noble Street Charter High School,1337,W,Ohio,Chicago,IL,60642,1932.0,66143,HS,24.0,West Town,Near North,10.0,1.0,170312434003006,41.8924524492,-87.6608595527,170993003479,_170993003479,17031243400
610092,Nash,Henry H Nash Elementary School,Nash,Nash Elem School,4837,W,Erie St,Chicago,IL,60644,5050.0,24641,ES,25.0,Austin,Austin,25.0,1.0,170312517001041,41.7985350753,-87.5933770745999,170993000985,_170993000985,17031251700
609797,Beidler,Jacob Beidler Elementary School,Beidler,Beidler Elem School,3151,W,Walnut St,Chicago,IL,60612,2250.0,22211,ES,27.0,East Garfield Park,Garfield - West Humboldt,20.0,1.0,170318371001011,41.8678117612,-87.7704542241,170993000603,_170993000603,17031837100
609885,Dewey,Dewey Elementary Academy of Fine Arts,Dewey,Dewey Elem Academy of Fine Arts,5415,S,Union Ave,Chicago,IL,60609,3030.0,22951,ES,61.0,New City,Englewood,4.0,2.0,170318438002023,41.7624907514,-87.6233079426999,170993000706,_170993000706,17031843800
609971,Harvard,John Harvard Elementary School of Excellence,Harvard,Harvard Elem School,7525,S,Harvard,Chicago,IL,60620,3800.0,23581,ES,69.0,Greater Grand Crossing,Auburn Gresham,5.0,3.0,170316912001001,41.9148156862,-87.7239678615,170993000830,_170993000830,17031691200
609867,Cooper,Peter Cooper Elementary Dual Language Academy,Cooper,Cooper Elem Dual Language Academy,1624,W,19th St,Chicago,IL,60608,2890.0,22831,ES,31.0,Lower West Side,Pilsen - Little Village,16.0,7.0,170313108002005,42.0170874948999,-87.6777257186,170993000676,_170993000676,17031310800
609791,Bass,Perkins Bass Elementary School,Bass,Bass Elem School,1140,W,66th St,Chicago,IL,60621,2180.0,22161,ES,68.0,Englewood,Englewood,4.0,2.0,170316810001011,41.9325112439,-87.7393516116,170993000590,_170993000590,17031681000
609809,Brentano,Lorenz Brentano Math & Science Academy ES,Brentano,Brentano Elem Math & Science Acad,2723,N,Fairfield Ave,Chicago,IL,60647,2370.0,22311,ES,22.0,Logan Square,Logan,9.0,8.0,170312203001006,41.753429756,-87.7087305671,170993000617,_170993000617,17031220300
610088,Mozart,Wolfgang A Mozart Elementary School,Mozart,Mozart Elem School,2200,N,Hamlin Ave,Chicago,IL,60647,5000.0,24611,ES,22.0,Logan Square,Logan,9.0,8.0,170312209021018,41.7019527765,-87.647615879,170993000979,_170993000979,17031220902
609898,Eberhart,John F Eberhart Elementary School,Eberhart,Eberhart Elem School,3400,W,65th Pl,Chicago,IL,60629,3140.0,23041,ES,66.0,Chicago Lawn,Chicago Lawn,8.0,7.0,170316605003000,41.9159412364999,-87.6744954435,170993000739,_170993000739,17031660500
609676,Dunbar HS,Paul Laurence Dunbar Career Academy High School,Dunbar HS,Dunbar Vocational Career Acad HS,3000,S,King Dr,Chicago,IL,60616,1030.0,53021,HS,35.0,Douglas,Bronzeville,15.0,3.0,170318392001005,41.8875163594999,-87.702165851,170993000588,_170993000588,17031839200
609781,Attucks,Crispus Attucks Elementary School,Attucks,Attucks Elem School,5055,S,State St,Chicago,IL,60615,2100.0,31021,ES,38.0,Grand Boulevard,Bronzeville,15.0,3.0,170313818001010,42.0101225919,-87.6844396327,170993000645,_170993000645,17031381800
400157,Noble Street Chtr - Baker College Prep,Noble Street Charter Orange HS,Noble Street Chtr - Baker College Prep,,2710,E,89th St,Chicago,IL,60617,9614.0,,HS,46.0,South Chicago,South Shore,11.0,4.0,170314606001016,41.7337060934999,-87.5577592350999,,_,17031460600
609988,Henry,Patrick Henry Elementary School,Henry,Henry Elem School,4250,N,Saint Louis Ave,Chicago,IL,60618,3940.0,23731,ES,16.0,Irving Park,Albany Irving,27.0,8.0,170311605012017,41.7905918224999,-87.6718506456,170993000844,_170993000844,17031160501
610502,Marine Military HS,Marine Military Math and Science Academy,Marine Military HS,Marine Military Academy HS,145,S,Campbell Ave,Chicago,IL,60612,1085.0,49151,HS,28.0,Near West Side,Near West,23.0,1.0,170312808001010,41.8641432816,-87.7020776091,170993099985,_170993099985,17031280800
400149,Uno Chtr - Soccer Academy,UNO Soccer Academy High School,Uno Chtr - Soccer Academy,,5025,S,St Louis Ave,Chicago,IL,60632,9640.0,,HS,63.0,Gage Park,McKinley Park,17.0,7.0,170316303002004,41.8017620743,-87.7110616587,,_,17031630300
610191,Stone,Stone Elementary Scholastic Academy,Stone,Stone Elem Scholastic Academy,6239,N,Leavitt St,Chicago,IL,60659,6070.0,29291,ES,2.0,West Ridge,Ravenswood,30.0,10.0,170310209011000,41.7471076026999,-87.7316290538,170993001105,_170993001105,17031020901
610271,Jensen,Jensen Elementary Scholastic Academy,Jensen,Jensen Elem Scholastic Academy,3030,W,Harrison St,Chicago,IL,60612,6920.0,29341,ES,27.0,East Garfield Park,Garfield - West Humboldt,20.0,2.0,170312712001038,41.7401830131,-87.6012110333,170993000875,_170993000875,17031271200
609917,Fernwood,Fernwood Elementary School,Fernwood,Fernwood Elem School,10041,S,Union Ave,Chicago,IL,60628,3330.0,23201,ES,73.0,Washington Heights,Far South Side,22.0,5.0,170317305003005,41.935785391,-87.7492938896999,170993000770,_170993000770,17031730500
400044,Kipp Ascend Chtr Campus,KIPP Ascend Academy Charter Elementary School,Kipp Ascend Chtr Campus,Kipp Ascend Elem Charter School,1616,S,Avers Ave,Chicago,IL,60623,7810.0,66261,ES,29.0,North Lawndale,North Lawndale,19.0,2.0,170312924001002,41.8583871238,-87.7212629729999,170993005683,_170993005683,17031292400
,Chicago Collegiate Chtr School,Chicago Charter Collegiate HS,Chicago Collegiate Chtr School,,11816,S,Indiana Ave,Chicago,IL,60628,9618.0,,ES,53.0,West Pullman,Far South Side,22.0,5.0,170315301002022,41.9741306203,-87.6598817725,,_,17031530100
609769,"Graham,r HS",Ray Graham Training Center High School,"Graham,r HS",Graham  R Training Center,2347,S,Wabash Ave,Chicago,IL,60616,1950.0,49101,HS,33.0,Near South Side,Loop,1.0,3.0,170318410001028,41.9603631728,-87.7646999295999,170993001076,_170993001076,17031841000
609850,Greeley,Horace Greeley Elementary School,Greeley,Greeley Elem School,832,W,Sheridan Rd,Chicago,IL,60613,2730.0,22661,ES,6.0,Lake View,Lincoln Park,29.0,10.0,170318321003007,41.6573775278,-87.6064739047999,170993000805,_170993000805,17031832100
609774,Alcott ES,Louisa May Alcott Elementary School,Alcott ES,Alcott Elem School,2625,N,Orchard St,Chicago,IL,60614,2040.0,22041,ES,7.0,Lincoln Park,Lincoln Park,29.0,10.0,170310702001011,41.6987389279,-87.532939427,170993000804,_170993000804,17031070200
400104,Instituto Acad Chtr Health,Instituto Health Sciences Career Academy HS,Instituto Acad Chtr Health,Instituto Health Science Acad HS,2520,S,Western Ave,Chicago,IL,60608,8026.0,63131,HS,31.0,Lower West Side,Pilsen - Little Village,16.0,2.0,170318413002016,41.8459653309,-87.68554722,,_,17031841300
400028,Cics - Prairie,Chicago Intl Charter - Prairie,Cics - Prairie,Chicago International Charter,11530,S,Prairie Ave,Chicago,IL,60628,4220.0,66161,ES,53.0,West Pullman,Far South Side,22.0,5.0,170315301001015,41.6844332328999,-87.616851775,170993003505,_170993003505,17031530100
609859,Clinton,DeWitt Clinton Elementary School,Clinton,Clinton Elem School,6110,N,Fairfield Ave,Chicago,IL,60659,2810.0,22751,ES,2.0,West Ridge,Ravenswood,30.0,10.0,170310208022006,41.6545581863,-87.5446501887,170993000664,_170993000664,17031020802
400047,Learn Chtr - Campbell,LEARN Charter ES - Charles and Dorothy Campbell,Learn Chtr - Campbell,Learn Elem Charter School,212,S,Francisco Ave,Chicago,IL,60612,8072.0,66562,ES,27.0,East Garfield Park,Garfield - West Humboldt,20.0,2.0,170318370001007,41.877861125,-87.6987020079999,170993004270,_170993004270,17031837000
610145,Reinberg,Peter A Reinberg Elementary School,Reinberg,Reinberg Elem School,3425,N,Major Ave,Chicago,IL,60634,5600.0,25111,ES,15.0,Portage Park,Albany Irving,27.0,12.0,170311512001011,41.8041463539999,-87.6049248366999,170993001055,_170993001055,17031151200
609981,Hearst,Phobe Apperson Hearst Elementary School,Hearst,Hearst Elem School,4640,S,Lamon Ave,Chicago,IL,60638,3890.0,23671,ES,56.0,Garfield Ridge,MDW,7.0,11.0,170315602003024,41.7075301817,-87.6046595946999,170993000836,_170993000836,17031560200
400011,"Locke, A Chtr",Alain Locke Charter Elementary Academy,"Locke, A Chtr",Locke  A Elem Charter Academy,3141,W,Jackson Blvd,Chicago,IL,60612,4730.0,66151,ES,27.0,East Garfield Park,Garfield - West Humboldt,20.0,2.0,170312712001023,41.8772757921,-87.7052350035999,170993003564,_170993003564,17031271200
610539,Camras,Marvin Camras Elementary School,Camras,Camras Elementary School,3000,N,Mango Ave,Chicago,IL,60634,8600.0,22691,ES,19.0,Belmont Cragin,Belmont Cragin,26.0,12.0,170311904021030,41.9213167949,-87.7658172998,,_,17031190402
609903,Edwards,Richard Edwards Elementary School,Edwards,Edwards Elem School,4815,S,Karlov Ave,Chicago,IL,60632,3200.0,23081,ES,57.0,Archer Heights,McKinley Park,17.0,11.0,170315703001016,41.9994135064999,-87.7618598507,170993000744,_170993000744,17031570300
609691,North-grand HS,North-Grand High School,North-grand HS,North-Grand High School,4338,W,Wabansia Ave,Chicago,IL,60639,1140.0,46431,HS,23.0,Humboldt Park,Humboldt Park,21.0,8.0,170312305002003,41.9015461529999,-87.6344637275999,170993005074,_170993005074,17031230500
400066,Perspectives Chtr - Iit,Perspectives Charter - IIT Math & Science Academy,Perspectives Chtr - Iit,Perspectives Charter High School,3663,S,Wabash Ave,Chicago,IL,60653,1964.0,66056,HS,35.0,Douglas,Bronzeville,15.0,3.0,170313514001017,41.8277834128999,-87.6248244054,170993003450,_170993003450,17031351400
400144,Yccs Chtr - Westside Holistic,YCCS-Westside Holistic Leadership Academy HS,Yccs Chtr - Westside Holistic,Youth Connections Charter HS,4909,W,Division St,Chicago,IL,60651,9604.0,66628,HS,25.0,Austin,Austin,25.0,1.0,170312511001000,41.9022674726999,-87.7488106939999,170993003473,_170993003473,17031251100
609725,Morgan Park HS,Morgan Park High School,Morgan Park HS,Morgan Park High School,1744,W,Pryor Ave,Chicago,IL,60643,1490.0,46251,HS,75.0,Morgan Park,Beverly,3.0,5.0,170317505003002,41.8784166475999,-87.7080494805999,170993001002,_170993001002,17031750500
609693,Westinghouse HS,George Westinghouse College Prep,Westinghouse HS,Westinghouse High School,3223,W,Franklin Blvd,Chicago,IL,60624,1160.0,53071,HS,23.0,Humboldt Park,Garfield - West Humboldt,20.0,1.0,170318367001031,41.9116462562,-87.7352368523,170993000798,_170993000798,17031836700
610167,Seward,William H Seward Communication Arts Academy ES,Seward,Seward Elem Communication Arts Ac,4600,S,Hermitage Ave,Chicago,IL,60609,5820.0,25301,ES,61.0,New City,McKinley Park,17.0,7.0,170316104001015,42.0169190693999,-87.8141958175,170993001080,_170993001080,17031610400
400115,Catalyst Chtr - Maria,Catalyst-Maria Charter School,Catalyst Chtr - Maria,Catalyst Maria Charter School,6727,S,California Ave,Chicago,IL,60629,9032.0,66433,ES,66.0,Chicago Lawn,Chicago Lawn,8.0,2.0,170316609003001,41.7709914514,-87.6931119781,,_,17031660900
609997,Holmes,Oliver Wendell Holmes Elementary School,Holmes,Holmes Elem School,955,W,Garfield Blvd,Chicago,IL,60621,4030.0,23831,ES,68.0,Englewood,Englewood,4.0,2.0,170318347002001,41.9836721371,-87.7791598271,170993000861,_170993000861,17031834700
610193,New Sullivan,William K New Sullivan Elementary School,New Sullivan,Sullivan Elem School,8331,S,Mackinaw,Chicago,IL,60617,6100.0,25541,ES,46.0,South Chicago,South Shore,11.0,4.0,170314602001001,41.9953581505,-87.6848295525,170993001116,_170993001116,17031460200
610276,Mollison,Irvin C Mollison Elementary School,Mollison,Mollison Elem School,4415,S,Dr Martin L King Jr Dr,Chicago,IL,60653,6950.0,26251,ES,38.0,Grand Boulevard,Bronzeville,15.0,3.0,170318360001004,41.8737875077,-87.7022406164,170993000966,_170993000966,17031836000
609739,Washington HS,George Washington High School,Washington HS,Washington  G High School,3535,E,114th St,Chicago,IL,60617,1630.0,46331,HS,52.0,East Side,Far East Side,2.0,4.0,170315206001060,41.9731844483,-87.7134230181,170993001189,_170993001189,17031520600
610557,Pathways Education HS,Pathways in Education,Pathways Education HS,Pathways in Education HS,3270,W,87th St,Chicago,IL,60652,8687.0,66301,HS,70.0,Ashburn,Ashburn,6.0,3.0,170317004023025,41.8685484458,-87.6649682523,170993006178,_170993006178,17031700402
609869,Langford,Anna R. Langford Community Academy,Langford,Langford A Elem School,6010,S,Throop St,Chicago,IL,60636,2900.0,22841,ES,67.0,West Englewood,Englewood,4.0,2.0,170316709002004,41.955553803,-87.6837285462,170993001217,_170993001217,17031670900
610396,Tarkington,Tarkington School of Excellence ES,Tarkington,Tarkington Elem School,3330,W,71st St,Chicago,IL,60629,7160.0,26791,ES,66.0,Chicago Lawn,Chicago Lawn,8.0,11.0,170316609003011,41.8360356836,-87.7341216358999,170993005803,_170993005803,17031660900
400098,Noble Street Chtr - Muchin,Noble Street Charter - Muchin College Prep,Noble Street Chtr - Muchin,Noble Street Charter High School,1,N,State St,Chicago,IL,60602,8079.0,66573,HS,32.0,Loop,Loop,1.0,2.0,170313201001017,41.8820856510999,-87.6277411126,170993003479,_170993003479,17031320100
400153,Uno Chtr - Immaculate Conception,UNO Charter 15 ES,Uno Chtr - Immaculate Conception,,4420,S,Fairfield Ave,Chicago,IL,60632,9610.0,,ES,58.0,Brighton Park,McKinley Park,17.0,7.0,170315806004012,41.8131100186,-87.6932017108999,,_,17031580600
610297,School Of Leadrshp HS,High School of Leadership at South Shore,School Of Leadrshp HS,School of Leadership High School,7627,S,Constance Ave,Chicago,IL,60649,7230.0,55081,HS,43.0,South Shore,South Shore,11.0,4.0,170318342002012,41.8788263693,-87.7246619234,170993005665,_170993005665,17031834200
610392,World Language HS,World Language Academy High School,World Language HS,World Language High School,3120,S,Kostner Ave,Chicago,IL,60623,4460.0,52011,HS,30.0,South Lawndale,Pilsen - Little Village,16.0,7.0,170318305001006,41.9890331928,-87.6651879968,170993005788,_170993005788,17031830500
610111,Palmer,John Palmer Elementary School,Palmer,Palmer Elem School,5051,N,Kenneth Ave,Chicago,IL,60630,5260.0,24821,ES,14.0,Albany Park,Albany Irving,27.0,12.0,170311404004006,41.7428493855,-87.7057857222,170993001017,_170993001017,17031140400
610244,Clark HS,Michele Clark Academic Prep Magnet High School,Clark HS,Clark Acad Prep Magnet High Schl,5101,W,Harrison St,Chicago,IL,60644,6620.0,41051,HS,25.0,Austin,Austin,25.0,2.0,170318314001006,41.8023431427,-87.6721697288,170993001210,_170993001210,17031831400
609815,Bouchet,Edward A Bouchet Math & Science Academy ES,Bouchet,Bouchet Elem Math & Science Acad,7355,S,Jeffery Blvd,Chicago,IL,60649,2430.0,22371,ES,43.0,South Shore,South Shore,11.0,3.0,170314308001014,41.8829974809999,-87.6706456816999,170993000623,_170993000623,17031430800
400060,Asian Human Services Chtr - Passages,Asian Human Services - Passages Charter School,Asian Human Services Chtr - Passages,Passages Elem Charter School,1643,W,Bryn Mawr Ave,Chicago,IL,60660,6850.0,66191,ES,77.0,Edgewater,Ravenswood,30.0,12.0,170310309001002,41.9833988715,-87.6711611724,170993005682,_170993005682,17031030900
609880,Decatur,Stephen Decatur Classical Elementary School,Decatur,Decatur Classical Elem School,7030,N,Sacramento Ave,Chicago,IL,60645,2990.0,29031,ES,2.0,West Ridge,Ravenswood,30.0,13.0,170310203011000,41.8218241804,-87.7002013065,170993000692,_170993000692,17031020301
609908,Esmond,Esmond Elementary School,Esmond,Esmond Elem School,1865,W,Montvale,Chicago,IL,60643,3250.0,23131,ES,75.0,Morgan Park,Beverly,3.0,5.0,170317505003023,41.8855286527,-87.7666260797,170993000753,_170993000753,17031750500
609821,Burnham,Burnham Elementary Inclusive Academy,Burnham,Burnham Elem Inclusive Academy,9928,S,Crandon Ave,Chicago,IL,60617,2480.0,22432,ES,51.0,South Deering,Far East Side,2.0,4.0,170315103004012,41.7967601153999,-87.6161038592999,170993000633,_170993000633,17031510300
609813,Brownell,Charles S Brownell Elementary School,Brownell,Brownell Elem School,6741,S,Michigan Ave,Chicago,IL,60637,2410.0,22361,ES,69.0,Greater Grand Crossing,Chatham,12.0,2.0,170316904004001,41.6997265279999,-87.5620476155,170993000622,_170993000622,17031690400
610245,Douglass HS,Frederick A Douglass Academy High School,Douglass HS,Douglass Academy High School,543,N,Waller Ave,Chicago,IL,60644,6630.0,41061,HS,25.0,Austin,Austin,25.0,1.0,170312514002006,41.9599836093999,-87.6497859233,170993005789,_170993005789,17031251400
609994,Hibbard,William G Hibbard Elementary School,Hibbard,Hibbard Elem School,3244,W,Ainslie St,Chicago,IL,60625,4000.0,23801,ES,14.0,Albany Park,Albany Irving,27.0,12.0,170311402001007,41.8623096504,-87.7182564019,170993000854,_170993000854,17031140200
609692,Simeon HS,Neal F Simeon Career Academy High School,Simeon HS,Simeon Career Academy High School,8147,S,Vincennes Ave,Chicago,IL,60620,1150.0,53061,HS,44.0,Chatham,Auburn Gresham,5.0,4.0,170318424003036,41.8028808659,-87.6623145150999,170993000758,_170993000758,17031842400
400058,Nth Lawndale Chtr - Christiana,North Lawndale College Prep Charter - Christiana,Nth Lawndale Chtr - Christiana,North Lawndale Charter HS,1616,S,Spaulding Ave,Chicago,IL,60623,1105.0,66091,HS,29.0,North Lawndale,North Lawndale,19.0,2.0,170318415002021,41.8585191307,-87.7079522422999,170993003474,_170993003474,17031841500
609941,Randolph,Asa Philip Randolph Elementary School,Randolph,Randolph Elem School,7316,S,Hoyne Ave,Chicago,IL,60636,3550.0,29111,ES,67.0,West Englewood,Englewood,4.0,3.0,170316720004008,41.8370377183999,-87.7186957209,170993000769,_170993000769,17031672000
610574,"Mandela, W",Winnie Mandela High School,"Mandela, W",,,,,Chicago,IL,60649,9639.0,,HS,43.0,South Shore,South Shore,11.0,4.0,170314312001026,41.7520153166,-87.5759196738,,_,17031431200
610394,Uplift HS,Uplift Community High School,Uplift HS,Uplift Community High School,900,W,Wilson Ave,Chicago,IL,60640,2210.0,26861,HS,3.0,Uptown,Ravenswood,30.0,10.0,170310315013003,41.7820414043,-87.6716251948,170993005787,_170993005787,17031031501
609849,Cassell,George F Cassell Elementary School,Cassell,Cassell Elem School,11314,S,Spaulding Ave,Chicago,IL,60655,2720.0,22651,ES,74.0,Mount Greenwood,Beverly,3.0,11.0,170317404002002,41.6537295317,-87.5995172413,170993000655,_170993000655,17031740400
400036,Chicago Virtual Chtr Campus HS,Chicago Virtual Charter High School,Chicago Virtual Chtr Campus HS,Chicago Virtual Elem Charter Schl,38,S,Peoria St,Chicago,IL,60607,7700.0,66481,HS,28.0,Near West Side,Near West,23.0,2.0,170318331001005,41.8805508689999,-87.6497357788999,170993099984,_170993099984,17031833100
609964,Hamline,John H Hamline Elementary School,Hamline,Hamline Elem School,4747,S,Bishop St,Chicago,IL,60609,3740.0,23511,ES,61.0,New City,McKinley Park,17.0,7.0,170316112001002,41.7437550054999,-87.5518251674999,170993000823,_170993000823,17031611200
610009,Galileo,Galileo Math & Science Scholastic Academy ES,Galileo,Galileo Elem Math & Sci Schol Acd,820,S,Carpenter St,Chicago,IL,60607,4160.0,29141,ES,28.0,Near West Side,Near West,23.0,2.0,170318333001032,41.8605451761999,-87.7317780215,170993005548,_170993005548,17031833300
610022,Kilmer,Joyce Kilmer Elementary School,Kilmer,Kilmer Elem School,6700,N,Greenview Ave,Chicago,IL,60626,4300.0,24021,ES,1.0,Rogers Park,Ravenswood,30.0,10.0,170310106001015,41.7764532854,-87.6408553706999,170993000886,_170993000886,17031010600
610132,Poe,Edgar Allan Poe Elementary Classical School,Poe,Poe Elem Classical School,10538,S,Langley Ave,Chicago,IL,60628,5460.0,29261,ES,50.0,Pullman,Far South Side,22.0,4.0,170315002002014,41.7403127991,-87.6078902626999,170993000888,_170993000888,17031500200
610034,Lawndale,Lawndale Elementary Community Academy,Lawndale,Lawndale Elem Community Academy,3500,W,Douglas Blvd,Chicago,IL,60623,4430.0,31161,ES,29.0,North Lawndale,North Lawndale,19.0,2.0,170312912002006,41.7192645080999,-87.6524996522,170993000907,_170993000907,17031291200
400092,Cics - Lloyd Bond,Chicago Intl Charter - Lloyd Bond,Cics - Lloyd Bond,Chicago International Charter,13300,S,Langley Ave,Chicago,IL,60827,8049.0,66076,ES,54.0,Riverdale,Far South Side,22.0,5.0,170315401011002,41.6536675747999,-87.6050029272,170993003505,_170993003505,17031540101
610122,Peirce,Helen Peirce International Studies ES,Peirce,Peirce Elem Intl Studies School,1423,W,Bryn Mawr Ave,Chicago,IL,60660,5360.0,24891,ES,77.0,Edgewater,Ravenswood,30.0,10.0,170310308001009,41.787871535,-87.7192154677999,170993001027,_170993001027,17031030800
610391,Lindblom HS,Robert Lindblom Math & Science Academy HS,Lindblom HS,Lindblom Math & Science Acad HS,6130,S,Wolcott Ave,Chicago,IL,60636,7110.0,46511,HS,67.0,West Englewood,Englewood,4.0,2.0,170316706002004,41.8944493760999,-87.7261296105999,170993005791,_170993005791,17031670600
609837,Carnegie,Andrew Carnegie Elementary School,Carnegie,Carnegie Elem School,1414,E,61st Pl,Chicago,IL,60637,2630.0,22551,ES,42.0,Woodlawn,Woodlawn,13.0,3.0,170314202001005,41.9037928007999,-87.7178899134,170993000648,_170993000648,17031420200
609865,Jordan,Jordan Elementary Community School,Jordan,Jordan Elem Community School,7414,N,Wolcott Ave,Chicago,IL,60626,2870.0,22811,ES,1.0,Rogers Park,Ravenswood,30.0,13.0,170310102012037,41.8995652977,-87.6819747753,170993000441,_170993000441,17031010201
400136,Yccs Chtr - Olive Harvey,YCCS-Olive Harvey Middle College HS,Yccs Chtr - Olive Harvey,Youth Connections Charter HS,10001,S,Woodlawn Ave,Chicago,IL,60628,9053.0,66621,HS,50.0,Pullman,Chatham,12.0,4.0,170315001004011,41.7129281790999,-87.592368917,170993003473,_170993003473,17031500100
609708,Foreman HS,Edwin G Foreman High School,Foreman HS,Foreman High School,3235,N,LeClaire Ave,Chicago,IL,60641,1330.0,46131,HS,15.0,Portage Park,Albany Irving,27.0,12.0,170311510012004,41.6899513075999,-87.6375354477,170993000799,_170993000799,17031151001
609732,Steinmetz College Prep HS,Charles P Steinmetz College Preparatory HS,Steinmetz College Prep HS,Steinmetz College Prep HS,3030,N,Mobile Ave,Chicago,IL,60634,1560.0,46291,HS,19.0,Belmont Cragin,Belmont Cragin,26.0,9.0,170311904011023,41.9463432311,-87.7356352652,170993001139,_170993001139,17031190401
610228,Whittier,John Greenleaf Whittier Elementary School,Whittier,Whittier Elem School,1900,W,23rd St,Chicago,IL,60608,6450.0,25861,ES,31.0,Lower West Side,Pilsen - Little Village,16.0,7.0,170318432002060,41.7923466681999,-87.7109506711999,170993001159,_170993001159,17031843200
610533,Prieto,Dr Jorge Prieto Math and Science,Prieto,Prieto Math-Science Elem Sch,2231,N,Central Ave,Chicago,IL,60639,8023.0,22581,ES,19.0,Belmont Cragin,Belmont Cragin,26.0,8.0,170311912002000,41.7677825488,-87.5903965778999,,_,17031191200
609929,Fulton,Robert Fulton Elementary School,Fulton,Fulton Elem School,5300,S,Hermitage Ave,Chicago,IL,60609,3450.0,23281,ES,61.0,New City,Englewood,4.0,11.0,170316118002004,41.7384260114,-87.6680626795999,170993000780,_170993000780,17031611800
400101,Uno Chtr  - Sandra Cisneros,UNO Charter - Sandra Cisneros,Uno Chtr  - Sandra Cisneros,UNO Acad Elem School,2744,W,Pershing Rd,Chicago,IL,60632,8094.0,66398,ES,58.0,Brighton Park,McKinley Park,17.0,7.0,170315801002027,41.8228563157,-87.6939948957,,_,17031580100
400071,Providence Chtr - Bunche,Providence Englewood Charter - Bunche,Providence Chtr - Bunche,Providence-Englewood Elem Charter,6515,S,Ashland Ave,Chicago,IL,60636,6700.0,66471,ES,67.0,West Englewood,Englewood,4.0,2.0,170316711001014,41.7753667499,-87.6640324802999,170993099981,_170993099981,17031671100
610329,Orozco,Orozco Fine Arts & Sciences Elementary School,Orozco,Orozco Elem Fine Arts & Sciences,1940,W,18th St,Chicago,IL,60608,7610.0,31281,ES,31.0,Lower West Side,Pilsen - Little Village,16.0,7.0,170313109001002,41.7337060934999,-87.5577592350999,170993004954,_170993004954,17031310900
610029,Lozano,Rodolfo Lozano Bilingual & International Ctr ES,Lozano,Lozano Elem Bilingual & Intl Ctr,1501,N,Greenview Ave,Chicago,IL,60642,4380.0,24101,ES,24.0,West Town,Near North,10.0,1.0,170312416001009,41.7897225962,-87.7791785902,170993000901,_170993000901,17031241600
609939,Gillespie,Frank L Gillespie Elementary School,Gillespie,Gillespie Elem School,9301,S,State St,Chicago,IL,60619,3530.0,23321,ES,49.0,Roseland,Chatham,12.0,4.0,170314903002011,41.9763519836999,-87.7962718868,170993000816,_170993000816,17031490300
610248,Chgo Acad ES,Chicago Academy Elementary School,Chgo Acad ES,Chicago Academy Elem School,3400,N,Austin Ave,Chicago,IL,60634,6670.0,45211,ES,17.0,Dunning,Reed-Dunning,24.0,12.0,170311711001012,41.8903679065,-87.7677051698999,170993004286,_170993004286,17031171100
609748,York HS,Consuella B York Alternative High School,York HS,York Alternative High School,2700,S,California Ave,Chicago,IL,60608,1730.0,49041,HS,30.0,South Lawndale,Pilsen - Little Village,16.0,2.0,170318435001023,41.7598529312,-87.6759101223999,170993000693,_170993000693,17031843500
610235,Young,Ella Flagg Young Elementary School,Young,Young Elem School,1434,N,Parkside Ave,Chicago,IL,60651,6520.0,25921,ES,25.0,Austin,Austin,25.0,1.0,170312506001008,41.8528272101999,-87.6293087389999,170993001171,_170993001171,17031250600
609755,Young HS,Whitney M Young Magnet High School,Young HS,Young Magnet High School,211,S,Laflin St,Chicago,IL,60607,1810.0,47101,HS,28.0,Near West Side,Near West,23.0,2.0,170318331003031,41.6912481756999,-87.7177706096999,170993000714,_170993000714,17031833100
609973,Zapata,Emiliano Zapata Elementary Academy,Zapata,Zapata Elem Academy,2728,S,Kostner Ave,Chicago,IL,60623,3820.0,23611,ES,30.0,South Lawndale,Pilsen - Little Village,16.0,7.0,170313018012023,41.7573400731,-87.6327735184,170993001609,_170993001609,17031301801
400010,Ace Technical Chtr HS,"Architecture, Construction, and Engineering(ACE)Technical Charter School",Ace Technical Chtr HS,Ace Technical Charter High School,5410,S,State St,Chicago,IL,60609,7950.0,66291,HS,40.0,Washington Park,Bronzeville,15.0,2.0,170318361002000,41.796121999,-87.6258123714,170993005684,_170993005684,17031836100
